LocationType,Location Name,StNumber,StNumberFraction,StDirection,StName,StSuffix,StSuffixDirection,CrossStDirection,CrossStName,CrossStSuffix,CrossStSuffixDirection,City,State,Zip,Website,Phone,CouncilDistrict,GeoLat,GeoLong
Parks,Bellaire Avenue Park,7960,52,N,Bellaire,Ave,S,N,Wabash,Ave,N,"Los AngelesCA 91605(34.2156, -118.413)",CA,91605,http://www.laparks.org/dos/parks/facility/eagleRockHillsidePk.htm,(818) 506-7456,2,34.21561,-118.412666
Parks,Sunnynook River Park,3201,21,S,Riverside,Dr,W,E,Vermont,Blvd,S,"Los AngelesCA 90027(34.1134, -118.268)",CA,90027,http://www.laparks.org/dos/playground/facility/griffithUAPk.htm,,4,34.113439,-118.268482
Parks,Holmby Park,601,4,N,Club View,Dr,S,W,Compton,Blvd,N,"Los AngelesCA 90024(34.0729, -118.429)",CA,90024,http://www.laparks.org/dos/parks/facility/maeBoyerPk.htm,(310) 276-1604,5,34.07294331,-118.4293956
Parks,South Victoria Ave Park,6537,65,E,Victoria,Ave,E,N,105th,Ave,E,"Los AngelesCA 90043(33.9794, -118.332)",CA,90043,http://www.laparks.org/dos/reccenter/facility/StAndrewsRC.htm,(310) 548-7675,8,33.979427,-118.332474
Parks,Barry A. Sanders Sports Field,6300,23,W,Balboa,Blvd,S,E,Chase,St,W,"Van NuysCA 91316(34.1867, -118.501)",CA,91316,http://www.laparks.org/dos/parks/facility/seilyRodriguezPk.htm,(818) 756-8060,6,34.186672,-118.50107
Dog Parks,Hermon / Arroyo Seco Dog Park,5566,21,N,Via Marisol,,W,S,Echo Park,Dr,N,"Los AngelesCA 90042(34.1074, -118.185)",CA,90042,http://laparks.org/dos/parks/facility/dogparks/HermonDogPk.htm,(213) 485-5054,14,34.107407,-118.185319
Parks,Imperial Courts Park,2250,55,E,114th,St,W,W,N. of Ventura Freeway,Ave,E,"Los AngelesCA 90059(33.9313, -118.232)",CA,90059,http://www.laparks.org/dos/reccenter/facility/imperialcourtsRC.htm,(323) 564-1834,15,33.93125654,-118.2324199
Public Computer Centers,Wabash Recreation Center - Public Computer Center,2765,78,S,Wabash,Ave,S,N,Crystal Springs,Blvd,S,"Los AngelesCA 90033(34.0507, -118.198)",CA,90033,http://www.laparks.org/btop/lynda.htm,(323) 262-6534,14,34.05070789,-118.1981928
Tennis Courts,Griffith Park - Vermont Canyon Tennis Courts,2715,85,W,Vermont,Cyn,N,E,Highlander,Blvd,W,"Los AngelesCA 90027(34.121, -118.294)",CA,90027,http://www.laparks.org/dos/sports/tennis/facility/vermontcynTC.htm,(323) 664-3521,4,34.121019,-118.293574
Recreation Centers,James Slauson Recreation Center,5306,11,W,Compton,Ave,E,W,Saint Andrews,Dr,W,"Los AngelesCA 90011(33.9942, -118.248)",CA,90011,http://www.laparks.org/dos/parks/facility/eagleRockHillsidePk.htm,(323) 233-1174,9,33.994156,-118.247682
Outdoor Fitness Equipment,105th Street Pocket Park,609,14,E,105th,St,S,N,Lexington,Ave,E,"Los AngelesCA 90044(33.9409, -118.285)",CA,90044,http://www.laparks.org/dos/playground/facility/griffithUAPk.htm,(310) 548-7675,8,33.940919,-118.285253
Parks,Chase Park,22525,55,W,Chase,St,N,E,Balboa,Dr,W,"West HillsCA 91304(34.2228, -118.618)",CA,91304,http://www.laparks.org/dos/parks/facility/maeBoyerPk.htm,(818) 883-6641,12,34.222783,-118.617596
Lakes,Echo Park Lake,751,84,S,Echo Park,Ave,S,S,Alma Real,Ave,S,"Los AngelesCA 90026(34.0724, -118.26)",CA,90026,http://www.laparks.org/dos/reccenter/facility/StAndrewsRC.htm,(213) 847-8524,13,34.07240833,-118.2600257
Parks,Eagle Rock Hillside Park,2934,65,S,N. of Ventura Freeway,,S,W,Huston,,S,"Los AngelesCA 90041(34.149, -118.202)",CA,90041,http://www.laparks.org/dos/parks/facility/seilyRodriguezPk.htm,(213) 485-5054,14,34.149007,-118.202226
Parks,Griffith Park - Shane's Inspiration Park,4730,45,N,Crystal Springs,Dr,E,W,Verdugo,Ave,N,"Los AngelesCA 90027(34.1351, -118.285)",CA,90027,http://www.laparks.org/dos/playground/facility/griffithUAPk.htm,(323) 913-4688,4,34.135083,-118.284647
Parks,Mae Boyar Park,23936,85,W,Highlander,Rd,S,N,West,Ave,W,"Canoga ParkCA 91307(34.1958, -118.647)",CA,91307,http://www.laparks.org/dos/parks/facility/maeBoyerPk.htm,(818) 883-8531,12,34.19575619,-118.6469636
Outdoor Fitness Equipment,Saint Andrews Recreation Center,8701,95,E,Saint Andrews,Pl,W,E,Stadium,Blvd,E,"Los AngelesCA 90047(33.9588, -118.311)",CA,90047,http://www.laparks.org/dos/reccenter/facility/StAndrewsRC.htm,(213) 485-1751,8,33.95882144,-118.3112791
Parks,Seily Rodriguez Park,5707,4,E,Lexington,Ave,S,W,Villa Cabrini,Dr,E,"Los AngelesCA 90038(34.0929, -118.314)",CA,90038,http://www.laparks.org/dos/parks/facility/seilyRodriguezPk.htm,(213) 847-3601,13,34.092917,-118.313975
Recreation Centers,Sepulveda Sports Complex,6201,9,W,Balboa,Blvd,E,N,Monitor,Ave,W,"EncinoCA 91316(34.1835, -118.503)",CA,91316,http://www.laparks.org/dos/reccenter/facility/StAndrewsRC.htm,,6,34.183495,-118.502762
Recreation Centers,Palisades Recreation Center,851,4,W,Alma Real,Dr,S,E,Lake,Ave,W,"Pacific PalisadesCA 90272(34.0424, -118.525)",CA,90272,http://www.laparks.org/dos/parks/facility/seilyRodriguezPk.htm,(310) 454-1412,11,34.042429,-118.524614
Universally Accessible Playgrounds,Van Nuys  Sherman Oaks Recreation Center,14201,51,S,Huston,St,W,S,Vermont,St,S,"Sherman OaksCA 91423(34.1595, -118.443)",CA,91423,http://www.laparks.org/dos/reccenter/facility/vanNuysSORC.htm,(818) 783-5121,4,34.15952933,-118.4425227
Outdoor Fitness Equipment,Glassell Park,3650,45,N,Verdugo,Rd,W,W,Herrick,Dr,N,"Los AngelesCA 90065(34.1167, -118.233)",CA,90065,http://www.laparks.org/dos/parks/facility/glassellPk.htm,(323) 257-1863,1,34.11673874,-118.2331726
Outdoor Fitness Equipment,Gladys Jean Wesson Park,2508,54,N,West,Blvd,S,W,Barrington,Dr,N,"Los AngelesCA 90016(34.0338, -118.34)",CA,90016,http://www.laparks.org/dos/reccenter/facility/StAndrewsRC.htm,,10,34.033847,-118.340309
Parks,Elysian Park -  Avenue of the Palms,8745,48,N,Stadium,Way,N,E,Motor,St,S,"Los AngelesCA 90012(34.0795, -118.249)",CA,90012,http://www.laparks.org/dos/parks/facility/seilyRodriguezPk.htm,(213) 485-5054,13,34.079493,-118.249133
Parks,Villa Cabrini Park,9401,88,S,Villa Cabrini,Dr,E,W,Hoover,Blvd,N,"Sun ValleyCA 91504(34.2153, -118.339)",CA,91504,http://www.laparks.org/dos/parks/facility/villaCabriniPk.htm,(818) 899-4537,2,34.215329,-118.338525
Outdoor Fitness Equipment,Watts Community Park,11300,78,S,Monitor,,S,S,Watson,Blvd,E,"Los AngelesCA 90059(33.932, -118.24)",CA,90059,http://www.laparks.org/dos/reccenter/facility/StAndrewsRC.htm,(310) 548-7675,15,33.932023,-118.240098
Recreation Centers,Penmar Youth Center,1341,54,W,Lake,St,N,S,Stadium,St,W,"VeniceCA 90291(34.0062, -118.456)",CA,90291,http://www.laparks.org/dos/parks/facility/seilyRodriguezPk.htm,(310) 396-8735,11,34.00618864,-118.455831
Universally Accessible Playgrounds,Ken Malloy Harbor Regional Park,25820,82,E,Vermont,Ave,S,N,Villa Cabrini,Ave,N,"Harbor CityCA 90710(33.7877, -118.295)",CA,90710,http://www.laparks.org/dos/parks/facility/kenMalloyHarborPk.htm,(310) 548-7529,15,33.787682,-118.295031
Public Computer Centers,David M. Gonzales / Pacoima Recreation Center - Public Computer Center,10943,21,E,Herrick,Ave,S,W,Monitor,Dr,E,"PacoimaCA 91331(34.2692, -118.413)",CA,91331,http://www.laparks.org/btop/lynda.htm,(818) 899-1950,7,34.26921299,-118.4130658
Recreation Centers,Barrington Recreation Center,333,11,W,Barrington,Ave,E,E,Lake,St,S,"Los AngelesCA 90049(34.0614, -118.469)",CA,90049,http://www.laparks.org/dos/reccenter/facility/barringtonRC.htm,(310) 476-4866,11,34.06137723,-118.4686951
Recreation Centers,Cheviot Hills Recreation Center,2551,12,N,Motor,Ave,W,S,Vermont,Blvd,W,"Los AngelesCA 90064(34.0469, -118.408)",CA,90064,http://www.laparks.org/dos/reccenter/facility/cheviotHillsRC.htm,(310) 837-5186,5,34.046898,-118.408263
Parks,Julian C. Dixon Ave. Park / 48th Street Park,4800,24,S,Hoover,St,N,N,Herrick,Ave,W,"Los AngelesCA 90037(33.9994, -118.287)",CA,90037,http://www.laparks.org/dos/reccenter/facility/StAndrewsRC.htm,(323) 233-4772,9,33.99941769,-118.2869822
Parks,Wilmington Veterans Park,1148,15,N,Watson,Ave,S,S,Barrington,St,E,"WilmingtonCA 90744(33.7858, -118.248)",CA,90744,http://www.laparks.org/dos/parks/facility/seilyRodriguezPk.htm,(310) 548-7675,15,33.785755,-118.248009
Parks,Aliso Canyon Park,702,12,S,Sesnon,Blvd,N,W,Motor,Blvd,N,"NorthridgeCA 91326(34.2789, -118.527)",CA,91326,http://www.laparks.org/dos/parks/facility/alisoCanyonPk.htm,(818) 756-8060,12,34.27891,-118.526823
Tennis Courts,Algin Sutton Tennis Courts,8800,21,S,Hoover,St,N,E,Hoover,St,S,"Los AngelesCA 90044(33.9578, -118.286)",CA,90044,http://www.laparks.org/dos/reccenter/facility/alginSuttonRC.htm,(323) 753-5808,8,33.957778,-118.285546
Recreation Centers,Rancho Cienega Sports Complex,5001,58,W,Rodeo,Rd,E,W,Watson,Ave,N,"Los AngelesCA 90016(34.0222, -118.352)",CA,90016,http://www.laparks.org/dos/reccenter/facility/ranchocienegaRC.htm,(323) 290-2663,10,34.022242,-118.351645
Parks,Glassell Park,3650,96,E,Verdugo,Rd,W,S,105th,Blvd,E,"Los AngelesCA 90065(34.1167, -118.233)",CA,90065,http://www.laparks.org/dos/parks/facility/glassellPk.htm,(323) 257-1863,1,34.11673874,-118.2331726
Outdoor Fitness Equipment,Studio City Park (Beeman Park),12621,54,W,Rye,St,S,W,Chase,St,W,"Studio CityCA 91604(34.1514, -118.408)",CA,91604,http://www.laparks.org/dos/reccenter/facility/studioCityRC.htm,(818) 769-4415,2,34.15137297,-118.4079843
Outdoor Fitness Equipment,Kagel Canyon Park,11435,54,S,Kagel Canyon,St,W,E,Echo Park,Ave,N,"Lake View TerraceCA 91342(34.2807, -118.38)",CA,91342,http://www.laparks.org/dos/parks/facility/kagelCanyonPk.htm,(818) 899-4537,7,34.28069157,-118.3804559
Parks,Echo Park,1632,32,N,Bellevue,Ave,W,W,N. of Ventura Freeway,Blvd,E,"Los AngelesCA 90026(34.0701, -118.261)",CA,90026,http://www.laparks.org/dos/reccenter/facility/echoParkRC.htm,(213) 250-3578,13,34.07012683,-118.2608082
Parks,Fred Roberts Park,4700,85,S,Honduras,St,S,W,Crystal Springs,St,S,"Los AngelesCA 90011(34.0009, -118.244)",CA,90011,http://www.laparks.org/dos/reccenter/facility/fredRobertsRC.htm,(323) 234-8650,9,34.00087496,-118.2439885
Parks,Andres Pico Adobe Park,10940,89,S,Sepulveda,Blvd,S,E,Highlander,Ave,W,"Mission HillsCA 91345(34.2685, -118.467)",CA,91345,http://www.laparks.org/dos/historic/andres.htm,(818) 365-7810,7,34.26854067,-118.4666357
Parks,San Pasqual Park,934,23,N,San Pasqual,Ave,E,W,Saint Andrews,Dr,W,"Los AngelesCA 90042(34.1198, -118.17)",CA,90042,http://www.laparks.org/dos/reccenter/facility/StAndrewsRC.htm,(323) 255-0370,14,34.11981,-118.17014
Outdoor Fitness Equipment,Holleigh Bernson Memorial Park,20500,24,W,Sesnon,Blvd,W,N,Lexington,St,E,"NorthridgeCA 91326(34.293, -118.571)",CA,91326,http://www.laparks.org/dos/parks/facility/seilyRodriguezPk.htm,,12,34.293003,-118.571202
Parks,Lilac Terrace Park,835,96,E,Academy,Rd,E,S,Balboa,Blvd,W,"Los AngelesCA 90012(34.0802, -118.249)",CA,90012,http://www.laparks.org/dos/parks/facility/lilacTerracePk.htm,(213) 847-0926,1,34.080151,-118.249395
Recreation Centers,Crestwood Hills Recreation Center,1000,97,S,Hanley,Ave,E,E,Alma Real,Blvd,S,"Los AngelesCA 90049(34.0766, -118.489)",CA,90049,http://www.laparks.org/dos/reccenter/facility/crestwoodHillsRC.htm,(310) 472-5233,11,34.07661042,-118.4889191
Parks,Wabash Park,2765,42,E,Wabash,Ave,W,W,Huston,St,S,"Los AngelesCA 90033(34.0507, -118.198)",CA,90033,http://www.laparks.org/dos/reccenter/facility/wabashRC.htm,(213) 262-6534,14,34.05070789,-118.1981928
Recreation Centers,Yucca Park Community Center,6671,23,W,Yucca,St,W,S,Verdugo,St,N,"Los AngelesCA 90028(34.1033, -118.336)",CA,90028,http://www.laparks.org/dos/reccenter/facility/yuccaCC.htm,(323) 957-6339,13,34.10331572,-118.3355345
Parks,White Point Nature Preserve & Education Center,725,41,S,Paseo Del Mar,,S,S,West,Ave,W,"San PedroCA 90731(33.7161, -118.315)",CA,90731,http://www.laparks.org/dos/parks/facility/whitePointPk.htm,(310) 561-0917,15,33.716114,-118.315303
Parks,Browns Creek Park,7892,85,E,Horse Flats Fire,Rd,N,W,Stadium,Ave,E,"ChatsworthCA 91311(34.288, -118.588)",CA,91311,http://www.laparks.org/dos/parks/facility/brownsCreekPk.htm,(818) 883-8531,12,34.288031,-118.588165
Public Computer Centers,Eagle Rock Youth Center - Public Computer Center,1102,41,W,Eagle Vista,Dr,N,E,Villa Cabrini,St,E,"Los AngelesCA 90041(34.1436, -118.188)",CA,90041,http://www.laparks.org/btop/lynda.htm,(323) 341-5658,14,34.14363983,-118.1882212
Parks,Griffith Park - Pony & Train Rides,3300,25,S,Riverside,Dr,N,S,Monitor,Dr,W,"Los AngelesCA 90027(34.1177, -118.272)",CA,90027,http://www.laparks.org/dos/parks/griffithPK/ponyrides.htm,(323) 664-3266,4,34.117654,-118.27198
Public Computer Centers,James Slauson Recreation Center - Public Computer Center,5306,21,S,Compton,Ave,S,W,Lake,Dr,S,"Los AngelesCA 90011(33.9946, -118.248)",CA,90011,http://www.laparks.org/btop/lynda.htm,(323) 233-1174,9,33.99462127,-118.2476422
Gardens,Solano Canyon Community Garden,835,74,N,Academy,Rd,S,E,Vermont,Blvd,E,"Los AngelesCA 90012(34.0753, -118.232)",CA,90012,http://www.laparks.org/dos/parks/facility/elysianpk.htm,(323) 525-7411,1,34.075292,-118.231559
Recreation Centers,Denker Recreation Center,1550,56,W,35th,Pl,W,W,Wabash,St,W,"Los AngelesCA 90018(34.0236, -118.305)",CA,90018,http://www.laparks.org/dos/reccenter/facility/denkerRC.htm,(323) 733-8367,8,34.02355276,-118.3045149
Outdoor Fitness Equipment,6th & Gladys Street Park,624,96,E,6th,St,E,S,Vermont,Ave,N,"Los AngelesCA 90021(34.0403, -118.242)",CA,90021,http://www.laparks.org/dos/parks/facility/6thgladysPk.htm,(818) 756-8189,14,34.04032,-118.242479
Outdoor Fitness Equipment,Westside Neighborhood Park,3085,12,W,Clyde,Ave,E,W,Compton,Dr,S,"Los AngelesCA 90016(34.0291, -118.37)",CA,90016,http://www.laparks.org/dos/parks/facility/westsideNeighborhoodPk.htm,(323) 292-6622,10,34.029093,-118.36998
Parks,Lake View Terrace Park,11075,35,W,Foothill,Blvd,W,E,105th,Blvd,N,"Lake View TerraceCA 91342(34.2747, -118.372)",CA,91342,http://www.laparks.org/dos/reccenter/facility/lakeviewTerraceRC.htm,(818) 899-8087,7,34.27465645,-118.3715831
Parks,Sepulveda Basin Wildlife Reserve,6350,41,E,Woodley,Ave,N,W,Chase,Dr,N,"Van NuysCA 91406(34.1785, -118.474)",CA,91406,http://www.laparks.org/dos/horticulture/sepulvedabasin.htm,(818) 756-7667,6,34.178515,-118.474043
Public Computer Centers,Mason Youth Center - Public Computer Center,10520,21,S,Mason,Ave,S,W,Echo Park,St,E,"ChatsworthCA 91311(34.2615, -118.58)",CA,91311,http://www.laparks.org/btop/lynda.htm,(818) 998-6377,12,34.26154428,-118.5798211
Swimming Pools - Year Round,Van Nuys Sherman Oaks Pool,14201,23,N,Huston,St,N,E,N. of Ventura Freeway,Ave,W,"Los AngelesCA 91423(34.1595, -118.443)",CA,91423,http://www.laparks.org/dos/aquatic/facility/vanNuys_SOPool.htm,(818) 783-6721,4,34.15952933,-118.4425227
Public Computer Centers,Poinsettia Recreation Center - Public Computer Center,7341,85,S,Willoughy,Ave,S,W,Crystal Springs,St,S,"Los AngelesCA 90046(34.0878, -118.35)",CA,90046,http://www.laparks.org/btop/lynda.htm,(323) 876-5014,5,34.087752,-118.350031
Recreation Centers,Ralph C. Daniels Field Sports Center,845,96,W,12th,St,S,N,Highlander,Dr,S,"San PedroCA 90731(33.7332, -118.296)",CA,90731,http://www.laparks.org/dos/reccenter/facility/danFharSC.htm,(310) 548-7728,15,33.73320205,-118.2955729
Recreation Centers,Tarzana Recreation Center,5655,12,E,Vanalden,Ave,W,S,Saint Andrews,Blvd,E,"TarzanaCA 91356(34.1746, -118.55)",CA,91356,http://www.laparks.org/dos/reccenter/facility/tarzanaRC.htm,(818) 343-5946,3,34.17462734,-118.5502669
Parks,Viking Park,159,25,W,Viking,Ave,E,E,Lexington,Dr,W,"NorthridgeCA 91326(34.2799, -118.545)",CA,91326,http://www.laparks.org/dos/parks/facility/vikingPk.htm,(818) 368-8343,12,34.27995,-118.545154
Parks,Valley Plaza Park,12240,74,S,Archwood,St,S,W,Balboa,St,N,"North HollywoodCA 91606(34.192, -118.401)",CA,91606,http://www.laparks.org/dos/parks/facility/valleyPlazaPk.htm,(818) 765-5885,2,34.192008,-118.400894
Public Computer Centers,Tarzana Youth Center - Public Computer Center,5700,85,W,Beckford,Ave,W,S,Alma Real,Ave,S,"TarzanaCA 91356(34.1748, -118.551)",CA,91356,http://www.laparks.org/btop/lynda.htm,(818) 343-4721,3,34.17477558,-118.5514596
Free Wi-Fi Hot Spots,Griffith Observatory,2800,23,E,Observatory,Rd,W,S,Huston,St,N,"Los AngelesCA 90027(34.1184, -118.3)",CA,90027,http://griffithobservatory.org/,(213) 473-0800,4,34.118429,-118.300374
Parks,Triangle Park (Marr Park),468,38,W,Oxford,Ave,E,W,Verdugo,Dr,N,"VeniceCA 90291(33.9875, -118.456)",CA,90291,http://www.laparks.org/dos/parks/facility/trianglePk.htm,(310) 548-7675,11,33.987518,-118.456343
Parks,Sullivan Canyon Park,987,21,W,Santa Monica Mountains,,W,E,West,Blvd,S,"Los AngelesCA 90049(34.0737, -118.509)",CA,90049,http://www.laparks.org/dos/parks/facility/sullivanCynPk.htm,(310) 840-2187,11,34.073715,-118.509023
Tennis Courts,Branford Tennis Courts,13310,56,E,Branford,St,S,E,Stadium,Dr,E,"ArletaCA 91311(34.233, -118.424)",CA,91311,http://www.laparks.org/dos/reccenter/facility/branfordRC.htm,(818) 893-4923,6,34.23304056,-118.4239358
Universally Accessible Playgrounds,Westchester Recreation Center,7000,96,W,Manchester,Ave,S,W,Villa Cabrini,St,W,"Los AngelesCA 90045(33.9596, -118.414)",CA,90045,http://www.laparks.org/dos/reccenter/facility/westchesterRC.htm,(310) 670-7473,11,33.95956137,-118.4138213
Parks,Roscoe-Valley Circle Park,789,12,N,Valley,Cir,N,W,Wabash,Ave,N,"Canoga ParkCA 91304(34.2196, -118.648)",CA,91304,http://www.laparks.org/dos/parks/facility/RoscoeValleyCirclePk.htm,(818) 883-3637,12,34.219649,-118.648127
Universally Accessible Playgrounds,Barry A. Sanders Sports Field,6300,35,S,Balboa,Blvd,W,S,Vermont,Dr,S,"Van NuysCA 91316(34.1867, -118.501)",CA,91316,http://www.laparks.org/dos/parks/facility/lakeBalboaPk.htm,(818) 756-8060,6,34.186672,-118.50107
Skate Parks,Lake Street Skate Park,227,4,E,Lake,St,E,S,Compton,Blvd,N,"Los AngelesCA 90026(34.0687, -118.27)",CA,90026,http://www.laparks.org/dos/parks/skateparks/lakeStSkatePk.htm,(213) 207-2196,13,34.06874703,-118.270384
Recreation Centers,Sunland Recreation Center,8651,12,W,Foothill,Blvd,E,W,105th,Dr,N,"SunlandCA 91040(34.2599, -118.322)",CA,91040,http://www.laparks.org/dos/reccenter/facility/sunlandRC.htm,(818) 352-5282,7,34.25987785,-118.32201
Outdoor Fitness Equipment,Seily Rodriguez Park,5707,23,S,Lexington,Ave,W,E,Chase,St,E,"Los AngelesCA 90038(34.0929, -118.314)",CA,90038,http://www.laparks.org/dos/parks/facility/seilyRodriguezPk.htm,(213) 847-3601,13,34.092917,-118.313975
Parks,Victory - Vineland Park,11117,11,S,Victory,Blvd,W,W,Echo Park,Ave,W,"Los AngelesCA 91606(34.1869, -118.373)",CA,91606,http://www.laparks.org/dos/parks/facility/victoryVinelandPk.htm,(818) 985-9516,2,34.186926,-118.3727
Parks,Pan Pacific Park,7600,14,W,Beverly,Blvd,S,S,N. of Ventura Freeway,St,S,"Los AngelesCA 90036(34.0749, -118.355)",CA,90036,http://www.laparks.org/dos/parks/facility/panPacificPk.htm,(323) 939-8874,4,34.07487935,-118.3549473
Dog Parks,Runyon Canyon Dog Park,2000,26,E,Fuller,Ave,N,W,Crystal Springs,St,W,"Los AngelesCA 90046(34.1053, -118.349)",CA,90046,http://laparks.org/dos/parks/facility/dogparks/runyonCynDogPk.htm,(323) 666-5046,4,34.10530646,-118.3488732
Museums,Banning Residence Museum,401,56,E,M,St,N,E,Highlander,Dr,W,"WilmingtonCA 90744(33.7899, -118.259)",CA,90744,http://www.lacity.org/disclaim/disclaim.cfm?goto=http://www.banningmuseum.org,(310) 548-7777,15,33.789925,-118.258813
Parks,76th Street Pocket Park,833,96,W,76th,St,N,W,Saint Andrews,Ave,S,"Los AngelesCA 90044(33.971, -118.288)",CA,90044,http://www.laparks.org/dos/reccenter/facility/StAndrewsRC.htm,(310) 548-7675,8,33.971023,-118.288267
Parks,El Sereno Arroyo Playground,5520,12,W,Concord,Ave,S,W,Lexington,Dr,S,"Los AngelesCA 90032(34.0798, -118.162)",CA,90032,http://www.laparks.org/dos/parks/facility/seilyRodriguezPk.htm,(323) 223-2764,14,34.07980496,-118.1618492
Recreation Centers,Montecito Heights Recreation Center,4545,35,S,Homer,St,S,E,Balboa,St,E,"Los AngelesCA 90031(34.0955, -118.203)",CA,90031,http://www.laparks.org/dos/reccenter/facility/montecitoHeightsRC.htm,(213) 485-5148,1,34.095544,-118.20335
Outdoor Fitness Equipment,Evergreen Recreation Center,2844,62,N,2nd,St,W,W,Alma Real,Blvd,S,"Los AngelesCA 90033(34.039, -118.203)",CA,90033,http://www.laparks.org/dos/reccenter/facility/evergreenRC.htm,(323) 262-0397,14,34.038954,-118.203476
Parks,Evergreen Park,2844,12,S,2nd,St,E,N,Huston,Dr,W,"Los AngelesCA 90033(34.0391, -118.205)",CA,90033,http://www.laparks.org/dos/reccenter/facility/evergreenRC.htm,(323) 262-0397,14,34.03913003,-118.2045264
Skate Parks,Stoner Skate Park,1835,14,E,Stoner,Ave,E,S,Verdugo,St,W,"Los AngelesCA 90025(34.0384, -118.453)",CA,90025,http://www.laparks.org/dos/parks/skateparks/stonerSkatePk.htm,(310) 479-7200,11,34.03844736,-118.4532902
Public Computer Centers,Jackie Tatum / Harvard Recreation Center - Public Computer Center,1535,23,W,62nd,St,W,E,West,Blvd,E,"Los AngelesCA 90047(33.9386, -118.304)",CA,90047,http://www.laparks.org/btop/lynda.htm,(323) 778-2579,8,33.93857,-118.303829
Public Computer Centers,Martin Luther King Jr. Recreation Center - Public Computer Center,3916,25,S,Western,Ave,N,W,Stadium,Dr,W,"Los AngelesCA 90062(34.0139, -118.309)",CA,90062,http://www.laparks.org/btop/lynda.htm,(213) 847-0878,8,34.01394464,-118.3087893
Swimming Pools - Summer,Pecan Pool,120,8,S,Gless,St,S,S,Villa Cabrini,St,S,"Los AngelesCA 90033(34.0467, -118.223)",CA,90033,http://www.laparks.org/dos/aquatic/facility/pecanPool.htm,(323) 526-3042,14,34.04674613,-118.222927
Parks,Rivas Canyon Park,369,46,S,Oracle,Pl,N,S,Monitor,Ave,S,"Pacific PalisadesCA 90272(34.0518, -118.516)",CA,90272,http://www.laparks.org/dos/parks/facility/rivasCynPk.htm,(310) 548-7675,11,34.051771,-118.516387
Parks,Verdugo Mountain Park,9999,46,E,Edmore,Pl,S,W,Lake,St,N,"Sun ValleyCA 91352(34.2202, -118.349)",CA,91352,http://www.laparks.org/dos/parks/facility/verdugoMtnPk.htm,(818) 756-8060,2,34.220172,-118.348827
Universally Accessible Playgrounds,Orthopaedic Hospital Universal Access Playground,2400,5,W,Flower,St,S,E,Vermont,Dr,W,"Los AngelesCA 90007(34.028, -118.274)",CA,90007,http://www.laparks.org/dos/playground/facility/orthoUAPk.htm,(310) 548-7675,9,34.027994,-118.273605
Public Computer Centers,Wilmington Recreation Center - Public Computer Center,325,56,N,Neptune,Ave,W,E,Herrick,Blvd,E,"WilmingtonCA 90744(33.7731, -118.269)",CA,90744,http://www.laparks.org/btop/lynda.htm,(310) 548-7645,15,33.77313982,-118.2686791
Recreation Centers,Cabrillo Beach Bathhouse,3800,69,N,Stephen M. White,Dr,E,W,Barrington,Blvd,E,"San PedroCA 90731(33.7099, -118.284)",CA,90731,http://www.laparks.org/dos/reccenter/facility/cabrilloBBathHouse.htm,(310) 548-7554,15,33.709914,-118.283767
Museums,Campo de Cahuenga,3919,6,S,Lankershim,Blvd,W,W,Wabash,Dr,W,"North HollywoodCA 91604(34.1398, -118.362)",CA,91604,http://www.laparks.org/dos/historic/campo.htm,(818) 623-4166,4,34.139806,-118.362314
Swimming Pools - Summer,Granada Hills Pool,16730,45,W,Chatsworth,St,S,S,Vermont,St,W,"Granada HillsCA 91344(34.2637, -118.497)",CA,91344,http://www.laparks.org/dos/aquatic/facility/granadaHillsPool.htm,(818) 360-7107,12,34.263706,-118.496758
Parks,Westwood Park,1350,85,S,Sepulveda,Blvd,N,S,Compton,Ave,S,"Los AngelesCA 90025(34.0533, -118.448)",CA,90025,http://www.laparks.org/dos/reccenter/facility/westwoodRC.htm,(310) 473-3610,5,34.053257,-118.448297
Parks,Griffith Park - Pollywog Area,7825,52,E,Reese,Pl,S,W,105th,Ave,N,"BurbankCA 91506(34.1564, -118.318)",CA,91506,http://www.laparks.org/dos/reccenter/facility/StAndrewsRC.htm,(310) 548-7675,4,34.156427,-118.317609
Recreation Centers,Victory Valley Youth Center,6451,14,S,Saint Clair,Ave,N,E,Chase,St,N,"North HollywoodCA 91606(34.1876, -118.4)",CA,91606,http://www.laparks.org/dos/parks/facility/seilyRodriguezPk.htm,(818) 764-1679,2,34.18758094,-118.3998795
Parks,Mcgroarty Cultural Art Center,7570,55,W,Mcgroarty,Ter,N,W,Echo Park,Dr,S,"TujungaCA 91042(34.2509, -118.297)",CA,91042,http://www.laparks.org/dos/parks/facility/mcGroartyPk.htm,(818) 352-5282,7,34.250876,-118.297399
Parks,Van Nuys Sherman Oaks Park,14201,1,N,Huston,St,E,S,N. of Ventura Freeway,Blvd,E,"Sherman OaksCA 91423(34.1595, -118.443)",CA,91423,http://www.laparks.org/dos/reccenter/facility/vanNuysSORC.htm,(818) 783-5121,4,34.15952933,-118.4425227
Parks,Everett Triangle Park,1010,12,S,Everett,St,W,W,Crystal Springs,Dr,W,"Echo ParkCA 90026(34.0702, -118.249)",CA,90026,http://www.laparks.org/dos/parks/facility/everettPk.htm,(213) 485-5054,1,34.070201,-118.248722
Parks,Griffith Park - Easter Field,5147,35,E,Rancho,Ave,N,E,Highlander,St,N,"GlendaleCA 90027(34.1586, -118.303)",CA,90027,http://www.laparks.org/dos/parks/griffithpk/,(323) 913-4688,4,34.15857872,-118.3029327
Recreation Centers,Poinsettia Recreation Center,7341,62,W,Willoughy,Ave,S,W,Saint Andrews,Ave,S,"Los AngelesCA 90046(34.0878, -118.35)",CA,90046,http://www.laparks.org/dos/reccenter/facility/poinsettiaRC.htm,(323) 876-5014,5,34.087752,-118.350031
Tennis Courts,Ralph C. Daniels Field Tennis Courts,845,12,S,12th,St,N,W,Lexington,Dr,N,"San PedroCA 90731(33.7329, -118.296)",CA,90731,http://www.laparks.org/dos/reccenter/facility/danFharSC.htm,(310) 548-7728,15,33.732934,-118.296371
Parks,Pan Pacific Park - Renee's Place,7600,32,N,Beverly,Blvd,N,E,Balboa,Blvd,N,"Los AngelesCA 90036(34.0749, -118.355)",CA,90036,http://www.laparks.org/dos/playground/facility/panPacificUAPPk.htm,(323) 939-8874,4,34.07487935,-118.3549473
Public Computer Centers,Ritchie Valens Recreation Center - Public Computer Center,10731,31,S,Laurel Canyon,Blvd,E,W,Alma Real,Dr,E,"PacoimaCA 91331(34.2658, -118.439)",CA,91331,http://www.laparks.org/btop/lynda.htm,(818) 834-5172,7,34.265818,-118.438725
Golf Courses,Rancho Park 3-Par Golf Course,10460,2,S,Pico,Blvd,W,N,Huston,St,W,"Los AngelesCA 90064(34.0474, -118.415)",CA,90064,http://golf.lacity.org/cdp_rancho_p3.htm,(310) 838-7561,5,34.04737,-118.414689
Parks,Whitsett Fields Park,1011,12,W,Whitsett,Ave,S,S,Verdugo,Ave,S,"North HollywoodCA 91606(34.1985, -118.405)",CA,91606,http://www.laparks.org/dos/parks/facility/whitsettFieldsPk.htm,(818) 765-5885,2,34.198513,-118.404992
Skate Parks,Lanark Skate Plaza,21816,23,N,Lanark,St,W,E,West,St,W,"Canoga ParkCA 91304(34.2174, -118.604)",CA,91304,http://www.laparks.org/dos/reccenter/facility/lanarkRC.htm,(818) 883-1503,3,34.21743314,-118.6038772
Public Computer Centers,Evergreen Youth Center - Public Computer Center,211,42,S,Evergreen,Ave,S,W,Stadium,Dr,W,"Los AngelesCA 90033(34.0388, -118.204)",CA,90033,http://www.laparks.org/btop/lynda.htm,(323) 263-2816,14,34.038819,-118.204026
Parks,De Neve Square Park,314,96,S,Beverly Glen,,W,S,Villa Cabrini,Ave,S,"Los AngelesCA 90077(34.0842, -118.435)",CA,90077,http://www.laparks.org/dos/parks/facility/deNeveSquPk.htm,(310) 840-2186,5,34.08425,-118.43496
Tennis Courts,Poinsettia Tennis Courts,7341,12,W,Willoughy,Ave,W,S,Monitor,St,S,"Los AngelesCA 90046(34.0883, -118.349)",CA,90046,http://www.laparks.org/dos/reccenter/facility/poinsettiaRC.htm,(323) 512-8234,5,34.088311,-118.348969
Parks,Mandeville Canyon Park,1010,35,E,Mandeville Fire,,S,W,Lake,Dr,E,"Los AngelesCA 90049(34.0855, -118.509)",CA,90049,http://www.laparks.org/dos/parks/facility/mandevilleCanyonPk.htm,(310) 589-3200,11,34.085468,-118.509006
Swimming Pools - Summer,Sepulveda Pool,8737,62,S,Kester,Ave,N,E,Wabash,Blvd,W,"Panorama CityCA 91402(34.2295, -118.458)",CA,91402,http://www.laparks.org/dos/aquatic/facility/sepulvedaPool.htm,(818) 894-0144,6,34.22948561,-118.4575623
Parks,East Los Angeles Park,3160,12,E,Minnesota,St,E,E,Vermont,St,N,"Los AngelesCA 90031(34.0771, -118.207)",CA,90031,http://www.laparks.org/dos/parks/facility/eastLAPk.htm,(323) 225-3329,1,34.07714,-118.20731
Swimming Pools - Summer,Ritchie Valens Pool,10731,54,E,Laurel Canyon,Blvd,S,W,Compton,Ave,E,"PacoimaCA 91331(34.2645, -118.439)",CA,91331,http://www.laparks.org/dos/aquatic/facility/ritchieValensPool.htm,(818) 834-5176,7,34.264476,-118.439407
Recreation Centers,Branford Recreation Center,13306,85,W,Branford,St,N,W,105th,Blvd,N,"ArletaCA 91331(34.2334, -118.423)",CA,91331,http://www.laparks.org/dos/reccenter/facility/branfordRC.htm,(818) 893-4923,6,34.23337931,-118.4232809
Parks,Valley Glen Community Park,434,56,S,Erwin,St,S,S,Chase,Dr,S,"Van NuysCA 91436(34.183, -118.418)",CA,91436,http://www.laparks.org/dos/parks/facility/valleyGlenPk.htm,(818) 766-8445,2,34.182953,-118.418285
Recreation Centers,Hubert H. Humphrey Recreation Center,12560,41,W,Filmore,St,S,S,Echo Park,Blvd,N,"PacoimaCA 91331(34.2818, -118.407)",CA,91331,http://www.laparks.org/dos/reccenter/facility/huberthumphreyRC.htm,(818) 896-6510,7,34.28181122,-118.4074686
Recreation Centers,Imperial Courts Recreation Center,2250,23,S,114th,St,E,W,N. of Ventura Freeway,Dr,E,"Los AngelesCA 90059(33.9313, -118.232)",CA,90059,http://www.laparks.org/dos/reccenter/facility/imperialcourtsRC.htm,(323) 564-1834,15,33.93125654,-118.2324199
Parks,Libbit Park,5101,13,W,Libbit,Ave,W,E,Crystal Springs,St,W,"Van NuysCA 91436(34.1625, -118.488)",CA,91436,http://www.laparks.org/dos/parks/facility/libbitPark.htm,(818) 756-7667,5,34.16248827,-118.4880815
Parks,Bellevue Park,826,32,W,Lucille,Ave,N,W,Highlander,Ave,N,"Los AngelesCA 90026(34.084, -118.283)",CA,90026,http://www.laparks.org/dos/reccenter/facility/bellevueRC.htm,(323) 664-2468,13,34.084016,-118.283446
Outdoor Fitness Equipment,North Hollywood Park,11430,96,S,Chandler,Blvd,S,S,Saint Andrews,St,E,"North HollywoodCA 91601(34.1679, -118.38)",CA,91601,http://www.laparks.org/dos/reccenter/facility/northHollywoodRC.htm,(818) 763-7651,2,34.1679113,-118.3798722
Museums,Drum Barracks Civil War Museum,1052,12,N,Banning,Blvd,N,W,Lexington,Dr,S,"WilmingtonCA 90744(33.7847, -118.258)",CA,90744,http://www.lacity.org/disclaim/disclaim.cfm?goto=http://www.drumbarracks.org,(310) 548-7509,15,33.784702,-118.258156
Public Computer Centers,Canoga Park Senior Center - Public Computer Center,7326,35,N,Jordan,Ave,N,E,Balboa,Blvd,W,"Canoga ParkCA 91303(34.2037, -118.603)",CA,91303,http://www.laparks.org/btop/lynda.htm,(818) 340-2633,3,34.20369,-118.602517
Parks,Glenhurst Park,2932,62,S,Glenhurst,Ave,E,W,Alma Real,Dr,W,"Los AngelesCA 90039(34.1102, -118.253)",CA,90039,http://www.laparks.org/dos/parks/facility/glenhurstPk.htm,(213) 847-0926,13,34.110233,-118.252805
Recreation Centers,El Sereno Recreation Center,4721,12,E,Klamath,St,W,W,Huston,St,E,"Los AngelesCA 90032(34.0757, -118.182)",CA,90032,http://www.laparks.org/dos/reccenter/facility/elSerenoRC.htm,(323) 225-3517,14,34.075694,-118.1815698
Theatre,Greek Theatre,2700,22,S,Vermont,Ave,S,E,Verdugo,Ave,W,"Los AngelesCA 90027(34.1197, -118.296)",CA,90027,http://www.laparks.org/dos/parks/griffithPK/greekthtr.htm,(323) 665-5857,4,34.119739,-118.296131
Parks,Robert F. Kennedy Inspiration Park,3400,51,W,Wilshire,Blvd,W,W,West,St,S,"Los AngelesCA 90010(34.0617, -118.298)",CA,90010,http://www.laparks.org/dos/reccenter/facility/StAndrewsRC.htm,(213) 485-5572,10,34.06173,-118.297572
Tennis Courts,Griffith Park - Riverside Tennis Courts,3401,1,S,Riverside,Dr,W,N,Stadium,Dr,S,"Los AngelesCA 90027(34.1163, -118.27)",CA,90027,http://www.laparks.org/dos/parks/facility/seilyRodriguezPk.htm,(323) 661-5318,4,34.116327,-118.270274
Parks,East Wilmington Vest Pocket Park,1300,1,E,O,St,S,S,Villa Cabrini,Blvd,N,"WilmingtonCA 90744(33.7925, -118.248)",CA,90744,http://www.laparks.org/dos/parks/facility/eastWilmingtonVestPocketPk.htm,(310) 548-7675,15,33.79253,-118.248116
Recreation Centers,Yosemite Recreation Center,1840,96,S,Yosemite,Dr,S,E,Monitor,Dr,W,"Los AngelesCA 90041(34.1334, -118.208)",CA,90041,http://www.laparks.org/dos/reccenter/facility/yosemiteRC.htm,(323) 257-1644,14,34.13344093,-118.2080976
Parks,Reynier Park,2803,12,W,Reynier,Ave,N,W,Lake,St,E,"Los AngelesCA 90035(34.0356, -118.386)",CA,90035,http://www.laparks.org/dos/parks/facility/reynierPk.htm,(310) 836-1040,10,34.03563676,-118.3861321
Skate Parks,Westchester Skate Park,7000,35,W,Manchester,Ave,S,S,Vermont,Ave,E,"Los AngelesCA 90045(33.9591, -118.415)",CA,90045,http://www.laparks.org/dos/parks/skateparks/westchesterSkatePk.htm,(310) 670-7473,11,33.959143,-118.414785
Parks,Vanalden Park,8956,62,S,Vanalden,Ave,N,S,Herrick,St,W,"NorthridgeCA 91324(34.2332, -118.547)",CA,91324,http://www.laparks.org/dos/parks/facility/vanaldenPk.htm,(818) 363-8343,12,34.233207,-118.547435
Parks,North Hollywood Park / Dave Potell Memorial Sports Facility,11455,12,N,Magnolia,Blvd,N,W,Barrington,Dr,W,"North HollywoodCA 91601(34.1651, -118.382)",CA,91601,http://www.laparks.org/dos/reccenter/facility/davePotellMemSp.htm,(818) 763-5126,2,34.165107,-118.381644
Public Computer Centers,Green Meadows Recreation Center - Public Computer Center,431,23,E,89th,St,E,E,Wabash,Blvd,S,"Los AngelesCA 90003(33.9557, -118.267)",CA,90003,http://www.laparks.org/btop/lynda.htm,(323) 565-4242,9,33.95568832,-118.2672316
Parks,Lincoln Park,3501,13,S,Valley,Blvd,W,E,Vermont,Dr,N,"Los AngelesCA 90031(34.0656, -118.202)",CA,90031,http://www.laparks.org/dos/parks/facility/lincolnPk.htm,(213) 847-1726,1,34.06561417,-118.2018369
Parks,Wilmington Town Square Park,226,55,N,Avalon,Pl,S,W,Compton,St,N,"WilmingtonCA 90744(33.781, -118.262)",CA,90744,http://www.laparks.org/dos/parks/facility/wilmingtonTownPk.htm,(310) 548-7675,15,33.780997,-118.261862
Parks,Barrington Park,333,85,S,Barrington,Ave,W,W,105th,St,S,"Los AngelesCA 90049(34.0614, -118.469)",CA,90049,http://www.laparks.org/dos/reccenter/facility/barringtonRC.htm,(310) 476-4866,11,34.06137723,-118.4686951
Parks,Seoul International Park,3250,66,S,San Marino,St,,S,Chase,Dr,S,"Los AngelesCA 90006(34.0544, -118.302)",CA,90006,http://www.laparks.org/dos/parks/facility/seoulInterPk.htm,(213) 383-7549,10,34.05435479,-118.3016258
Parks,Laurel Canyon Park,8260,11,E,Mulholland,Dr,,W,Echo Park,St,N,"Studio CityCA 90046(34.1222, -118.378)",CA,90046,http://www.laparks.org/dos/parks/facility/laurelCanyonPk.htm,(818) 766-8445,4,34.122205,-118.37808
Swimming Pools - Summer,Sun Valley Park Pool,8123,13,W,Vineland,Ave,W,E,N. of Ventura Freeway,Dr,W,"Los AngelesCA 91352(34.2182, -118.37)",CA,91352,http://www.laparks.org/dos/aquatic/facility/sunValleyPool.htm,(818) 252-0835,6,34.21815376,-118.3704284
Gardens,El Sereno Community Garden,5450,13,N,Huntington,Dr,W,E,Crystal Springs,Ave,N,"Los AngelesCA 90032(34.0923, -118.162)",CA,90032,http://www.laparks.org/dos/reccenter/facility/StAndrewsRC.htm,(213) 485-5572,14,34.092346,-118.161574
Swimming Pools - Year Round,Westwood Pool,1350,56,S,Sepulveda,Blvd,E,W,Highlander,St,S,"Los AngelesCA 90025(34.0533, -118.448)",CA,90025,http://www.laparks.org/dos/parks/facility/seilyRodriguezPk.htm,(310) 478-7019,5,34.053294,-118.448343
Parks,Hartland Mini Park,6830,96,N,Woodman,Ave,W,W,Saint Andrews,Blvd,N,"Van NuysCA 91405(34.1948, -118.431)",CA,91405,http://www.laparks.org/dos/parks/facility/hartlandMiniPk.htm,(818) 506-7456,2,34.194811,-118.430887
Swimming Pools - Year Round,Peck Park Pool,560,12,N,Western,Ave,S,S,Lexington,Dr,E,"San PedroCA 90732(33.7498, -118.309)",CA,90732,http://www.laparks.org/dos/aquatic/facility/peckParkPool.htm,(310) 548-2434,15,33.749832,-118.30858
Outdoor Fitness Equipment,North East Valley Multipurpose Center,11300,35,E,Glenoaks,Blvd,S,W,Balboa,St,W,"PacoimaCA 91331(34.2763, -118.413)",CA,91331,http://www.laparks.org/dos/reccenter/facility/StAndrewsRC.htm,(818) 899-4537,7,34.276262,-118.413154
Recreation Centers,Jordan Downs Recreation Center,9900,62,W,Grape,St,N,E,Alma Real,Ave,N,"Los AngelesCA 90002(33.9461, -118.237)",CA,90002,http://www.laparks.org/dos/parks/facility/seilyRodriguezPk.htm,(213) 485-1835,15,33.94612146,-118.2365773
Parks,Corbin Canyon Park,4720,12,S,Corbin,Ave,W,W,Huston,St,E,"TarzanaCA 91356(34.1573, -118.563)",CA,91356,http://www.laparks.org/dos/reccenter/facility/StAndrewsRC.htm,(818) 883-6641,3,34.157327,-118.563498
Gardens,Sepulveda Garden Center,16633,23,W,Magnolia,Blvd,E,S,Verdugo,Dr,S,"EncinoCA 91406(34.1654, -118.496)",CA,91406,http://www.laparks.org/dos/parks/facility/seilyRodriguezPk.htm,(818) 784-5180,5,34.165368,-118.495504
Recreation Centers,Rose Hill Recreation Center,4530,32,W,Mercury,Ave,E,W,West,Blvd,W,"Los AngelesCA 90032(34.0858, -118.19)",CA,90032,http://www.laparks.org/dos/reccenter/facility/roseHillRC.htm,(323) 225-0450,14,34.08582337,-118.1898844
Public Computer Centers,Trinity Recreation Center - Public Computer Center,517,13,S,Trinity,St,W,E,Stadium,Dr,W,"Los AngelesCA 90011(34.0239, -118.263)",CA,90011,http://www.laparks.org/btop/lynda.htm,(213) 485-4195,9,34.023914,-118.262876
Golf Courses,Tregnan Golf Academy,4341,45,S,Griffith Park,Dr,W,W,Villa Cabrini,St,E,"Los AngelesCA 90027(34.1212, -118.275)",CA,90027,http://www.laparks.org/golf/tregnan.htm,(323) 906-3858,4,34.121156,-118.275261
Universally Accessible Playgrounds,South Park Recreation Center,345,54,E,51st,St,S,W,Monitor,Ave,W,"Los AngelesCA 90011(33.9974, -118.268)",CA,90011,http://www.laparks.org/dos/reccenter/facility/southPkRC.htm,(213) 847-6746,9,33.997417,-118.267651
Skate Parks,Lincoln Park Skate Park,3501,523,W,Valley,Blvd,N,E,Lake,St,S,"Los AngelesCA 90031(34.0656, -118.202)",CA,90031,http://www.laparks.org/dos/parks/skateparks/lincolnParkSkatePk.htm,(213) 847-1726,1,34.06561417,-118.2018369
Hiking Trails,Limekiln Canyon Park,19585,32,N,Rinaldi,St,N,W,Vermont,Dr,N,"NorthridgeCA 91326(34.2848, -118.563)",CA,91326,http://www.laparks.org/dos/parks/facility/limekilnCanyonPk.htm,(818) 368-8343,12,34.284817,-118.563025
Parks,Ramon D. Garcia Park,1016,1,S,Fresno,St,S,N,Herrick,Blvd,S,"Los AngelesCA 90023(34.0276, -118.206)",CA,90023,http://www.laparks.org/dos/reccenter/facility/ramonGarciaRC.htm,(323) 265-4755,14,34.027589,-118.206397
Parks,Delano Park,15100,96,N,Erwin,St,E,S,Barrington,Dr,N,"Van NuysCA 91411(34.1828, -118.462)",CA,91411,http://www.laparks.org/dos/reccenter/facility/delanoRC.htm,(818) 756-8529,6,34.18280315,-118.4621585
Senior Centers,Fairfax Senior Citizen Center,7929,12,N,Melrose,Ave,W,E,Motor,St,E,"Los AngelesCA 90046(34.084, -118.362)",CA,90046,http://www.laparks.org/dos/senior/facility/fairfaxSCC.htm,(323) 653-1824,5,34.084022,-118.362491
Public Computer Centers,Vineyard Recreation Center - Public Computer Center,2942,35,E,Vineyard,Ave,N,W,Sanford,Ave,W,"Los AngelesCA 90016(34.0283, -118.347)",CA,90016,http://www.laparks.org/btop/lynda.htm,(323) 732-2469,10,34.02828057,-118.34653
Recreation Centers,Westwood Recreation Complex,1350,62,W,Sepulveda,Blvd,S,S,Santa Monica,St,N,"Los AngelesCA 90025(34.0535, -118.448)",CA,90025,http://www.laparks.org/dos/reccenter/facility/westwoodRC.htm,(310) 473-3610,5,34.053472,-118.44793
Outdoor Fitness Equipment,Tiara Street Park,11480,12,S,Tiara,St,N,S,Sylmar,Dr,E,"North HollywoodCA 91601(34.1784, -118.382)",CA,91601,http://www.laparks.org/dos/reccenter/facility/StAndrewsRC.htm,(818) 623-4108,2,34.178441,-118.382361
Parks,Van Nuys Park,14301,23,W,Vanowen,St,N,W,West,Blvd,S,"Van NuysCA 91405(34.1941, -118.445)",CA,91405,http://www.laparks.org/dos/parks/facility/seilyRodriguezPk.htm,(818) 756-8131,6,34.19405925,-118.4446325
Hiking Trails,Aliso Canyon Park,1167,65,W,Sesnon,Blvd,E,E,Chevy Chase,Dr,W,"NorthridgeCA 91326(34.2789, -118.527)",CA,91326,http://www.laparks.org/dos/parks/facility/alisoCanyonPk.htm,(818) 756-8060,12,34.27891,-118.526823
Parks,Yucca Park,6671,65,N,Yucca,St,W,E,Wells,St,W,"Los AngelesCA 90028(34.1033, -118.336)",CA,90028,http://www.laparks.org/dos/parks/facility/yuccaPk.htm,(323) 957-6339,13,34.10331572,-118.3355345
Parks,Crestwood Hills Park,1000,42,E,Hanley,Ave,S,W,Sanford,Ave,E,"Los AngelesCA 90049(34.0766, -118.489)",CA,90049,http://www.laparks.org/dos/reccenter/facility/crestwoodHillsRC.htm,(310) 472-5233,11,34.07661042,-118.4889191
Recreation Centers,East Wilmington Greenbelt Community Center,918,12,W,Sanford,Ave,W,W,Santa Monica,St,W,"WilmingtonCA 90744(33.7827, -118.25)",CA,90744,http://www.laparks.org/dos/reccenter/facility/EastwilmingtonGrnBeltComC.htm,(310) 522-2064,15,33.78265654,-118.2503383
Public Computer Centers,Felicia Mahood Senior Multipurpose Center - Public Computer Center,11338,0,S,Santa Monica,Blvd,W,S,Sylmar,St,S,"Los AngelesCA 90025(34.0456, -118.45)",CA,90025,http://www.laparks.org/btop/lynda.htm,(310) 479-4119,11,34.045637,-118.449914
Senior Centers,Van Nuys Multipurpose Senior Citizen Center (Bernardi Center),6514,12,W,Sylmar,Ave,S,S,West,Ave,N,"Van NuysCA 91401(34.1893, -118.446)",CA,91401,http://www.laparks.org/dos/senior/facility/vanNuysMSC.htm,(818) 781-1101,2,34.18928127,-118.4464449
Recreation Centers,Queen Anne Recreation Center,1240,21,W,West,Blvd,S,W,Chevy Chase,Dr,S,"Los AngelesCA 90019(34.0504, -118.333)",CA,90019,http://www.laparks.org/dos/reccenter/facility/queenAnneRC.htm,(323) 857-1180,10,34.05036819,-118.3329434
Recreation Centers,Metro/Pacific Municipal Sports,3900,45,W,Chevy Chase,Dr,E,E,Wells,Ave,N,"Los AngelesCA 90039(34.1333, -118.273)",CA,90039,http://www.laparks.org/dos/sports/sports.htm,(818) 246-5613,13,34.13325553,-118.2728568
Parks,Serrania Avenue Park,20864,47,S,Wells,Dr,W,W,4th,St,E,"Woodland HillsCA 91364(34.1575, -118.586)",CA,91364,http://www.laparks.org/dos/parks/facility/serraniaPk.htm,(818) 883-6641,3,34.15751,-118.585927
Recreation Centers,Shatto Recreation Center,3191,95,S,4th,St,N,S,Slauson,Dr,W,"Los AngelesCA 90020(34.0674, -118.289)",CA,90020,http://www.laparks.org/dos/reccenter/facility/shattoRC.htm,(213) 386-8877,13,34.067447,-118.289338
Parks,Culver Slauson Park,5070,65,E,Slauson,Ave,E,W,Canyon,Blvd,N,"Culver CityCA 90230(33.9936, -118.407)",CA,90230,http://www.laparks.org/dos/parks/facility/culverSlausonPk.htm,(310) 398-5291,11,33.993614,-118.406907
Parks,Griffith Park - Bronson Canyon,3200,56,W,Canyon,Dr,N,E,Norfolk,Dr,E,"Los AngelesCA 90068(34.1272, -118.311)",CA,90068,http://www.laparks.org/dos/parks/facility/bronsonCanyonGP.htm,(323) 913-4688,4,34.127171,-118.31077
Parks,Hazard Park,2230,96,N,Norfolk,St,S,W,25th,St,S,"Los AngelesCA 90033(34.0607, -118.201)",CA,90033,http://www.laparks.org/dos/parks/facility/hazardPk.htm,(213) 485-6839,14,34.06067723,-118.2008547
Parks,Sylmar Park,13109,12,S,Borden,Ave,N,W,Crystal Springs,Ave,W,"SylmarCA 91342(34.3083, -118.445)",CA,91342,http://www.laparks.org/dos/parks/facility/sylmarPk.htm,(818) 367-5656,7,34.30827253,-118.4445011
Public Computer Centers,Ramona Gardens Recreation Center - Public Computer Center,2830,35,N,Lancaster,Ave,E,E,54th,St,W,"Los AngelesCA 90033(34.057, -118.195)",CA,90033,http://www.laparks.org/btop/lynda.htm,(213) 847-2961,14,34.056954,-118.194894
Camps,Griffith Park Boys Camp,4730,62,N,Crystal Springs,Dr,W,W,Mason,Dr,E,"Los AngelesCA 90027(34.139, -118.298)",CA,90027,http://www.laparks.org/dos/camps/griffith.htm,(323) 664-0571,4,34.139017,-118.298335
Skate Parks,Wilmington Skate Park (Ambassador Skate Park),325,12,E,Neptune,Ave,N,N,Pepper,Blvd,W,"WilmingtonCA 90744(33.7731, -118.269)",CA,90744,http://www.laparks.org/dos/parks/skateparks/wilmingtonSkatePk.htm,(310) 548-7645,15,33.77313982,-118.2686791
Public Computer Centers,Lanark Recreation Center - Public Computer Center,21816,56,S,Lanark,St,E,S,La Brea,Dr,N,"Canoga ParkCA 91304(34.2174, -118.604)",CA,91304,http://www.laparks.org/btop/lynda.htm,(818) 883-1503,3,34.21743314,-118.6038772
Parks,Greayer's Oak Mini Park,3711,54,S,Figueroa,St,W,E,Hazeltine,St,S,"Los AngelesCA 90065(34.0902, -118.212)",CA,90065,http://www.laparks.org/dos/parks/facility/graeyorsOakPk.htm,(323) 255-0370,1,34.09023935,-118.2124151
Parks,Briarwood Park,461,23,E,Almaden,Ct,W,W,Laurel Canyon,St,N,"Los AngelesCA 90077(34.119, -118.444)",CA,90077,http://www.laparks.org/dos/parks/facility/briarwoodPk.htm,(310) 840-2186,5,34.119035,-118.443947
Free Wi-Fi Hot Spots,Reseda Recreation Center,18411,65,W,Victory,Blvd,E,S,Sepulveda,Dr,E,"ResedaCA 91335(34.1869, -118.534)",CA,91335,http://www.laparks.org/dos/reccenter/facility/resedaRC.htm,(818) 881-3882,3,34.186871,-118.533699
Tennis Courts,Sycamore Grove Tennis Courts,4702,65,N,Figueroa,St,W,S,Pacific,Blvd,W,"Los AngelesCA 90042(34.1015, -118.201)",CA,90042,http://www.laparks.org/dos/parks/facility/sycamorePk.htm,(323) 255-0370,1,34.101465,-118.201347
Parks,Media Park,90125,42,S,Culver,Blvd,S,W,Herrick,Dr,N,"Los AngelesCA 90232(34.0265, -118.393)",CA,90232,http://www.laparks.org/dos/parks/facility/mediaPk.htm,(310) 836-1040,5,34.02647,-118.39306
Public Computer Centers,Penmar Youth Center - Public Computer Center,1341,89,N,Lake,St,S,E,Vanalden,St,S,"VeniceCA 90291(34.0062, -118.456)",CA,90291,http://www.laparks.org/btop/lynda.htm,(310) 396-8735,11,34.00618864,-118.455831
Parks,De Longpre Park,1350,56,N,Cherokee,Ave,N,E,111th,Ave,N,"Los AngelesCA 90028(34.0959, -118.335)",CA,90028,http://www.laparks.org/dos/parks/facility/deLongprePk.htm,(213) 847-3599,4,34.095934,-118.334692
Parks,Vista Hermosa Park,100,96,E,Toluca,St,W,W,Kagel Canyon,St,E,"Los AngelesCA 90026(34.062, -118.258)",CA,90026,http://www.laparks.org/dos/parks/facility/vistaHermosaPk.htm,(213) 250-3578,1,34.06195635,-118.2582994
Swimming Pools - Summer,Lou Costello (Hostetter) Pool,3121,12,S,Olympic,Blvd,E,W,Alma Real,Dr,W,"Los AngelesCA 90023(34.0206, -118.211)",CA,90023,http://www.laparks.org/dos/aquatic/facility/costelloPool.htm,(323) 526-3073,14,34.020645,-118.211359
Universally Accessible Playgrounds,Hazard Recreation Center,2230,35,S,Norfolk,St,E,S,Topanga Canyon,Blvd,N,"Los AngelesCA 90033(34.0603, -118.201)",CA,90033,http://www.laparks.org/dos/reccenter/facility/hazardRC.htm,(213) 485-6839,14,34.060295,-118.200702
Swimming Pools - Summer,Stoner Park Pool,1835,62,E,Stoner,Ave,W,S,Bellevue,Dr,E,"Los AngelesCA 90025(34.0384, -118.453)",CA,90025,http://www.laparks.org/dos/aquatic/facility/stonerParkPool.htm,(310) 575-8286,11,34.03844736,-118.4532902
Recreation Centers,Gilbert W. Lindsay Recreation Center,429,12,W,42nd,Pl,W,W,76th,St,S,"Los AngelesCA 90011(34.0066, -118.268)",CA,90011,http://www.laparks.org/dos/reccenter/facility/gilbertLindsayRC.htm,(323) 846-7584,9,34.00661929,-118.2677641
Parks,Encino Park,16953,14,N,Ventura,Blvd,S,E,Lemarsh,Ave,W,"EncinoCA 91316(34.1598, -118.503)",CA,91316,http://www.laparks.org/dos/parks/facility/encinoPk.htm,(818) 995-1690,5,34.15982855,-118.5025721
Swimming Pools - Summer,Olguin Pool,3210,46,S,Alma,St,N,W,Figueroa,St,W,"San PedroCA 90731(33.7154, -118.3)",CA,90731,http://www.laparks.org/dos/aquatic/facility/olguinHSPool.htm,,15,33.715364,-118.299732
Tennis Courts,Sepulveda Tennis Courts,8801,56,N,Kester,Ave,N,S,Neptune,Dr,E,"Panorama CityCA 91405(34.2301, -118.458)",CA,91405,http://www.laparks.org/dos/reccenter/facility/sepulvedaRC.htm,(818) 893-3700,6,34.23005873,-118.4575623
Recreation Centers,Chatsworth Park South Recreation Center,22360,96,N,Devonshire,St,S,W,Strathern,Blvd,N,"ChatsworthCA 91311(34.2579, -118.615)",CA,91311,http://www.laparks.org/dos/reccenter/facility/chatsworthRC.htm,(818) 341-6595,12,34.25791374,-118.6149639
Recreation Centers,Chevy Chase Recreation Center,4165,12,E,Chevy Chase,Dr,E,E,Canyon,Dr,S,"Los AngelesCA 90039(34.1334, -118.267)",CA,90039,http://www.laparks.org/dos/reccenter/facility/chevyChaseRC.htm,(213) 485-4867,13,34.133432,-118.266546
Recreation Centers,Fernangeles Recreation Center,8851,35,S,Laurel Canyon,Blvd,W,W,Norfolk,Dr,N,"Sun ValleyCA 91352(34.2293, -118.401)",CA,91352,http://www.laparks.org/dos/reccenter/facility/fernangelesRC.htm,(818) 767-4171,6,34.229345,-118.400978
Parks,Del Rey Lagoon,6660,62,S,Esplanade,Pl,N,W,Sanford,Blvd,E,"Playa Del ReyCA 90293(33.9601, -118.45)",CA,90293,http://www.laparks.org/dos/parks/facility/delReyLagoonPk.htm,(310) 396-1615,11,33.96011416,-118.4499221
Public Computer Centers,Winnetka Recreation Center - Public Computer Center,8401,56,E,Winnetka,Ave,S,E,Santa Monica,Blvd,W,"WinnetkaCA 91306(34.2224, -118.572)",CA,91306,http://www.laparks.org/btop/lynda.htm,(818) 756-7876,3,34.222383,-118.571596
Parks,Jim Gilliam Park,4000,96,W,La Brea,Ave,N,W,Sylmar,Dr,N,"Los AngelesCA 90008(34.0119, -118.352)",CA,90008,http://www.laparks.org/dos/reccenter/facility/jimGilliamRC.htm,(323) 291-5928,10,34.011922,-118.351674
Museums,Griffith Park - Travel Town Museum,5200,12,N,Zoo,Dr,N,N,West,St,E,"Los AngelesCA 90027(34.1538, -118.309)",CA,90027,http://www.laparks.org/grifmet/tt/index.htm,(323) 662-5874,4,34.153834,-118.308641
Outdoor Fitness Equipment,West Adams Heights Park,1903,35,S,Cordova,St,E,S,Chevy Chase,Ave,S,"Los AngelesCA 90007(34.0388, -118.3)",CA,90007,http://www.laparks.org/dos/reccenter/facility/StAndrewsRC.htm,(213) 250-3578,10,34.03883,-118.300475
Parks,Chevy Chase Park,4165,62,N,Chevy Chase,Dr,W,E,Wells,AS,N,"Los AngelesCA 90039(34.1335, -118.267)",CA,90039,http://www.laparks.org/dos/parks/facility/seilyRodriguezPk.htm,(818) 840-9063,13,34.133531,-118.2667127
Golf Courses,Hansen Dam Golf Course,10400,12,N,Glenoaks,Blvd,S,W,4th,Dr,S,"PacoimaCA 91331(34.2588, -118.396)",CA,91331,http://www.golf.lacity.org/cdp_hansen.htm,(818) 899-2200,7,34.258801,-118.395868
Free Wi-Fi Hot Spots,Echo Park Recreation Center,1632,45,E,Bellevue,Ave,W,S,Slauson,Blvd,N,"Los AngelesCA 90026(34.0698, -118.26)",CA,90026,http://www.laparks.org/dos/reccenter/facility/echoParkRC.htm,(213) 250-3578,13,34.069801,-118.260119
Equestrian Centers,L.A. Equestrian Center,480,47,W,Riverside,Dr,W,S,Canyon,Dr,E,"BurbankCA 91506(34.1607, -118.31)",CA,91506,http://www.la-equestriancenter.com/,(818) 840-9063,4,34.160704,-118.310131
Recreation Centers,Pecan Recreation Center,127,96,S,Pecan,St,S,W,Norfolk,St,W,"Los AngelesCA 90033(34.0465, -118.222)",CA,90033,http://www.laparks.org/dos/reccenter/facility/pecanRC.htm,(323) 262-2736,14,34.04652101,-118.2220261
Outdoor Fitness Equipment,Hollenbeck Park,415,56,S,Saint Louis,St,S,E,Borden,Ave,N,"Los AngelesCA 90033(34.0414, -118.216)",CA,90033,http://www.laparks.org/dos/parks/facility/hollenbeckPk.htm,(323) 261-0113,14,34.04136456,-118.2160944
Parks,John S. Gibson Jr. Park,12975,21,E,Harbor,Blvd,E,E,Lancaster,St,E,"San PedroCA 90731(33.7397, -118.28)",CA,90731,http://www.laparks.org/dos/parks/facility/GibsonJSJrPk.htm,(310) 548-7675,15,33.739653,-118.279649
Parks,Runnymede Park,20200,56,W,Runnymede,St,W,W,Sanford,Dr,N,"WinnetkaCA 91306(34.2059, -118.573)",CA,91306,http://www.laparks.org/dos/parks/facility/runnymedePk.htm,(818) 883-6641,3,34.20585859,-118.5732396
Parks,Elysian Park - Montecillo De Leo Politi,116,96,N,Stadium,Way,N,W,Santa Monica,Blvd,S,"Los AngelesCA 90012(34.0784, -118.247)",CA,90012,http://www.laparks.org/dos/parks/facility/montecilloDeLeoPolitiPk.htm,(213) 485-5054,13,34.078382,-118.246633
Tennis Courts,Saint Andrews Tennis Courts,8701,12,S,Saint Andrews,Pl,E,S,Sylmar,Dr,N,"Los AngelesCA 90047(33.9597, -118.311)",CA,90047,http://www.laparks.org/dos/reccenter/facility/stAndrewsRC.htm,(213) 485-1751,8,33.95973995,-118.3114526
Parks,Eagle Rock Park,1100,35,N,Eagle Vista,Dr,N,S,West,St,E,"Los AngelesCA 90041(34.143, -118.188)",CA,90041,http://www.laparks.org/dos/reccenter/facility/eagleRockRC.htm,(323) 257-6948,14,34.142988,-118.18805
Golf Courses,Harbor Park Golf Course,1235,62,N,Figueroa,Pl,S,W,Chevy Chase,Ave,W,"WilmingtonCA 90744(33.7873, -118.283)",CA,90744,http://www.laparks.org/golf/cdp_harbor.htm,(310) 549-4953,15,33.787333,-118.282907
Parks,Woodland Hills Park (Shoup Park),5858,12,E,Shoup,Ave,N,E,25th,Blvd,N,"Woodland HillsCA 91367(34.1759, 118.614)",CA,91367,http://www.laparks.org/dos/reccenter/facility/woodlandHillsRC.htm,(818) 883-9370,3,34.175927,118.614495
Public Computer Centers,Harbor City Recreation Center - Public Computer Center,24901,74,W,Frampton,Ave,E,W,Crystal Springs,Dr,E,"Harbor CityCA 90710(33.7995, -118.3)",CA,90710,http://www.laparks.org/btop/lynda.htm,(310) 548-7729,15,33.799469,-118.299536
Skate Parks,Imperial Courts Skate Park,2250,4,S,114th,St,W,S,54th,St,N,"Los AngelesCA 90059(33.9313, -118.232)",CA,90059,http://www.laparks.org/dos/parks/skateparks/imperialCourtsSkatePk.htm,(323) 564-1834,15,33.93125654,-118.2324199
Senior Centers,Anderson Memorial Senior Citizen Center,828,4,W,Mesa,St,N,W,Mason,Ave,E,"San PedroCA 90731(33.7366, -118.285)",CA,90731,http://www.laparks.org/dos/senior/facility/andersonSCC.htm,(310) 548-7596,15,33.736593,-118.285441
Public Computer Centers,Lincoln Park Recreation Center - Public Computer Center,3501,56,W,Valley,Blvd,E,E,Pepper,St,S,"Los AngelesCA 90031(34.0661, -118.199)",CA,90031,http://www.laparks.org/btop/lynda.htm,(213) 847-1726,1,34.0661,-118.199196
Senior Centers,Canoga Park Senior Citizen Center,7326,96,S,Jordan,Ave,S,W,La Brea,Dr,N,"Canoga ParkCA 91303(34.2037, -118.603)",CA,91303,http://www.laparks.org/dos/senior/facility/canogaParkSCC.htm,(818) 340-2633,3,34.20369,-118.602517
Parks,Limekiln Canyon Park,19585,12,N,Rinaldi,St,W,W,Hazeltine,Blvd,S,"NorthridgeCA 91326(34.2848, -118.563)",CA,91326,http://www.laparks.org/dos/parks/facility/limekilnCanyonPk.htm,(818) 368-8343,12,34.284817,-118.563025
Public Computer Centers,Denker Recreation Center - Public Computer Center,1550,35,N,35th,Pl,W,E,Laurel Canyon,Dr,N,"Los AngelesCA 90018(34.0236, -118.305)",CA,90018,http://www.laparks.org/btop/lynda.htm,(323) 733-8367,8,34.02355276,-118.3045149
Recreation Centers,Ross Snyder Recreation Center,1501,62,S,41st,St,E,W,Sepulveda,St,E,"Los AngelesCA 90011(34.0087, -118.247)",CA,90011,http://www.laparks.org/dos/reccenter/facility/rossSnyderRC.htm,(323) 231-3964,9,34.00871681,-118.2473934
Skate Parks,Hollenbeck Safe Spot Skate Spot,415,12,S,Saint Louis,St,,N,Pacific,Ave,W,"Los AngelesCA 90033(34.0414, -118.216)",CA,90033,http://www.laparks.org/dos/parks/skateparks/hollenbeckSkatePk.htm,(323) 261-0113,14,34.04136456,-118.2160944
Public Computer Centers,Lemon Grove Recreation Center - Public Computer Center,4959,85,E,Lemon Grove,Ave,N,S,Herrick,St,N,"Los AngelesCA 90029(34.0863, -118.305)",CA,90029,http://www.laparks.org/btop/lynda.htm,(323) 666-4144,13,34.08634611,-118.3046676
Parks,Yosemite Park,1840,56,W,Yosemite,Dr,S,E,Vanalden,Blvd,E,"Los AngelesCA 90041(34.1337, -118.208)",CA,90041,http://www.laparks.org/dos/reccenter/facility/yosemiteRC.htm,(323) 257-1644,14,34.133742,-118.20819
Outdoor Fitness Equipment,Hoover Recreation Center,1010,96,N,25th,St,N,W,111th,Dr,N,"Los AngelesCA 90007(34.0327, -118.283)",CA,90007,http://www.laparks.org/dos/reccenter/facility/hooverRC.htm,(213) 749-8896,1,34.03273559,-118.2830944
Golf Courses,Harding Golf Course,4730,12,S,Crystal Springs,Dr,N,S,Kagel Canyon,St,W,"Los AngelesCA 90027(34.1445, -118.289)",CA,90027,http://golf.lacity.org/cdp_harding.htm,(323) 663-2555,4,34.144505,-118.289258
Parks,Chesterfield Square Park,1950,35,N,54th,St,E,S,Alma Real,Ave,W,"Los AngelesCA 90062(33.9931, -118.313)",CA,90062,http://www.laparks.org/dos/parks/facility/chesterfieldSquPk.htm,(323) 233-4772,8,33.99308909,-118.3129281
Recreation Centers,Mason  Youth Center,10520,62,N,Mason,Ave,W,W,Topanga Canyon,St,N,"ChatsworthCA 91311(34.2615, -118.58)",CA,91311,http://www.laparks.org/dos/reccenter/facility/masonRC.htm,(818) 998-6377,12,34.26154428,-118.5798211
Recreation Centers,Cypress Recreation Center,2630,12,E,Pepper,Ave,S,E,Bellevue,Dr,E,"Los AngelesCA 90065(34.0894, -118.226)",CA,90065,http://www.laparks.org/dos/reccenter/facility/cypressRC.htm,(213) 485-5384,1,34.0894357,-118.2255846
Hiking Trails,Jim Gilliam Park,4000,41,S,La Brea,Ave,W,E,76th,Blvd,S,"Los AngelesCA 90008(34.0119, -118.352)",CA,90008,http://www.laparks.org/dos/reccenter/facility/jimGilliamRC.htm,(323) 291-5928,10,34.011922,-118.351674
Tennis Courts,Panorama City Tennis Courts,8600,45,S,Hazeltine,Ave,,W,Lemarsh,Dr,N,"Panorama CityCA 91402(34.2282, -118.441)",CA,91402,http://www.laparks.org/dos/reccenter/facility/panoramaRC.htm,(818) 893-3401,6,34.228189,-118.441323
Swimming Pools - Summer,Fernangeles Pool,8851,56,E,Laurel Canyon,Blvd,N,W,25th,St,S,"Sun ValleyCA 91352(34.2298, -118.402)",CA,91352,http://www.laparks.org/dos/aquatic/facility/fernagelesPool.htm,(818) 771-0986,6,34.22979391,-118.4018417
Recreation Centers,Sherman Oaks Castle Park,4989,96,W,Sepulveda,Blvd,S,S,Crystal Springs,Ave,N,"Sherman OaksCA 91403(34.1612, -118.466)",CA,91403,http://www.laparks.org/shermanoaks_castlepk/index.htm,(818) 756-9459,4,34.16115111,-118.4664309
Dog Parks,Westminster Dog Park,1234,12,N,Pacific,Ave,W,S,54th,St,E,"VeniceCA 90291(33.9903, -118.473)",CA,90291,http://www.laparks.org/dos/parks/facility/dogparks/westminsterDogPk.htm,(310) 396-1615,11,33.990323,-118.473283
Parks,David M. Gonzales / Pacoima Park,10943,35,S,Herrick,Ave,W,W,Mason,Dr,W,"PacoimaCA 91331(34.2692, -118.413)",CA,91331,http://www.laparks.org/dos/reccenter/facility/davidMGonzalesRC.htm,(818) 899-1950,7,34.26921299,-118.4130658
Parks,Tarzana Park,5655,62,N,Vanalden,Ave,E,E,Pepper,Blvd,N,"TarzanaCA 91356(34.1746, -118.55)",CA,91356,http://www.laparks.org/dos/reccenter/facility/tarzanaRC.htm,(818) 343-5946,3,34.17462734,-118.5502669
Parks,111th Place Pocket Park,207,12,S,111th,Pl,W,W,La Brea,Dr,N,"Los AngelesCA 90061(33.9342, -118.271)",CA,90061,http://www.laparks.org/dos/aquatic/facility/harvardPool.htm,(310) 548-7675,8,33.934202,-118.271246
Parks,Kagel Canyon Park,11435,25,S,Kagel Canyon,St,S,S,Hazeltine,Ave,E,"Lake View TerraceCA 91342(34.2807, -118.38)",CA,91342,http://www.laparks.org/dos/reccenter/facility/ranchocienegaRC.htm,(818) 899-4537,7,34.28069157,-118.3804559
Parks,Palisades Park,851,1,E,Alma Real,Dr,S,W,Laurel Canyon,St,S,"Pacific PalisadesCA 90272(34.0428, -118.525)",CA,90272,http://www.laparks.org/dos/parks/facility/palisadesPk.htm,(310) 454-1412,11,34.042845,-118.524815
Parks,Warner Ranch Park,5800,52,W,Topanga Canyon,Blvd,N,E,Sepulveda,Ave,N,"Woodland HillsCA 91367(34.1755, -118.606)",CA,91367,http://www.laparks.org/dos/parks/facility/warnerRanchPk.htm,(818) 883-6641,3,34.17549801,-118.6056172
Recreation Centers,Echo Park Recreation Center,1632,12,N,Bellevue,Ave,W,W,Pacific,St,S,"Los AngelesCA 90026(34.0698, -118.26)",CA,90026,http://www.laparks.org/dos/reccenter/facility/echoParkRC.htm,(213) 250-3578,13,34.069801,-118.260119
Parks,Circle / Gramercy Park,1975,55,S,76th,St,E,W,Herrick,St,N,"Los AngelesCA 90047(33.971, -118.313)",CA,90047,http://www.laparks.org/dos/parks/facility/circlePk.htm,(310) 548-7675,8,33.970976,-118.313323
Tennis Courts,Northridge Tennis Courts,18300,41,N,Lemarsh,St,E,E,Vanalden,Ave,E,"NorthridgeCA 91324(34.2553, -118.532)",CA,91324,http://www.laparks.org/dos/reccenter/facility/northridgeRC.htm,(818) 349-7341,12,34.25529,-118.53226
Parks,Harbor Sports Center,1221,12,N,Figueroa,Pl,W,W,111th,St,W,"WilmingtonCA 90744(33.7874, -118.282)",CA,90744,http://www.laparks.org/dos/reccenter/facility/harborSC.htm,(310) 548-7728,15,33.78742375,-118.2819333
Outdoor Fitness Equipment,Wilmington Recreation Center,325,47,E,Neptune,Ave,W,N,Kagel Canyon,Dr,N,"WilmingtonCA 90744(33.7731, -118.269)",CA,90744,http://www.laparks.org/dos/reccenter/facility/wilmingtonRC.htm,(310) 548-7645,15,33.77313982,-118.2686791
Swimming Pools - Summer,Lanark Pool,21817,23,S,Strathern,St,S,S,Alma Real,Blvd,E,"Canoga ParkCA 91304(34.2156, -118.603)",CA,91304,http://www.laparks.org/dos/aquatic/facility/lanarkPool.htm,(818) 887-1745,3,34.21556901,-118.6032914
Parks,Gaffey Street Field of Dreams,501,41,S,Westmont,Dr,N,E,Topanga Canyon,Dr,N,"San PedroCA 90731(33.7637, -118.291)",CA,90731,http://www.laparks.org/dos/parks/facility/fieldofdreams.htm,(310) 548-7705,15,33.763701,-118.290965
Outdoor Fitness Equipment,Fox & Laurel Park,14353,23,E,Fox,St,N,W,Bellevue,St,E,"Los AngelesCA 91340(34.2716, -118.446)",CA,91340,http://www.laparks.org/dos/aquatic/facility/harvardPool.htm,(310) 548-7705,7,34.271638,-118.446271
Swimming Pools - Summer,Jackie Tatum / Harvard Pool,6120,58,W,Denker,St,S,S,76th,St,S,"Los AngelesCA 90047(33.9836, -118.305)",CA,90047,http://www.laparks.org/dos/reccenter/facility/ranchocienegaRC.htm,(323) 753-2197,8,33.98355979,-118.3046124
Parks,Rancho Cienega Park,5001,13,N,Rodeo,Rd,E,S,Lemarsh,Dr,N,"Los AngelesCA 90016(34.0217, -118.352)",CA,90016,http://www.laparks.org/dos/reccenter/facility/ranchocienegaRC.htm,(323) 290-2330,10,34.02167021,-118.351823
Tennis Courts,Westwood Tennis Courts,1350,1,S,Sepulveda,Blvd,W,W,Figueroa,Blvd,S,"Los AngelesCA 90024(34.0534, -118.449)",CA,90024,http://www.laparks.org/dos/sports/tennis/facility/westwoodTC.htm,(310) 575-8299,5,34.053422,-118.449
Public Computer Centers,Ramon D. Garcia Msgr. Recreation Center - Public Computer Center,1016,12,N,Fresno,St,N,E,Neptune,Dr,N,"Los AngelesCA 90023(34.0275, -118.207)",CA,90023,http://www.laparks.org/btop/lynda.htm,(323) 265-4755,14,34.027534,-118.206502
Tennis Courts,Ross Snyder Tennis Courts,1501,32,N,41st,St,S,E,Strathern,St,E,"Los AngelesCA 90011(34.0087, -118.247)",CA,90011,http://www.laparks.org/dos/reccenter/facility/rossSnyderRC.htm,(323) 231-3964,9,34.00871681,-118.2473934
Parks,Jesse Owens Mini Park,7100,13,E,White Oak,Ave,N,W,Kagel Canyon,Ave,W,"Van NuysCA 91406(34.1998, -118.518)",CA,91406,http://www.laparks.org/dos/parks/facility/jesseOwensPk.htm,(818) 756-7667,6,34.199824,-118.518445
Tennis Courts,Banning Tennis Courts,1331,55,W,Eubank,Ave,N,W,Alma Real,St,N,"WilmingtonCA 90744(33.7909, -118.257)",CA,90744,http://www.laparks.org/dos/reccenter/facility/banningRC.htm,(310) 548-7776,15,33.790926,-118.256938
Outdoor Fitness Equipment,MacArthur Park,2230,88,S,6th,St,E,S,Topanga Canyon,St,E,"Los AngelesCA 90057(34.0604, -118.277)",CA,90057,http://www.laparks.org/dos/parks/facility/macArthurPk.htm,(213) 368-0520,1,34.06035058,-118.2770864
Parks,Hope and Peace Park,843,74,S,Bonnie Brae,St,W,N,Bellevue,Ave,S,"Los AngelesCA 90057(34.0528, -118.276)",CA,90057,http://www.laparks.org/dos/parks/facility/hopePeacePocketPk.htm,(213) 747-1872,1,34.05276205,-118.2764751
Parks,Queen Anne Park,1240,13,S,West,Blvd,S,S,76th,St,N,"Los AngelesCA 90016(34.0507, -118.333)",CA,90016,http://www.laparks.org/dos/reccenter/facility/queenAnneRC.htm,(323) 857-1180,10,34.0507319,-118.33286
Universally Accessible Playgrounds,Hansen Dam Park,11770,45,E,Foothill,Blvd,W,E,Lemarsh,Dr,S,"Lake View TerraceCA 91342(34.2738, -118.383)",CA,91342,http://www.laparks.org/dos/reccenter/facility/hansendamRC.htm,(818) 899-4537,7,34.273758,-118.383484
Swimming Pools - Year Round,Roosevelt High School Pool,456,54,W,Mathews,St,W,W,Figueroa,Blvd,N,"Los AngelesCA 90033(34.0386, -118.212)",CA,90033,http://www.laparks.org/dos/aquatic/facility/rooseveltPool.htm,(213) 485-7391,14,34.03862927,-118.2115056
Recreation Centers,Oakwood Recreation Center,767,523,N,California,Ave,S,W,Neptune,Dr,E,"VeniceCA 90291(33.9945, -118.464)",CA,90291,http://www.laparks.org/dos/reccenter/facility/oakwoodRC.htm,(310) 452-7479,11,33.99447842,-118.4635489
Senior Centers,Highland Adult Center,6152,32,S,Figueroa,St,S,E,Strathern,St,W,"Los AngelesCA 90042(34.1139, -118.186)",CA,90042,http://www.laparks.org/dos/senior/facility/highlandParkSCC.htm,(323) 256-6866,14,34.11389422,-118.1857243
Parks,Harbor Highlands Park,825,1,N,Capitol,Dr,E,S,51st,St,N,"San PedroCA 90731(33.7578, -118.297)",CA,90731,http://www.laparks.org/dos/parks/facility/harborHighlandsPk.htm,(310) 548-7756,15,33.75780373,-118.2966521
Parks,Penmar Park,1341,96,E,Lake,St,W,W,Valley,Dr,E,"VeniceCA 90291(34.0062, -118.456)",CA,90291,http://www.laparks.org/dos/parks/skateparks/elSerenoSkatePk.htm,(310) 396-8735,11,34.00618864,-118.455831
Parks,Fulton Avenue Park,13255,12,W,Vanowen,St,N,N,Rinaldi,Blvd,N,"North HollywoodCA 91605(34.1943, -118.422)",CA,91605,http://www.laparks.org/dos/parks/facility/weddingtonPkNo.htm,(818) 766-8445,2,34.194264,-118.422318
Skate Parks,El Sereno Skate Park,4721,35,N,Klamath,St,E,E,Fresno,Dr,,"Los AngelesCA 90032(34.0757, -118.182)",CA,90032,http://www.laparks.org/dos/parks/skateparks/elSerenoSkatePk.htm,(323) 225-3517,14,34.075694,-118.1815698
Parks,North Weddington Park,10844,62,S,Acama,St,N,S,Erwin,St,,"North HollywoodCA 91602(34.1456, -118.366)",CA,91602,http://www.laparks.org/dos/parks/facility/weddingtonPkNo.htm,(818) 506-1467,2,34.145564,-118.366144
Recreation Centers,Valley Plaza Recreation Center,12240,12,N,Archwood,St,S,W,Melrose,Ave,,"North HollywoodCA 91606(34.192, -118.401)",CA,91606,http://www.laparks.org/dos/reccenter/facility/valleyPlazaRC.htm,(818) 765-5885,2,34.19200843,-118.4008938
Senior Centers,El Sereno Senior Citizen Center,4818,23,N,Klamath,Pl,N,W,Vineyard,St,N,"Los AngelesCA 90032(34.075, -118.18)",CA,90032,http://www.laparks.org/dos/senior/facility/elSerenoSCC.htm,(323) 222-2040,14,34.075035,-118.179899
Recreation Centers,Ritchie Valens Recreation Center,10731,65,E,Laurel Canyon,Blvd,E,E,Sepulveda,Dr,E,"PacoimaCA 91331(34.2658, -118.439)",CA,91331,http://www.laparks.org/dos/reccenter/facility/ritchievalensRC.htm,(818) 834-5172,7,34.265818,-118.438725
Senior Centers,Robert Wilkinson Multipurpose Senior Citizen Center,8956,65,W,Vanalden,Ave,W,W,Tiara,Blvd,S,"NorthridgeCA 91324(34.2334, -118.549)",CA,91324,http://www.laparks.org/dos/senior/facility/wilkinsonRobertMSC.htm,(818) 756-7741,12,34.233362,-118.548728
Outdoor Fitness Equipment,Lemon Grove Park,4959,42,S,Lemon Grove,Ave,N,S,Vanowen,Dr,N,"Los AngelesCA 90029(34.0863, -118.305)",CA,90029,http://www.laparks.org/dos/reccenter/facility/lemonGroveRC.htm,(323) 666-4144,13,34.08634611,-118.3046676
Parks,Griffith Park Visitor Center Auditorium,4730,12,W,Crystal Springs,Dr,E,S,Sesnon,St,S,"Los AngelesCA 90027(34.1325, -118.28)",CA,90027,http://www.laparks.org/dos/ranger/auditorium.htm,(323) 665-1154,4,34.132522,-118.280284
Museums,Griffith Park - Autry Museum of Western Heritage,4700,0,E,Western Heritage,Dr,S,N,Yucca,Ave,N,"Los AngelesCA 90027(34.1487, -118.282)",CA,90027,http://disclaimer.lacity.org/disclaim.cfm?goto=http://www.autrynationalcenter.org,(323) 667-2000,4,34.148715,-118.282023
Camps,Otis Wallace Children's Campground,11770,12,W,Foothill,Blvd,W,W,Hanley,St,E,"Lake View TerraceCA 91342(34.2657, -118.396)",CA,91342,http://www.laparks.org/dos/parks/skateparks/elSerenoSkatePk.htm,(818) 756-8060,7,34.26571,-118.3955
Recreation Centers,Seoul International Recreation Center,3250,21,N,San Marino,St,W,E,Sanford,Dr,W,"Los AngelesCA 90006(34.0544, -118.302)",CA,90006,http://www.laparks.org/dos/parks/facility/weddingtonPkNo.htm,(213) 383-7549,10,34.05435479,-118.3016258
Public Computer Centers,Yucca Park Community Center - Public Computer Center,6671,45,S,Yucca,St,E,E,Santa Monica,Blvd,N,"Los AngelesCA 90028(34.1033, -118.336)",CA,90028,http://www.laparks.org/btop/lynda.htm,(323) 957-6339,13,34.10331572,-118.3355345
Parks,Jackie Tatum / Harvard Park,1535,12,N,62nd,St,N,W,Sylmar,Dr,E,"Los AngelesCA 90047(33.9833, -118.304)",CA,90047,http://www.laparks.org/dos/reccenter/facility/jackieTatumRC.htm,(323) 778-2579,8,33.98334823,-118.303593
Senior Centers,Montecito Heights Senior Citizen Center,4545,12,N,Homer,St,S,W,West,St,N,"Los AngelesCA 90031(34.0959, -118.203)",CA,90031,http://www.laparks.org/dos/senior/facility/montecitoHeightsSCC.htm,(213) 485-8550,1,34.095856,-118.202986
Parks,William Nickerson Gardens Park,11251,11,E,Compton,Ave,N,W,Chevy Chase,St,N,"Los AngelesCA 90059(33.9322, -118.247)",CA,90059,http://www.laparks.org/dos/reccenter/facility/williamNickersonRC.htm,(323) 566-1416,15,33.932182,-118.246727
Recreation Centers,Panorama City Recreation Center,8600,1,W,Hazeltine,Ave,N,E,Wells,Dr,E,"Panorama CityCA 91402(34.2267, -118.441)",CA,91402,http://www.laparks.org/dos/reccenter/facility/panoramaRC.htm,(818) 893-3401,6,34.22673102,-118.4413338
Tennis Courts,Loren Miller Tennis Courts,2717,51,S,Halldale,Ave,E,S,4th,Blvd,S,"Los AngelesCA 90018(34.0305, -118.304)",CA,90018,http://www.laparks.org/dos/reccenter/facility/lorenMillerRC.htm,(323) 734-1302,8,34.030545,-118.303731
Skate Parks,Sunland Skate Park,8651,74,W,Foothill,Blvd,W,N,Slauson,Dr,N,"SunlandCA 91040(34.2599, -118.322)",CA,91040,http://www.laparks.org/dos/parks/skateparks/sunlandSkatePk.htm,(818) 352-5282,7,34.25987785,-118.3220099
Outdoor Fitness Equipment,Van Ness Park,5720,56,W,2nd,Ave,S,N,Canyon,St,N,"Los AngelesCA 90043(33.9908, -118.319)",CA,90043,http://www.laparks.org/dos/reccenter/facility/vanNessRC.htm,(323) 296-1559,8,33.99082417,-118.319119
Parks,Benny H. Potter West Adams Avenues Memorial Park,2413,23,W,2nd,Ave,W,S,Norfolk,Ave,E,"Los AngelesCA 90018(34.035, -118.319)",CA,90018,http://www.laparks.org/dos/parks/facility/bennyHPotterPk.htm,(323) 373-9483,10,34.035039,-118.318677
Skate Parks,Pedlow Skate Park,17334,85,N,Victory,Blvd,W,E,Borden,St,S,"EncinoCA 91316(34.1859, -118.512)",CA,91316,http://www.laparks.org/dos/parks/skateparks/pedlowSkatePk.htm,(818) 654-5296,6,34.185931,-118.511611
Parks,Irving Schachter Park,2599,96,S,Beverwil,Dr,S,W,Lancaster,Dr,N,"Los AngelesCA 90064(34.04, -118.399)",CA,90064,http://www.laparks.org/dos/parks/skateparks/elSerenoSkatePk.htm,(310) 840-2186,5,34.040044,-118.398926
Parks,Greayer's Oak Park,3711,11,N,Figueroa,St,E,N,Crystal Springs,Blvd,S,"Los AngelesCA 90065(34.0906, -118.212)",CA,90065,http://www.laparks.org/dos/parks/facility/weddingtonPkNo.htm,(310) 548-7675,1,34.09059,-118.212182
Parks,Griffith Park - Old Zoo Picnic Area,12492,12,N,Griffith Park,Dr,S,E,Neptune,Dr,N,"Los AngelesCA 90027(34.1355, -118.286)",CA,90027,http://www.laparks.org/dos/parks/facility/griffithPk.htm,(323) 644-2050,4,34.135456,-118.286337
Parks,Hollywood Park,1122,21,E,Cole,Ave,W,S,Mercury,St,E,"Los AngelesCA 90038(34.0913, -118.33)",CA,90038,http://www.laparks.org/dos/reccenter/facility/hollywoodRC.htm,(323) 467-6847,13,34.09132457,-118.3297572
Tennis Courts,Mar Vista Tennis Courts,11430,85,W,Woodbine,Ave,W,W,Trinity,St,W,"Los AngelesCA 90066(34.0179, -118.429)",CA,90066,http://www.laparks.org/dos/parks/skateparks/elSerenoSkatePk.htm,(310) 398-5982,11,34.01785493,-118.4294632
Parks,Watts Cultural Crescent,1780,41,S,Santa Ana,Blvd,S,W,Griffith Park,Dr,N,"Los AngelesCA 90059(33.94, -118.242)",CA,90059,http://www.laparks.org/dos/parks/facility/weddingtonPkNo.htm,(310) 548-7675,15,33.940048,-118.242452
Outdoor Fitness Equipment,Hermon / Arroyo Seco Park,5566,12,W,Via Marisol,,N,E,51st,Blvd,E,"Los AngelesCA 90042(34.1044, -118.187)",CA,90042,http://www.laparks.org/dos/parks/facility/arroyoSPk.htm,(213) 485-5054,14,34.104402,-118.187327
Parks,Westside Neighborhood Park,3085,12,W,Clyde,Ave,E,W,Valley,St,S,"Los AngelesCA 90016(34.0291, -118.37)",CA,90016,http://www.laparks.org/dos/parks/facility/westsideNeighborhoodPk.htm,(323) 292-6622,10,34.029093,-118.36998
Parks,Telfair Park (Valleycrest Park),15721,54,N,Cobalt,Ave,S,S,Rinaldi,Ave,N,"SylmarCA 91342(34.3042, -118.473)",CA,91342,http://www.laparks.org/dos/parks/facility/telfairPk.htm,(818) 368-8343,7,34.304228,-118.472861
Outdoor Fitness Equipment,Trinity Park,517,85,E,25th,St,N,S,Fresno,St,S,"Los AngelesCA 90011(34.0239, -118.263)",CA,90011,http://www.laparks.org/dos/reccenter/facility/trinityRC.htm,(213) 485-4195,9,34.02385032,-118.2634554
Parks,Grigsby Pocket Park,1816,74,W,115th,St,S,N,Erwin,Dr,N,"Los AngelesCA 90059(33.9302, -118.24)",CA,90059,http://www.laparks.org/dos/parks/skateparks/elSerenoSkatePk.htm,(310) 548-7675,15,33.930249,-118.240227
Outdoor Fitness Equipment,4600 Orchard Ave Pocket Park,4600,74,S,Orchard,Ave,S,W,Melrose,Blvd,E,"Los AngelesCA 90037(34.0016, -118.289)",CA,90037,http://www.laparks.org/dos/parks/facility/weddingtonPkNo.htm,(310) 548-7675,9,34.001558,-118.288625
Parks,Cypress Park Library,3320,13,W,Pepper,Ave,E,E,Vineyard,Dr,W,"Los AngelesCA 90065(34.091, -118.223)",CA,90065,http://www.laparks.org/dos/parks/skateparks/elSerenoSkatePk.htm,(310) 548-7675,1,34.091029,-118.22264
Museums,Heritage Square Museum,3800,45,W,Homer,St,W,E,Sepulveda,St,N,"Los AngelesCA 90031(34.0885, -118.208)",CA,90031,http://www.laparks.org/dos/parks/facility/weddingtonPkNo.htm,(323) 225-2700,1,34.088502,-118.208039
Outdoor Fitness Equipment,South Park,345,54,E,51st,St,N,W,Tiara,St,N,"Los AngelesCA 90011(33.9966, -118.269)",CA,90011,http://www.laparks.org/dos/reccenter/facility/southPkRC.htm,(213) 847-6746,9,33.99664406,-118.268573
Universally Accessible Playgrounds,De Garmo Park,10110,523,W,Arminta,St,S,W,Vanowen,Dr,E,"Sun ValleyCA 91352(34.2147, -118.352)",CA,91352,http://www.laparks.org/dos/parks/facility/deGarmoPk.htm,(818) 506-7456,2,34.214719,-118.352383
Tennis Courts,Sylmar Tennis Courts,13109,32,S,Borden,Ave,N,E,Sesnon,Blvd,S,"SylmarCA 91342(34.3083, -118.445)",CA,91342,http://www.laparks.org/dos/parks/facility/sylmarPk.htm,(818) 367-5656,7,34.30827253,-118.4445011
Universally Accessible Playgrounds,Shadow Ranch Park,22633,1,E,Vanowen,St,N,S,Yucca,Dr,N,"West HillsCA 91307(34.1939, -118.62)",CA,91307,http://www.laparks.org/dos/parks/facility/shadowranchPk.htm,(818) 883-3637,12,34.19390248,-118.6197081
Recreation Centers,Peck Park Community Center,560,96,N,Western,Ave,E,S,Hanley,St,S,"San PedroCA 90732(33.7498, -118.307)",CA,90732,http://www.laparks.org/dos/reccenter/facility/peckParkComCtr.htm,(310) 548-7580,15,33.749759,-118.306733
Parks,Westwood Gardens Park,1246,12,S,Glendon,Ave,W,E,Sanford,Ave,N,"Los AngelesCA 90024(34.0575, -118.442)",CA,90024,http://www.laparks.org/dos/parks/skateparks/elSerenoSkatePk.htm,(310) 836-1040,5,34.057518,-118.441597
Recreation Centers,North Weddington Park Community Center,10844,35,W,Acama,St,S,N,Santa Monica,St,E,"North HollywoodCA 91602(34.1458, -118.367)",CA,91602,http://www.laparks.org/dos/parks/facility/weddingtonPkNo.htm,(818) 506-1467,2,34.145768,-118.36709
Outdoor Fitness Equipment,Griffith Park - Park Center,4730,62,W,Crystal Springs,Dr,W,S,Sylmar,St,W,"Los AngelesCA 90027(34.1342, -118.283)",CA,90027,http://www.laparks.org/dos/parks/facility/parkCenter.htm,(323) 644-2050,4,34.134213,-118.282994
Universally Accessible Playgrounds,Westwood Park - Aidan's Place,1350,12,S,Sepulveda,Blvd,W,N,West,Ave,N,"Los AngelesCA 90025(34.0527, -118.448)",CA,90025,http://www.laparks.org/dos/playground/facility/westwoodUAPRC.htm,(310) 473-3610,5,34.052676,-118.448107
Parks,Lake Street Park,227,23,N,Lake,St,W,W,Chevy Chase,St,E,"Los AngelesCA 90057(34.0687, -118.27)",CA,90057,http://www.laparks.org/dos/parks/facility/lakeStPk.htm,(213) 207-2196,13,34.06874703,-118.270384
Parks,La Mirada Park Acquisition Site,5401,65,W,La Mirada,Ave,E,N,Wells,Dr,N,"Los AngelesCA 90029(34.0942, -118.307)",CA,90029,http://www.laparks.org/dos/parks/skateparks/elSerenoSkatePk.htm,(310) 548-7675,13,34.094208,-118.306999
Swimming Pools - Year Round,Banning Pool,1450,65,N,Avalon,Blvd,W,E,4th,Blvd,S,"WilmingtonCA 90744(33.7922, -118.263)",CA,90744,http://www.laparks.org/dos/parks/facility/weddingtonPkNo.htm,(310) 548-7420,15,33.79223042,-118.2633851
Recreation Centers,Sepulveda Recreation Center,8801,42,S,Kester,Ave,S,S,Slauson,Dr,E,"Panorama CityCA 91405(34.2301, -118.458)",CA,91405,http://www.laparks.org/dos/reccenter/facility/sepulvedaRC.htm,(818) 893-3700,6,34.23005873,-118.4575623
Recreation Centers,Hoover Recreation Center,1010,12,W,25th,St,S,W,Canyon,St,W,"Los AngelesCA 90007(34.0327, -118.283)",CA,90007,http://www.laparks.org/dos/reccenter/facility/hooverRC.htm,(213) 749-8896,1,34.03273559,-118.2830944
Public Computer Centers,Central Park Recreation Center - Public Computer Center,1357,0,E,22nd,St,N,W,Norfolk,St,N,"Los AngelesCA 90011(34.0208, -118.251)",CA,90011,http://www.laparks.org/btop/lynda.htm,(213) 485-4435,9,34.020754,-118.251107
Outdoor Fitness Equipment,Gage and Avalon Pocket Park,6301,12,S,Avalon,Blvd,W,E,Borden,Dr,S,"Los AngelesCA 90003(33.9822, -118.265)",CA,90003,http://www.laparks.org/dos/parks/skateparks/elSerenoSkatePk.htm,(323) 276-3042,9,33.982212,-118.265352
Parks,6th & Gladys Street Park,624,21,E,6th,St,E,W,Lancaster,Blvd,N,"Los AngelesCA 90021(34.0403, -118.242)",CA,90021,http://www.laparks.org/dos/parks/facility/weddingtonPkNo.htm,(818) 756-8189,14,34.04032,-118.242479
Tennis Courts,Sunland Tennis Courts,8651,45,N,Foothill,Blvd,E,S,Crystal Springs,Dr,N,"SunlandCA 91040(34.2599, -118.322)",CA,91040,http://www.laparks.org/dos/reccenter/facility/sunlandRC.htm,(818) 352-5282,7,34.25987785,-118.3220099
Recreation Centers,Silver Lake Recreation Center,1850,45,W,Silver Lake,Dr,W,S,Neptune,St,E,"Los AngelesCA 90026(34.0925, -118.267)",CA,90026,http://www.laparks.org/dos/reccenter/facility/silverLakeRC.htm,(323) 644-3946,13,34.09250232,-118.2668935
Parks,Lanark/Shelby Mini-Park,1267,4,S,Lanark,St,W,N,Mercury,Ave,W,"Los AngelesCA 90041(34.1353, -118.188)",CA,90041,http://www.laparks.org/dos/parks/facility/lanarkShelbyPk.htm,(323) 255-0370,14,34.135325,-118.187511
Outdoor Fitness Equipment,State Street Recreation Center,716,12,N,State,St,S,W,Trinity,St,S,"Los AngelesCA 90033(34.0531, -118.213)",CA,90033,http://www.laparks.org/dos/reccenter/facility/stateStreetRC.htm,(213) 847-2790,14,34.053064,-118.212879
Parks,Mount Carmel Park,830,63,W,70th,St,N,E,Griffith Park,Dr,W,"Los AngelesCA 90044(33.9762, -118.288)",CA,90044,http://www.laparks.org/dos/parks/facility/mountCarmelPk.htm,(323) 789-2756,8,33.97624967,-118.2884111
Swimming Pools - Summer,Ross Snyder Pool,1501,51,E,41st,St,N,E,51st,Blvd,W,"Los AngelesCA 90011(34.0087, -118.247)",CA,90011,http://www.laparks.org/dos/aquatic/facility/rossSnyderPool.htm,(213) 847-3430,9,34.00871681,-118.2473934
Parks,Rena Park,510,11,S,Leland,Ave,S,W,Valley,Dr,S,"San PedroCA 90732(33.7477, -118.301)",CA,90732,http://www.laparks.org/dos/parks/facility/renaPk.htm,(310) 548-7756,15,33.7476902,-118.3010596
Tennis Courts,Peck Park Tennis Courts,560,12,N,Western,Ave,E,W,Rinaldi,St,S,"San PedroCA 90732(33.751, -118.306)",CA,90732,http://www.laparks.org/dos/reccenter/facility/peckParkComCtr.htm,(310) 548-7580,15,33.751038,-118.306167
Parks,Santa Ynez Canyon Park,1100,23,N,Palisades,Dr,W,S,Fresno,Ave,E,"Pacific PalisadesCA 90272(34.0719, -118.567)",CA,90272,http://www.laparks.org/dos/parks/facility/santaYnezCynPk.htm,(310) 548-7675,11,34.071875,-118.567409
Public Computer Centers,Mount Carmel Recreation Center - Public Computer Center,830,56,W,70th,St,N,W,Erwin,St,N,"Los AngelesCA 90044(33.976, -118.288)",CA,90044,http://www.laparks.org/btop/lynda.htm,(323) 789-2756,8,33.975985,-118.28763
Swimming Pools - Summer,North Hollywood Pool,5301,11,S,Tujunga,Ave,S,E,Melrose,Dr,E,"North HollywoodCA 91601(34.167, -118.379)",CA,91601,http://www.laparks.org/dos/aquatic/facility/northHollywoodPool.htm,(818) 755-7654,2,34.167045,-118.379209
Parks,Palms Park,2950,23,W,Overland,Ave,N,S,Vineyard,Blvd,W,"Los AngelesCA 90064(34.0329, -118.418)",CA,90064,http://www.laparks.org/dos/reccenter/facility/palmsRC.htm,(310) 838-3838,5,34.03286932,-118.4177271
Recreation Centers,Wabash Recreation Center,2765,85,E,Wabash,Ave,N,W,Sepulveda,Dr,N,"Los AngelesCA 90033(34.0507, -118.198)",CA,90033,http://www.laparks.org/dos/reccenter/facility/wabashRC.htm,(323) 262-6534,14,34.05070789,-118.1981928
Tennis Courts,Studio City Tennis Courts,12621,81,S,Rye,St,E,E,Tiara,St,E,"Studio CityCA 91604(34.1514, -118.408)",CA,91604,http://www.laparks.org/dos/reccenter/facility/studioCityRC.htm,(818) 769-4415,2,34.15137297,-118.4079843
Tennis Courts,Griffith Park - Park Drive Tennis Courts,4669,45,N,Crystal Springs,Dr,W,E,Vanowen,St,N,"Los AngelesCA 90027(34.1331, -118.283)",CA,90027,http://www.laparks.org/dos/parks/griffithpk/tennis.htm,(323) 913-4688,4,34.133139,-118.282567
Parks,Denker Park,1550,54,W,35th,Pl,S,W,Sesnon,Dr,E,"Los AngelesCA 90018(34.0236, -118.305)",CA,90018,http://www.laparks.org/dos/reccenter/facility/denkerRC.htm,(323) 733-8367,8,34.02355276,-118.3045149
Universally Accessible Playgrounds,Stoner Park,1835,523,S,Stoner,Ave,W,N,Yucca,Blvd,W,"Los AngelesCA 90025(34.0384, -118.453)",CA,90025,http://www.laparks.org/dos/reccenter/facility/stonerRC.htm,(310) 479-7200,11,34.03844736,-118.4532902
Swimming Pools - Year Round,Richard Alatorre Pool,4721,32,E,Klamath,St,W,E,Hanley,Dr,E,"Los AngelesCA 90032(34.0757, -118.182)",CA,90032,http://www.laparks.org/dos/parks/skateparks/elSerenoSkatePk.htm,(323) 276-3042,14,34.075694,-118.1815698
Parks,Unidad Park,1648,1,W,Beverly,Blvd,S,S,Sanford,St,W,"Los AngelesCA 90026(34.064, -118.265)",CA,90026,http://www.laparks.org/dos/parks/facility/weddingtonPkNo.htm,(310) 548-7675,13,34.063995,-118.264551
Public Computer Centers,Ross Snyder Recreation Center - Public Computer Center,1501,96,E,41st,St,S,W,Santa Monica,Ave,E,"Los AngelesCA 90011(34.0087, -118.247)",CA,90011,http://www.laparks.org/btop/lynda.htm,(323) 231-3964,9,34.00871681,-118.2473934
Tennis Courts,Shatto Tennis Courts,3191,12,W,4th,St,E,W,Sylmar,St,W,"Los AngelesCA 90020(34.0673, -118.289)",CA,90020,http://www.laparks.org/dos/reccenter/facility/shattoRC.htm,(213) 386-8877,13,34.067287,-118.289251
Parks,Chatsworth Oaks Park,9301,35,N,Valley Circle,Blvd,W,E,West,Dr,N,"ChatsworthCA 91311(34.2399, -118.629)",CA,91311,http://www.laparks.org/dos/parks/facility/chatsworthOaksPk.htm,(818) 341-6595,12,34.23993,-118.629054
Public Computer Centers,Elysian Valley Recreation Center - Public Computer Center,1811,62,w,Ripple,St,N,W,Chevy Chase,Blvd,E,"Los AngelesCA 90039(34.0989, -118.245)",CA,90039,http://www.laparks.org/dos/parks/skateparks/elSerenoSkatePk.htm,(323) 666-5058,13,34.09889273,-118.24518
Parks,Via Dolce Park,3507,12,s,Via Dolce,,E,S,Wells,Dr,N,"Marina del ReyCA 90292(33.9787, -118.462)",CA,90292,http://www.laparks.org/dos/parks/facility/weddingtonPkNo.htm,(310) 548-7675,11,33.978686,-118.462029
