FID,PRKID,PRKNAME,PRKADDR,STREETNO,STREETDIR,STREETNM,STREETTYPE,CITY,STATE,ZIP,PRKTYPE,PRKSTATUS,PRKDIST,PRKSIZE,PRKPHONE,PRKAGE,PRKADAACC,CITYCOUNCI,BOCC,PRKDATE,USERID,X,Y
1,MAYP,MAYERLING DRIVE NEIGHBORHOOD PARK,8420 LAWYERS RD,0,N,NO ADDRESS,RD,CHARLOTTE,NC,28227,NEIGHBORHOOD PARK,UNDEVELOPED,SOUTH,5.556,7048969808,0,0,District 6,District 6,2003-07-11T00:00:00.000Z,BLACKSR,1491199.032,527559.9466
2,MCCP,MCALPINE CREEK REGIONAL PARK,8711  MONROE RD,8711,S,MONROE,DR,CHARLOTTE,NC,28212,REGIONAL PARK,DEVELOPED,SOUTH,114.01,7046433405,0,0,District 7,District 5,2008-05-14T00:00:00.000Z,BLACKSR,1478221.489,514435.2479
3,MCDL,MCDOWELL NATURE PRESERVE,15222 YORK RD,15222,E,YORK,ST,CHARLOTTE,NC,28278,NATURE PRESERVE,DEVELOPED,SOUTH,1103.4,7045885224,0,0,District 2,District 1,1998-07-28T00:00:00.000Z,BLACKSR,1394658.325,495409.1143
4,MCIN,MCINTYRE HISTORIC SITE,5801 MCINTYRE AV,5801,S,MCINTYRE,RD,CHARLOTTE,NC,28216,SPECIAL FACILITY,DEVELOPED,NORTH,1.746,7043368096,0,0,District 2,District 3,1998-07-28T00:00:00.000Z,BLACKSR,1444071.116,573787.0603
5,MCKE,MCKEE ROAD COMMUNITY PARK,4201 MCKEE RD,4201,E,MCKEE,DR,CHARLOTTE,NC,28270,COMMUNITY PARK,DEVELOPED,SOUTH,20.574,7046433405,0,0,District 7,District 6,1998-10-07T00:00:00.000Z,BLACKSR,1474330.293,484449.0184
6,MDLC,MARION DIEHL CENTER,2219 TYVOLA RD,2219,W,TYVOLA,DR,CHARLOTTE,NC,28210,RECREATION CENTER,DEVELOPED,SOUTH,0,7045270237,0,0,District 6,District 2,1998-07-28T00:00:00.000Z,BLACKSR,1444043.062,518357.4088
7,MDLP,MARION DIEHL COMMUNITY PARK,2219 TYVOLA RD,2219,S,TYVOLA,ST,CHARLOTTE,NC,28210,COMMUNITY PARK,DEVELOPED,SOUTH,78.715,7046433405,0,0,District 6,District 2,1998-07-28T00:00:00.000Z,BLACKSR,1444856.921,517939.4751
8,MEMS,MEMORIAL STADIUM COMPLEX,310 N KINGS DR,310,N,KINGS,RD,CHARLOTTE,NC,28204,SPECIAL FACILITY,DEVELOPED,CENTRAL,12.258,7043362884,0,0,District 1,District 4,1998-07-28T00:00:00.000Z,BLACKSR,1454012.645,539681.3376
9,MIDW,MIDWOOD NEIGHBORHOOD PARK,2100 WILHELMINA AV,2100,S,WILHELMINA,AV,CHARLOTTE,NC,28205,NEIGHBORHOOD PARK,DEVELOPED,CENTRAL,6.203,7043363367,0,0,District 1,District 4,1998-07-28T00:00:00.000Z,BLACKSR,1461718.342,543588.4661
10,MLCP,MALLARD CREEK REGIONAL PARK,3001 JOHNSTON OEHLER RD,3001,W,JOHNSTON OEHLER,RD,CHARLOTTE,NC,28269,REGIONAL PARK,DEVELOPED,NORTH,310.049,7043368866,0,0,District 4,District 1,1998-07-28T00:00:00.000Z,BLACKSR,1475136.047,591434.3489
11,MLDC,MALLARD CREEK CENTER,2530 JOHNSTON OEHLER RD,2530,E,JOHNSTON OEHLER,RD,CHARLOTTE,NC,28269,RECREATION CENTER,DEVELOPED,NORTH,0,7045488234,0,0,District 4,District 1,1998-08-12T00:00:00.000Z,BLACKSR,1476076.814,589588.4636
12,MLKP,MARTIN LUTHER KING COMMUNITY PARK,2600 RAVENCROFT DR,2600,S,RAVENCROFT,DR,CHARLOTTE,NC,28208,COMMUNITY PARK,DEVELOPED,CENTRAL,29.131,7043531165,0,0,District 2,District 2,1998-07-28T00:00:00.000Z,BLACKSR,1441263.526,549621.5234
13,MORG,CHERRY NEIGHBORHOOD PARK,1509 BAXTER ST,1506,N,BAXTER,ST,CHARLOTTE,NC,28204,NEIGHBORHOOD PARK,DEVELOPED,CENTRAL,1.891,7043362884,0,0,District 1,District 4,1998-07-28T00:00:00.000Z,BLACKSR,1452587.839,536529.0791
14,MSNW,MASON WALLACE COMMUNITY PARK,7301 MONROE RD,7301,S,MONROE,RD,CHARLOTTE,NC,28212,COMMUNITY PARK,DEVELOPED,SOUTH,30.397,7045684044,0,0,District 5,District 4,1998-07-28T00:00:00.000Z,BLACKSR,1475386.783,520579.8188
15,MTHC,METHODIST HOME CENTER,3200 SHAMROCK DR,3200,E,SHAMROCK,DR,CHARLOTTE,NC,28205,RECREATION CENTER,DEVELOPED,SOUTH,0,7045683363,0,0,District 1,District 4,1998-07-28T00:00:00.000Z,BLACKSR,1470566.655,545365.6226
16,MTHP,METHODIST HOME NEIGHBORHOOD PARK,3200 SHAMROCK DR,3200,S,SHAMROCK,DR,CHARLOTTE,NC,28205,NEIGHBORHOOD PARK,DEVELOPED,SOUTH,10.453,7045684044,0,0,District 1,District 4,1998-07-28T00:00:00.000Z,BLACKSR,1470197.225,544821.2385
17,NAOM,NAOMI DRENAN CENTER,750 BEAL ST,750,N,BEAL,ST,CHARLOTTE,NC,28211,RECREATION CENTER,DEVELOPED,SOUTH,0,7043651265,0,0,District 1,District 4,1998-07-28T00:00:00.000Z,BLACKSR,1463337.094,529089.2928
18,NATM,FREEDOM PARK NATURE MUSEUM,1658 STERLING RD,1658,S,STERLING,RD,CHARLOTTE,NC,28209,SPECIAL FACILITY,DEVELOPED,CENTRAL,0,7043726261,0,0,District 1,District 5,1998-07-28T00:00:00.000Z,BLACKSR,1449490.063,528492.2097
19,NCPK,NORTH CHARLOTTE NEIGHBORHOOD PARK,901 HERRIN AV,901,E,HERRIN,AV,CHARLOTTE,NC,28205,NEIGHBORHOOD PARK,DEVELOPED,CENTRAL,3.056,7043363367,0,0,District 1,District 3,1998-07-28T00:00:00.000Z,BLACKSR,1463246.293,549329.7604
20,NEVN,NEVIN REGIONAL PARK,6000 STATESVILLE RD,6000,S,STATESVILLE,RD,CHARLOTTE,NC,28269,REGIONAL PARK,DEVELOPED,NORTH,196.981,7043368866,0,0,District 2,District 3,2000-12-11T00:00:00.000Z,BLACKSR,1451062.726,569907.1809
21,NEWP,NEWELL COMMUNITY PARK,9130 NEWELL BAPTIST CHURCH RD,9130,N,NEWELL BAPTIST CHURCH,RD,CHARLOTTE,NC,28213,COMMUNITY PARK,DEVELOPED,NORTH,29.767,7043368866,0,0,District 4,District 1,1998-08-12T00:00:00.000Z,BLACKSR,1481887.603,562882.6856
22,NINT,NINTH STREET NEIGHBORHOOD PARK,417 W 9TH ST,417,E,9TH,ST,CHARLOTTE,NC,28202,NEIGHBORHOOD PARK,DEVELOPED,CENTRAL,0.255,7043363367,0,0,District 2,District 3,1998-07-28T00:00:00.000Z,BLACKSR,1450224.243,545218.4455
23,NMPK,NORTH MECKLENBURG COMMUNITY PARK,16131 OLD STATESVILLE RD,16131,E,OLD STATESVILLE,RD,HUNTERSVILLE,NC,28078,COMMUNITY PARK,DEVELOPED,NORTH,96.228,7048969808,0,0,District 7,District 1,1998-07-28T00:00:00.000Z,BLACKSR,1450882.61,617708.2166
24,OAKT,OAKHURST NEIGHBORHOOD PARK,3500 CRAIG AV,3500,S,CRAIG,RD,CHARLOTTE,NC,28211,NEIGHBORHOOD PARK,DEVELOPED,SOUTH,5.133,7046433405,0,0,District 2,District 4,1998-07-28T00:00:00.000Z,BLACKSR,1465243.521,529418.2121
25,OEHP,OEHLER NATURE PRESERVE,HUNTERSVILLE-CONCORD RD,0,S,NO ADDRESS,DR,CHARLOTTE,NC,28078,NATURE PRESERVE,UNDEVELOPED,NORTH,144.766,7045684044,0,0,District 7,District 1,2003-07-11T00:00:00.000Z,BLACKSR,1463392.242,610821.6574
26,OLDP,OLDE PROVIDENCE COMMUNITY PARK,3800 REA RD,3800,W,REA,ST,CHARLOTTE,NC,28226,COMMUNITY PARK,DEVELOPED,SOUTH,39.326,7043651265,0,0,District 2,District 6,1998-07-28T00:00:00.000Z,BLACKSR,1462435.265,499865.5259
27,PALC,POLICE ATHLETIC LEAGUE CENTER,800 OAKLAWN AV,800,E,OAKLAWN,RD,CHARLOTTE,NC,28206,RECREATION CENTER,DEVELOPED,CENTRAL,0,7043726261,0,0,District 2,District 2,1998-08-12T00:00:00.000Z,BLACKSR,1451555.981,549443.8622
28,WEAC,WESTMORELAND REGIONAL PARK,17702 WEST CATAWBA AV,0,S, ,DR,HUNTERSVILLE,NC,28078,REGIONAL PARK,UNDEVELOPED,NORTH,126.868,7043363367,0,0,District 6,District 1,2008-04-21T00:00:00.000Z,BLACKSR,1437644.468,626468.3522
29,PENC,HICKORY GROVE NEIGHBORHOOD PARK,6709 PENCE RD,6709,W,PENCE,DR,CHARLOTTE,NC,28227,NEIGHBORHOOD PARK,DEVELOPED,SOUTH,11.433,7043368866,0,0,District 7,District 1,2003-07-11T00:00:00.000Z,BLACKSR,1487119.932,541516.1581
30,PERL,PEARLE STREET NEIGHBORHOOD PARK,1108 BAXTER ST,1108,E,BAXTER,ST,CHARLOTTE,NC,28204,NEIGHBORHOOD PARK,DEVELOPED,CENTRAL,8.386,7043368866,0,0,District 2,District 4,1998-07-28T00:00:00.000Z,BLACKSR,1451279.423,537338.7199
31,PKRD,PARK ROAD COMMUNITY PARK,6220 PARK RD,6220,S,PARK,RD,CHARLOTTE,NC,28210,COMMUNITY PARK,DEVELOPED,SOUTH,71.473,7043363367,0,0,District 2,District 5,1999-05-07T00:00:00.000Z,BLACKSR,1447014.845,513334.3738
32,PKTN,PARK ROAD TENNIS FACILITY,6215 PARK RD,6215,N,PARK,AV,CHARLOTTE,NC,28210,SPECIAL FACILITY,DEVELOPED,SOUTH,17.989,7048969808,0,0,District 6,District 5,1998-07-28T00:00:00.000Z,BLACKSR,1447096.368,513335.8302
33,PNVP,PINEVILLE COMMUNITY PARK,1310 LAKEVIEW DR,0,S,NO ADDRESS,RD,PINEVILLE,NC,28134,COMMUNITY PARK,UNDEVELOPED,SOUTH,39.975,7046433405,0,0,District 7,District 6,1998-09-18T00:00:00.000Z,BLACKSR,1431565.441,488079.8865
34,PRES,PRESSLEY ROAD NEIGHBORHOOD PARK,1500 PRESSLEY RD,1500,N,PRESSLEY,RD,CHARLOTTE,NC,28217,NEIGHBORHOOD PARK,DEVELOPED,CENTRAL,5.954,7043363367,0,0,District 2,District 2,1998-07-28T00:00:00.000Z,BLACKSR,1434818.714,531932.1646
35,PROG,PROGRESS NEIGHBORHOOD PARK,1301 PARKWOOD AV,1301,N,PARKWOOD,AV,CHARLOTTE,NC,28205,NEIGHBORHOOD PARK,DEVELOPED,CENTRAL,0.658,7048969808,0,0,District 1,District 3,1998-07-28T00:00:00.000Z,BLACKSR,1458838.967,544717.0293
36,PROS,PROSPERITY CHURCH NEIGHBORHOOD PARK,12537 DEARMON RD,0,S,NO ADDRESS,RD,CHARLOTTE,NC,28269,NEIGHBORHOOD PARK,UNDEVELOPED,NORTH,1.189,7046433405,0,0,District 4,District 1,2003-07-11T00:00:00.000Z,BLACKSR,1467133.828,592813.1914
37,RAMA,RAMA ROAD NEIGHBORHOOD PARK,1035 RAMA RD,1035,W,RAMA,DR,CHARLOTTE,NC,28211,NEIGHBORHOOD PARK,DEVELOPED,SOUTH,14.437,7046433405,0,0,District 5,District 5,1998-07-28T00:00:00.000Z,BLACKSR,1470547.472,521016.3727
38,RAMS,RAMSEY CREEK COMMUNITY PARK,18441  NANTZ RD,18441,S,NANTZ,ST,CORNELIUS,NC,28078,COMMUNITY PARK,DEVELOPED,NORTH,45.47,7048969808,0,0,District 7,District 1,2008-05-14T00:00:00.000Z,BLACKSR,1435541.461,629694.5393
39,RAND,RANDOLPH ROAD COMMUNITY PARK,201 BILLINGSLEY RD,201,W,BILLINGSLEY,RD,CHARLOTTE,NC,28205,COMMUNITY PARK,DEVELOPED,CENTRAL,30.437,7043362884,0,0,District 2,District 4,1998-07-28T00:00:00.000Z,BLACKSR,1459459.577,529232.8006
40,REDD,REDDMAN ROAD COMMUNITY PARK,REDDMAN RD,0,E,NO ADDRESS,DR,CHARLOTTE,NC,28212,COMMUNITY PARK,UNDEVELOPED,SOUTH,38.771,7045684044,0,0,District 5,District 4,2003-07-11T00:00:00.000Z,BLACKSR,1477267.252,530855.0224
41,REDY,REEDY CREEK REGIONAL PARK,2900  ROCKY RIVER RD,2900,S,ROCKY RIVER,DR,CHARLOTTE,NC,28215,REGIONAL PARK,DEVELOPED,NORTH,145.664,7043651265,0,0,District 4,District 3,2008-05-14T00:00:00.000Z,BLACKSR,1487611.451,560044.2439
42,REID,REID NEIGHBORHOOD PARK,AMAY JAMES AV,0,W,NO ADDRESS,ST,CHARLOTTE,NC,28208,NEIGHBORHOOD PARK,UNDEVELOPED,CENTRAL,1.11,7043726261,0,0,District 3,District 2,1998-10-12T00:00:00.000Z,BLACKSR,1432401.144,534491.6875
43,RENP,REEDY CREEK NATURE PRESERVE,2900 ROCKY RIVER RD,2900,W,ROCKY RIVER,RD,CHARLOTTE,NC,28215,NATURE PRESERVE,DEVELOPED,NORTH,735.611,7043363367,0,0,District 4,District 1,1998-07-28T00:00:00.000Z,BLACKSR,1487617.146,560047.4556
44,REVC,REVOLUTION SPORTS & LEARNING ACADEMY,1201 REMOUNT RD,1201,S,REMOUNT,AV,CHARLOTTE,NC,28208,RECREATION CENTER,DEVELOPED,CENTRAL,0,7043368866,0,0,District 3,District 2,1998-07-28T00:00:00.000Z,BLACKSR,1438883.941,538171.1827
45,REVG,REVOLUTION GOLF COURSE,2661 BARRINGER DR,2661,N,BARRINGER,RD,CHARLOTTE,NC,28208,GOLF COURSE,DEVELOPED,CENTRAL,114.423,7043368866,0,0,District 3,District 2,1998-07-28T00:00:00.000Z,BLACKSR,1438474.161,537556.8295
46,REVP,REVOLUTION COMMUNITY PARK,2425 BARRINGER DR,2425,S,BARRINGER,DR,CHARLOTTE,NC,28208,COMMUNITY PARK,DEVELOPED,CENTRAL,30.459,7043363367,0,0,District 3,District 2,1998-07-28T00:00:00.000Z,BLACKSR,1439617.918,538667.9981
47,RGLF,RENAISSANCE GOLF COURSE,1525 W TYVOLA RD,1525,W,TYVOLA,RD,CHARLOTTE,NC,28217,GOLF COURSE,DEVELOPED,SOUTH,338.411,7048969808,0,0,District 3,District 2,1998-07-28T00:00:00.000Z,BLACKSR,1429241.28,524383.1284
48,RIBW,RIBBONWALK NATURE PRESERVE,4601 NEVIN RD,4601,E,NEVIN,RD,CHARLOTTE,NC,28269,NATURE PRESERVE,DEVELOPED,NORTH,186.879,7046433405,0,0,District 2,District 3,2005-07-11T00:00:00.000Z,BLACKSR,1457465.478,565937.5997
49,RMBL,RAMBLEWOOD COMMUNITY PARK,10200 NATIONS FORD RD,10200,S,NATIONS FORD,RD,CHARLOTTE,NC,28273,COMMUNITY PARK,DEVELOPED,SOUTH,93.196,7045291827,0,0,District 3,District 2,1998-07-28T00:00:00.000Z,BLACKSR,1431192.579,504991.6223
50,ROCK,THEREASEA C. ELDERS NEIGHBORHOOD PARK,6325 ROCKWELL CHURCH RD,6325,N,ROCKWELL CHURCH,RD,CHARLOTTE,NC,28269,NEIGHBORHOOD PARK,DEVELOPED,NORTH,16.102,7043368866,0,0,District 2,District 1,1998-10-12T00:00:00.000Z,BLACKSR,1462711.723,570881.2446
51,RSPK,RENAISSANCE REGIONAL PARK,1200 W TYVOLA RD,1200,S,TYVOLA,RD,CHARLOTTE,NC,28217,REGIONAL PARK,DEVELOPED,SOUTH,144.685,7045291827,0,0,District 3,District 2,2002-02-01T00:00:00.000Z,BLACKSR,1429340.235,524412.7907
52,RURL,RURAL HILL NATURE PRESERVE,4431 NECK RD,4431,E,NECK,RD,HUNTERSVILLE,NC,28078,NATURE PRESERVE,DEVELOPED,NORTH,496.473,7048751391,0,0,District 6,District 1,1998-07-28T00:00:00.000Z,BLACKSR,1420228.581,600299.0198
53,SCES,STEELE CREEK ELEMENTARY PARK,4100 GALLANT LN,4100,S,GALLANT,LN,CHARLOTTE,NC,28273,NEIGHBORHOOD PARK,DEVELOPED,SOUTH,0,7045831176,0,0,District 7,District 1,1998-07-28T00:00:00.000Z,BLACKSR,1414838.454,516661.9279
54,SEDF,SEDGEFIELD NEIGHBORHOOD PARK,621 ELMHURST RD,621,N,ELMHURST,RD,CHARLOTTE,NC,28209,NEIGHBORHOOD PARK,DEVELOPED,CENTRAL,5.058,7043362884,0,0,District 2,District 4,1998-07-28T00:00:00.000Z,BLACKSR,1444953.404,532281.446
55,SEVP,SEVERSVILLE NEIGHBORHOOD PARK,540 S BRUNS AVE,540,S,BRUNS,AV,CHARLOTTE,NC,28217,NEIGHBORHOOD PARK,DEVELOPED,CENTRAL,11.082,7043531165,0,0,District 2,District 3,2002-04-03T00:00:00.000Z,BLACKSR,1442707.194,547178.6208
56,SHAM,SHAMROCK NEIGHBORHOOD PARK,3325 AIRLIE ST,3325,E,AIRLIE,RD,CHARLOTTE,NC,28205,NEIGHBORHOOD PARK,DEVELOPED,CENTRAL,2.216,7043363367,0,0,District 1,District 4,1998-07-28T00:00:00.000Z,BLACKSR,1467349.193,545361.9667
57,SHFP,SHUFFLETOWN PRAIRIE NATURE PRESERVE,WINDING RIVER RD,0,S,NO ADDRESS,DR,CHARLOTTE,NC,28214,NATURE PRESERVE,DEVELOPED,NORTH,18.061, ,0,0,District 2,District 1,2002-05-13T00:00:00.000Z,BLACKSR,1416144.459,578859.8977
58,SHLD,SHEFFIELD NEIGHBORHOOD PARK,1300 TARRINGTON AV,1300,N,TARRINGTON,ST,CHARLOTTE,NC,28205,NEIGHBORHOOD PARK,DEVELOPED,SOUTH,7.94,7045684044,0,0,District 5,District 4,1998-07-28T00:00:00.000Z,BLACKSR,1472235.77,534645.3593
59,TSRC,TOM SYKES CENTER,1501 EUCLID AV,1501,E,EUCLID,RD,CHARLOTTE,NC,28203,RECREATION CENTER,DEVELOPED,CENTRAL,0,7044324803,0,0,District 1,District 4,2007-02-08T00:00:00.000Z,BLACKSR,1446771.103,537409.2358
60,SHRM,SHERMAN BRANCH NATURE PRESERVE,3824 CAMP STEWART RD,0,E,NO ADDRESS,DR,MINT HILL,NC,28215,NATURE PRESERVE,DEVELOPED,NORTH,209.614, ,0,0,District 6,District 6,1998-10-06T00:00:00.000Z,BLACKSR,1510076.558,546264.6817
61,SOLO,SOLOMANS NEIGHBORHOOD PARK,3299 VENICE ST,3299,S,VENICE,DR,CHARLOTTE,NC,28216,NEIGHBORHOOD PARK,DEVELOPED,CENTRAL,0.662,7043531165,0,0,District 7,District 2,1998-07-28T00:00:00.000Z,BLACKSR,1441778.725,555076.6261
62,SPRG,SPRINGFIELD NEIGHBORHOOD PARK,200 DEANWOOD PL,200,S,DEANWOOD,ST,CHARLOTTE,NC,28217,NEIGHBORHOOD PARK,DEVELOPED,SOUTH,11.519,7045831176,0,0,District 2,District 2,1998-07-28T00:00:00.000Z,BLACKSR,1431135.076,518528.0594
63,STHS,SOUTHSIDE COMMUNITY PARK,600 REMOUNT RD,600,W,REMOUNT,RD,CHARLOTTE,NC,28203,COMMUNITY PARK,DEVELOPED,CENTRAL,20.517,7043531165,0,0,District 3,District 2,1998-07-28T00:00:00.000Z,BLACKSR,1440003.264,535942.8147
64,STHW,SOUTHWEST COMMUNITY PARK,1729 VILMA ST,1729,E,VILMA,AV,CHARLOTTE,NC,28203,COMMUNITY PARK,UNDEVELOPED,CENTRAL,65.433,7043531165,0,0,District 3,District 2,1999-04-01T00:00:00.000Z,BLACKSR,1427385.668,537090.15
65,STMY,ST MARYS CHAPEL,1129 E 3RD ST,1129,S,3RD,RD,CHARLOTTE,NC,28204,SPECIAL FACILITY,DEVELOPED,CENTRAL,0,7043331235,0,0,District 1,District 3,1998-07-28T00:00:00.000Z,BLACKSR,1452404.812,538524.2466
66,STPC,ST PAULS RAY OF HOPE CENTER,1401 ALLEN ST,1401,W,ALLEN,ST,CHARLOTTE,NC,28202,RECREATION CENTER,DEVELOPED,CENTRAL,0,7044326777,0,0,District 6,District 3,2002-04-03T00:00:00.000Z,BLACKSR,1457096.834,543754.66
67,STPH,STEPHENS ROAD NATURE PRESERVE,STEPHENS GROVE LN,0,E,NO ADDRESS,RD,HUNTERSVILLE,NC,28078,NATURE PRESERVE,DEVELOPED,NORTH,343.285,7045684044,0,0,District 7,District 1,1998-07-28T00:00:00.000Z,BLACKSR,1422651.546,606613.7284
68,STVN,STEVENS CREEK NATURE PRESERVE,THOMPSON RD,0,S,NO ADDRESS,DR,MINT HILL,NC,28227,NATURE PRESERVE,UNDEVELOPED,SOUTH,229.551,7043651265,0,0,District 2,District 6,1998-10-06T00:00:00.000Z,BLACKSR,1507884.164,512627.8463
69,SUGC,SUGAW CREEK CENTER,943 W SUGAR CREEK RD,943,N,SUGAR CREEK,ST,CHARLOTTE,NC,28213,RECREATION CENTER,DEVELOPED,NORTH,0,7043726261,0,0,District 1,District 3,1998-07-28T00:00:00.000Z,BLACKSR,1464641.589,558907.2085
70,SUGP,SUGAW CREEK COMMUNITY PARK,939 W SUGAR CREEK RD,943,W,SUGAR CREEK,RD,CHARLOTTE,NC,28213,COMMUNITY PARK,DEVELOPED,NORTH,72.79,7043363367,0,0,District 1,District 3,1998-07-28T00:00:00.000Z,BLACKSR,1464644.674,558917.5944
71,SUNH,SUNSET HILLS GOLF COURSE,800 RADIO RD,800,W,RADIO,DR,CHARLOTTE,NC,28216,GOLF COURSE,DEVELOPED,NORTH,264.122,7043368866,0,0,District 1,District 1,1998-07-28T00:00:00.000Z,BLACKSR,1437141.011,571286.0144
72,ABBT,ABBOTT NEIGHBORHOOD PARK,1300  SPRUCE ST,1300,S,SPRUCE,DR,CHARLOTTE,NC,28203,NEIGHBORHOOD PARK,DEVELOPED,CENTRAL,5.769,7043368866,0,0,District 3,District 2,2007-09-13T00:00:00.000Z,BLACKSR,1441242.347,538496.5066
73,ABRC,ALBEMARLE ROAD CENTER,5027 N IDLEWILD RD,5027,N,IDLEWILD,ST,CHARLOTTE,NC,28227,RECREATION CENTER,DEVELOPED,SOUTH,0,7043363367,0,0,District 3,District 4,2002-03-18T00:00:00.000Z,BLACKSR,1484969.606,530664.3474
74,ABRP,ALBEMARLE ROAD COMMUNITY PARK,9120 E W T HARRIS BV,9120,S,W T HARRIS,RD,CHARLOTTE,NC,28227,COMMUNITY PARK,DEVELOPED,SOUTH,21.133,7048969808,0,0,District 3,District 4,2002-03-18T00:00:00.000Z,BLACKSR,1484222.656,530891.3153
75,ADMN,ADMINISTRATIVE OFFICE BUILDING,5841  BROOKSHIRE BV,5841,W,BROOKSHIRE,AV,CHARLOTTE,NC,28216,SPECIAL FACILITY,DEVELOPED,NORTH,7.917,7046433405,0,0,District 2,District 1,2007-07-09T00:00:00.000Z,BLACKSR,1432400.075,563269.0323
76,ALEX,ALEXANDER NEIGHBORHOOD PARK,739 E 12TH ST,739,E,12TH,RD,CHARLOTTE,NC,28206,NEIGHBORHOOD PARK,DEVELOPED,CENTRAL,5.956,7043363367,0,0,District 2,District 3,2002-03-18T00:00:00.000Z,BLACKSR,1454217.511,542645.3572
77,ALHP,ALLEN HILLS NEIGHBORHOOD PARK,4701 CHEVIOT RD,4701,S,CHEVIOT,RD,CHARLOTTE,NC,28269,NEIGHBORHOOD PARK,DEVELOPED,NORTH,11.568,7043368866,0,0,District 2,District 3,2007-10-16T00:00:00.000Z,BLACKSR,1457264.012,563665.4095
78,ALHS,ALEXANDRIANA HISTORIC SITE,9921 OLD STATESVILLE RD,9921,N,OLD STATESVILLE,RD,CHARLOTTE,NC,28269,SPECIAL FACILITY,DEVELOPED,NORTH,0.902,7043368866,0,0,District 3,District 3,2002-03-18T00:00:00.000Z,BLACKSR,1456631.495,590104.44
79,AMJC,AMAY JAMES CENTER,2425 LESTER ST,2425,S,LESTER,ST,CHARLOTTE,NC,28208,RECREATION CENTER,DEVELOPED,CENTRAL,0,7043363053,0,0,District 2,District 2,2002-03-18T00:00:00.000Z,BLACKSR,1432073.544,534514.1756
80,AMJP,AMAY JAMES COMMUNITY PARK,2415 LESTER ST,2414,E,LESTER,ST,CHARLOTTE,NC,28208,COMMUNITY PARK,DEVELOPED,CENTRAL,41.576,7043531165,0,0,District 2,District 2,2007-05-01T00:00:00.000Z,BLACKSR,1432074.144,534502.5755
81,ANSP,ANITA STROUD NEIGHBORHOOD PARK,2215 DOUBLE OAKS RD,2215,S,DOUBLE OAKS,RD,CHARLOTTE,NC,28206,NEIGHBORHOOD PARK,DEVELOPED,CENTRAL,5.3,7043363367,0,0,District 1,District 2,2007-04-20T00:00:00.000Z,BLACKSR,1450370.587,551900.0398
82,AQUA,MECKLENBURG COUNTY AQUATIC CENTER,800 E 2ND ST,800,N,2ND,ST,CHARLOTTE,NC,28202,RECREATION CENTER,DEVELOPED,CENTRAL,4.134,7043363483,0,0,District 4,District 3,2002-03-18T00:00:00.000Z,BLACKSR,1450571.607,539345.7945
83,ARCH,ARCHDALE NEIGHBORHOOD PARK,5400  CHERRYCREST LN,5400,S,CHERRYCREST,LN,CHARLOTTE,NC,28217,NEIGHBORHOOD PARK,DEVELOPED,SOUTH,16.611,7045831176,0,0,District 3,District 2,2008-09-02T00:00:00.000Z,BLACKSR,1436172.61,515649.9863
84,ARGC,ARBOR GLEN OUTREACH CENTER,1520 CLANTON RD,1520,E,CLANTON,RD,CHARLOTTE,NC,28217,RECREATION CENTER,DEVELOPED,CENTRAL,0,7044321531,0,0,District 3,District 2,2002-04-03T00:00:00.000Z,BLACKSR,1434448.016,535922.7236
85,AUTN,AUTEN NATURE PRESERVE,NECK RD,0,S,NO ADDRESS,RD,HUNTERSVILLE,NC,28078,NATURE PRESERVE,DEVELOPED,NORTH,269.294,7045684044,0,0,District 1,District 1,2002-03-18T00:00:00.000Z,BLACKSR,1423739.761,597954.1628
86,BAXT,BAXTER STREET NEIGHBORHOOD PARK,1000 BAXTER ST,1000,N,BAXTER,DR,CHARLOTTE,NC,28204,NEIGHBORHOOD PARK,DEVELOPED,CENTRAL,3.632,7043651265,0,0,District 3,District 4,2002-03-18T00:00:00.000Z,BLACKSR,1450108.199,537687.7818
87,BCKP,BACK CREEK REGIONAL PARK,3343 BACK CREEK CHURCH RD,0,E,NO ADDRESS,ST,CHARLOTTE,NC,28213,REGIONAL PARK,UNDEVELOPED,NORTH,127.246,7043726261,0,0,District 3,District 1,2002-03-18T00:00:00.000Z,BLACKSR,1492047.596,564895.0866
88,BERR,BERRYHILL NATURE PRESERVE,10334 WALKERS FERRY RD,0,E,NO ADDRESS,RD,CHARLOTTE,NC,28214,NATURE PRESERVE,UNDEVELOPED,SOUTH,159.635,7043363367,0,0,District 3,District 1,2002-03-18T00:00:00.000Z,BLACKSR,1406298.001,539308.1399
89,BIDD,BIDDLEVILLE NEIGHBORHOOD PARK,500  ANDRILL TR,500,S,ANDRILL,DR,CHARLOTTE,NC,28216,NEIGHBORHOOD PARK,DEVELOPED,CENTRAL,3.22,7043368866,0,0,District 2,District 2,2007-07-09T00:00:00.000Z,BLACKSR,1447589.614,548667.2521
90,BIGR,BIG ROCK NATURE PRESERVE,6500 ELMSTONE DR,0,S,NO ADDRESS,DR,CHARLOTTE,NC,28277,NATURE PRESERVE,UNDEVELOPED,SOUTH,21.852,7043368866,0,0,District 2,District 6,2002-03-18T00:00:00.000Z,BLACKSR,1453468.38,482058.1875
91,BLTN,BALLANTYNE COMMUNITY PARK,COMMUNITY HOUSE RD,0,W,NO ADDRESS,ST,CHARLOTTE,NC,28277,COMMUNITY PARK,UNDEVELOPED,SOUTH,91.278,7043363367,0,0,District 2,District 6,2002-03-18T00:00:00.000Z,BLACKSR,1452395.031,475001.9164
92,BLYT,BLYTHE LANDING COMMUNITY PARK,15901  NC 73 HY,15901,E,NC 73,RD,HUNTERSVILLE,NC,28078,COMMUNITY PARK,DEVELOPED,NORTH,23.744,7048969808,0,0,District 3,District 1,2007-09-11T00:00:00.000Z,BLACKSR,1432921.264,619148.6669
93,HGRC,HICKORY GROVE RECREATION CENTER,6709 PENCE RD,6709,S,PENCE,AV,CHARLOTTE,NC,28215,RECREATION CENTER,DEVELOPED,SOUTH,0,7046433405,0,0,District 2,District 4,2008-02-26T00:00:00.000Z,BLACKSR,1487092.132,541515.7837
94,OLRC,IVORY BAKER RECREATION CENTER,1295  EUREKA ST,1295,W,EUREKA,RD,CHARLOTTE,NC,28206,RECREATION CENTER,DEVELOPED,CENTRAL,0,7045684044,0,0,District 2,District 2,2008-02-26T00:00:00.000Z,BLACKSR,1450547.252,551046.9664
95,BRNH,BRACKETT BLUFF NATURE PRESERVE,20520 SHEARER RD,0,W,NO ADDRESS,RD,DAVIDSON,NC,28036,NATURE PRESERVE,DEVELOPED,NORTH,61.074,7043651265,0,0,District 1,District 1,2003-07-11T00:00:00.000Z,BLACKSR,1467023.781,637060.1162
96,BRWD,BRIARWOOD COMMUNITY PARK,5349 WATERWOOD ST,5349,S,WATERWOOD,DR,CHARLOTTE,NC,28215,COMMUNITY PARK,DEVELOPED,NORTH,33.284,7043726261,0,0,District 4,District 3,2002-03-18T00:00:00.000Z,BLACKSR,1472797.781,552395.9455
97,BRYT,BRYANT NEIGHBORHOOD PARK,1701 W MOREHEAD ST,1701,N,MOREHEAD,ST,CHARLOTTE,NC,28208,NEIGHBORHOOD PARK,DEVELOPED,CENTRAL,10.757,7043363367,0,0,District 3,District 3,2002-03-18T00:00:00.000Z,BLACKSR,1441724.342,543159.2186
98,CANP,RICHARD BARRY MEMORIAL PARK,BEATTIES FORD RD,0,S,NO ADDRESS,RD,HUNTERSVILLE,NC,28078,COMMUNITY PARK,DEVELOPED,NORTH,41.495,7043368866,0,0,District 1,District 1,2002-04-03T00:00:00.000Z,BLACKSR,1426625.318,606503.7549
99,CAPP,CAPPS COMMUNITY PARK,YOUNGBLOOD RD,0,W,NO ADDRESS,DR,CHARLOTTE,NC,28278,COMMUNITY PARK,UNDEVELOPED,SOUTH,66.542,7043368866,0,0,District 3,District 1,2003-07-11T00:00:00.000Z,BLACKSR,1395719.146,483682.651
100,CARM,CARMEL ROAD NEIGHBORHOOD PARK,2365 CARMEL RD,2365,E,CARMEL,DR,CHARLOTTE,NC,28226,NEIGHBORHOOD PARK,DEVELOPED,SOUTH,9.701,7043363367,0,0,District 3,District 5,1998-07-28T00:00:00.000Z,BLACKSR,1459880.021,508712.683
101,SVCT,SOUTHVIEW CENTER,1720 VILMA ST,1720,S,VILMA,ST,CHARLOTTE,NC,28208,RECREATION CENTER,DEVELOPED,CENTRAL,0,7048969808,0,0,District 3,District 2,1999-04-29T00:00:00.000Z,BLACKSR,1427379.386,537089.1752
102,CATW,US NATIONAL WHITEWATER CENTER,820  HAWFIELD RD,820,N,HAWFIELD,RD,CHARLOTTE,NC,28214,REGIONAL PARK,DEVELOPED,NORTH,288.585,7046433405,0,0,District 2,District 1,2008-04-21T00:00:00.000Z,BLACKSR,1402817.458,560036.6848
103,TEDD,TEDDINGTON NEIGHBORHOOD PARK,5517 FREEDOM DR,0,S,NO ADDRESS,AV,CHARLOTTE,NC,28214,NEIGHBORHOOD PARK,UNDEVELOPED,NORTH,15.114, ,0,0,District 2,District 2,2003-07-11T00:00:00.000Z,BLACKSR,1423516.749,557493.8061
104,THMP,THOMPSON NEIGHBORHOOD PARK,1129 E 3RD ST,1129,E,3RD,RD,CHARLOTTE,NC,28204,NEIGHBORHOOD PARK,DEVELOPED,CENTRAL,3.331,7043362884,0,0,District 2,District 3,1998-09-02T00:00:00.000Z,BLACKSR,1452180.288,538692.2129
105,CDHP,R.C. BRADFORD REGIONAL PARK,DAVIDSON-CONCORD RD,0,S,NO ADDRESS,RD,HUNTERSVILLE,NC,28078,REGIONAL PARK,DEVELOPED,NORTH,211.721, ,0,0,District 3,District 1,2007-07-09T00:00:00.000Z,BLACKSR,1466978.939,622889.2401
106,THRD,THIRD WARD NEIGHBORHOOD PARK,1001 W 4TH ST,1001,N,4TH,DR,CHARLOTTE,NC,28202,NEIGHBORHOOD PARK,DEVELOPED,CENTRAL,0.56,7043363367,0,0,District 2,District 3,1998-07-28T00:00:00.000Z,BLACKSR,1446126.8,544887.0956
107,CEDR,CEDARWOOD NEIGHBORHOOD PARK,6624 REDDMAN RD,6624,S,REDDMAN,ST,CHARLOTTE,NC,28212,NEIGHBORHOOD PARK,DEVELOPED,SOUTH,8.601,7045684044,0,0,District 2,District 4,1998-07-28T00:00:00.000Z,BLACKSR,1477174.592,529105.6791
108,TMCW,T. M. WINGET REGIONAL PARK,12025 WINGET RD,12025,E,WINGET,RD,CHARLOTTE,NC,28278,REGIONAL PARK,DEVELOPED,SOUTH,106.5,7045291827,0,0,District 1,District 1,1998-07-28T00:00:00.000Z,BLACKSR,1401178.297,508786.4071
109,TOMH,TOM HUNTER NEIGHBORHOOD PARK,919 TOM HUNTER RD,919,S,TOM HUNTER,DR,CHARLOTTE,NC,28213,NEIGHBORHOOD PARK,DEVELOPED,NORTH,8.386,7043368866,0,0,District 4,District 3,1998-07-28T00:00:00.000Z,BLACKSR,1468324.171,560956.3476
110,CHAS,CHARLES AVENUE NEIGHBORHOOD PARK,800 CHARLES AVE,800,N,CHARLES,DR,CHARLOTTE,NC,28205,NEIGHBORHOOD PARK,DEVELOPED,CENTRAL,0.629,7043363367,0,0,District 1,District 3,1998-07-28T00:00:00.000Z,BLACKSR,1460277.961,548213.0956
111,TRGL,TRADITION GOLF COURSE,3800 PROSPERITY CHURCH RD,3800,E,PROSPERITY CHURCH,ST,CHARLOTTE,NC,28269,GOLF COURSE,DEVELOPED,NORTH,193.975,7045499400,0,0,District 4,District 1,1998-07-28T00:00:00.000Z,BLACKSR,1470767.796,586808.7791
112,TRYH,TRYON HILLS NEIGHBORHOOD PARK,220 W 30TH ST,220,E,30TH,RD,CHARLOTTE,NC,28206,NEIGHBORHOOD PARK,DEVELOPED,CENTRAL,1.91,7043363367,0,0,District 1,District 3,1998-07-28T00:00:00.000Z,BLACKSR,1457659.258,551262.2835
113,CHTY,CHANTILLY NEIGHBORHOOD PARK,222  WYANOKE AVE,222,S,WYANOKE,AV,CHARLOTTE,NC,28205,NEIGHBORHOOD PARK,DEVELOPED,CENTRAL,6.975,7043362884,0,0,District 1,District 4,1998-07-28T00:00:00.000Z,BLACKSR,1459684.67,535404.7833
114,TUCC,TUCKASEEGEE CENTER,4820 TUCKASEEGEE RD,4820,S,TUCKASEEGEE,RD,CHARLOTTE,NC,28208,RECREATION CENTER,DEVELOPED,NORTH,0,7043994492,0,0,District 3,District 2,1998-07-28T00:00:00.000Z,BLACKSR,1430620.42,550731.9972
115,TUCP,TUCKASEEGEE NEIGHBORHOOD PARK,4820 TUCKASEEGEE RD,4820,W,TUCKASEEGEE,RD,CHARLOTTE,NC,28208,NEIGHBORHOOD PARK,DEVELOPED,NORTH,19.735,7043368096,0,0,District 3,District 2,1998-07-28T00:00:00.000Z,BLACKSR,1430446.782,550788.1477
116,UNCC,KIRK FARM FIELDS COMMUNITY PARK,210 E MALLARD CREEK CHURCH RD,210,E,MALLARD CREEK CHURCH,RD,CHARLOTTE,NC,28262,COMMUNITY PARK,DEVELOPED,NORTH,35.518,7043368866,0,0,District 4,District 1,1998-07-28T00:00:00.000Z,BLACKSR,1483179.462,576146.5812
117,CLAN,CLANTON COMMUNITY PARK,1520 CLANTON RD,1520,S,CLANTON,AV,CHARLOTTE,NC,28217,COMMUNITY PARK,DEVELOPED,CENTRAL,54.575,7043531165,0,0,District 3,District 2,1998-07-28T00:00:00.000Z,BLACKSR,1434460.697,536098.5176
118,UNIV,UNIVERSITY MEADOWS NEIGHBORHOOD PARK,PAVILION DR,0,W,NO ADDRESS,RD,CHARLOTTE,NC,28262,NEIGHBORHOOD PARK,UNDEVELOPED,NORTH,4.743,7045684044,0,0,District 4,District 1,1998-07-28T00:00:00.000Z,BLACKSR,1489060.658,573648.1915
119,UNTY,UNITY NEIGHBORHOOD PARK,6401 KELSEY DR,6401,S,KELSEY,DR,CHARLOTTE,NC,28215,NEIGHBORHOOD PARK,DEVELOPED,NORTH,5.331,7043651265,0,0,District 5,District 3,1998-07-28T00:00:00.000Z,BLACKSR,1476831.169,552569.6499
120,CLEM,CLEMSON AVENUE NEIGHBORHOOD PARK,3028 CLEMSON AVE,3028,N,CLEMSON,ST,CHARLOTTE,NC,28205,NEIGHBORHOOD PARK,DEVELOPED,CENTRAL,0.909,7043726261,0,0,District 1,District 3,1998-07-28T00:00:00.000Z,BLACKSR,1461636.744,547720.8184
121,UPST,BEREWICK REGIONAL PARK,DIXIE RIVER RD,0,S,NO ADDRESS,RD,CHARLOTTE,NC,28208,REGIONAL PARK,DEVELOPED,SOUTH,203.278,7043363367,0,0,District 1,District 1,1998-10-06T00:00:00.000Z,BLACKSR,1408316.81,523915.2725
122,VETS,VETERANS NEIGHBORHOOD PARK,2136 CENTRAL AV,2136,W,CENTRAL,DR,CHARLOTTE,NC,28205,NEIGHBORHOOD PARK,DEVELOPED,CENTRAL,17.556,7043368866,0,0,District 3,District 4,1998-07-28T00:00:00.000Z,BLACKSR,1461194.792,539774.3774
123,CLKD,EASTFIELD REGIONAL PARK,13729 EASTFIELD RD,0,E,NO ADDRESS,DR,HUNTERSVILLE,NC,28078,REGIONAL PARK,UNDEVELOPED,NORTH,114.902,7043368866,0,0,District 3,District 1,1998-10-09T00:00:00.000Z,BLACKSR,1470610.544,602263.5637
124,VIEW,VIEWMONT NEIGHBORHOOD PARK,5400 VIEWMONT DR,5400,S,VIEWMONT,ST,CHARLOTTE,NC,28215,NEIGHBORHOOD PARK,DEVELOPED,NORTH,11.026,7043363367,0,0,District 3,District 3,1998-07-28T00:00:00.000Z,BLACKSR,1477494.418,554226.9274
125,CLWD,SHUFFLETOWN COMMUNITY PARK,9530 BELLHAVEN BV,0,N,NO ADDRESS,RD,CHARLOTTE,NC,28216,COMMUNITY PARK,DEVELOPED,NORTH,54.203,7048969808,0,0,District 2,District 1,1998-08-12T00:00:00.000Z,BLACKSR,1420040.83,575660.4523
126,WADD,WADDELL STREET NEIGHBORHOOD PARK,1505 WADDELL ST,1505,S,WADDELL,AV,CHARLOTTE,NC,28216,NEIGHBORHOOD PARK,DEVELOPED,CENTRAL,4.882,7046433405,0,0,District 2,District 2,1998-07-28T00:00:00.000Z,BLACKSR,1448839.995,552887.3995
127,WCLT,WEST CHARLOTTE CENTER,2401 KENDALL DR,2401,E,KENDALL,RD,CHARLOTTE,NC,28216,RECREATION CENTER,DEVELOPED,CENTRAL,0,7043931560,0,0,District 2,District 2,1998-07-28T00:00:00.000Z,BLACKSR,1445810.226,557885.4875
128,CMCP,CAMPBELL CREEK COMMUNITY PARK,6601 BARCLIFFE DR,6601,S,BARCLIFFE,DR,CHARLOTTE,NC,28212,COMMUNITY PARK,DEVELOPED,SOUTH,20.716,7045684044,0,0,District 3,District 4,1998-07-28T00:00:00.000Z,BLACKSR,1481781.309,537915.1491
129,WCPK,WEST CHARLOTTE NEIGHBORHOOD PARK,2401 KENDALL DR,2401,N,KENDALL,DR,CHARLOTTE,NC,28216,NEIGHBORHOOD PARK,DEVELOPED,CENTRAL,3.216,7043931560,0,0,District 2,District 2,1998-07-28T00:00:00.000Z,BLACKSR,1445858.204,557476.3513
130,WEST,WESTERLY HILLS NEIGHBORHOOD PARK,3900 AMERIGO ST,3900,S,AMERIGO,ST,CHARLOTTE,NC,28208,NEIGHBORHOOD PARK,DEVELOPED,CENTRAL,12.514,7043531165,0,0,District 2,District 2,1998-07-28T00:00:00.000Z,BLACKSR,1431155.759,544343.3988
131,CMGP,CAMP GREENE COMMUNITY PARK,1221 ALLEGHANY ST,1221,E,ALLEGHANY,ST,CHARLOTTE,NC,28208,COMMUNITY PARK,DEVELOPED,CENTRAL,27.353,7043531165,0,0,District 1,District 3,1998-07-28T00:00:00.000Z,BLACKSR,1435535.911,546692.186
132,WILM,WILMORE NEIGHBORHOOD PARK,900 SPRUCE ST,900,S,SPRUCE,ST,CHARLOTTE,NC,28203,NEIGHBORHOOD PARK,DEVELOPED,CENTRAL,1.271,7043531165,0,0,District 4,District 2,1998-07-28T00:00:00.000Z,BLACKSR,1442129.571,540638.2839
133,WING,WINGATE NEIGHBORHOOD PARK,2731 MAYFAIR AV,2731,N,MAYFAIR,AV,CHARLOTTE,NC,28208,NEIGHBORHOOD PARK,DEVELOPED,CENTRAL,3.118,7043531165,0,0,District 3,District 2,1998-11-24T00:00:00.000Z,BLACKSR,1430094.125,538449.6993
134,COLB,COLONEL FRANCIS J. BEATTY REGIONAL PARK,4330 WEDDINGTON RD,4330,E,WEDDINGTON,RD,CHARLOTTE,NC,28105,REGIONAL PARK,DEVELOPED,SOUTH,264.593,7046433405,0,0,District 7,District 6,1998-07-28T00:00:00.000Z,BLACKSR,1482797.696,483905.4114
135,WRDP,WILLIAM R. DAVIE REGIONAL PARK,4635  PINEVILLE-MATTHEWS RD,4635,E,PINEVILLE-MATTHEWS,RD,CHARLOTTE,NC,28226,REGIONAL PARK,DEVELOPED,SOUTH,106.713,7046433405,0,0,District 7,District 6,2008-05-14T00:00:00.000Z,BLACKSR,1460330.636,492983.2242
136,YORK,YORKMONT NEIGHBORHOOD PARK,6417 VICKERS RD,6417,S,VICKERS,RD,CHARLOTTE,NC,28217,NEIGHBORHOOD PARK,DEVELOPED,SOUTH,2.665,7045831176,0,0,District 3,District 2,1998-07-28T00:00:00.000Z,BLACKSR,1431594.515,520191.6372
137,FLNP,FLAT BRANCH NATURE PRESERVE,TOM SHORT RD,0,S,NO ADDRESS,RD,CHARLOTTE,NC,28277,NATURE PRESERVE,DEVELOPED,SOUTH,42.218, ,0,0,District 7,District 6,2007-02-08T00:00:00.000Z,BLACKSR,1462999.583,476119.3211
138,COLL,COLLINS NEIGHBORHOOD PARK,4500 APPLEGATE RD,4500,W,APPLEGATE,DR,CHARLOTTE,NC,28209,NEIGHBORHOOD PARK,DEVELOPED,CENTRAL,3.674,7043362884,0,0,District 1,District 5,1998-07-28T00:00:00.000Z,BLACKSR,1440891.902,526281.686
139,AFRM,ALLISON FARM COMMUNITY PARK,21705 SHEARER RD,0,E,TYVOLA,ST,HUNTERSVILLE,NC,28078,COMMUNITY PARK,UNDEVELOPED,NORTH,33.642,7045684044,0,0,District 1,District 1,2008-04-17T00:00:00.000Z,BLACKSR,1465637.242,642387.9453
140,WHIT,WHITE COMMUNITY PARK,DAVIDSON-CONCORD RD,0,S,KINGS,RD,DAVIDSON,NC,28078,COMMUNITY PARK,UNDEVELOPED,NORTH,30.21,7043651265,0,0,District 3,District 1,2008-04-21T00:00:00.000Z,BLACKSR,1469409.557,621844.8342
141,WINT,WINTERFIELD NEIGHBORHOOD PARK,3010 WINTERFIELD PL,0,W,WILHELMINA,DR,CHARLOTTE,NC,28205,NEIGHBORHOOD PARK,DEVELOPED,SOUTH,13.77,7043726261,0,0,District 3,District 4,1899-12-30T00:00:00.000Z,BLACKSR,1472619.601,535594.4866
142,COLN,COLONIAL NEIGHBORHOOD PARK,219 PROVIDENCE RD,219,S,JOHNSTON OEHLER,DR,CHARLOTTE,NC,28207,NEIGHBORHOOD PARK,DEVELOPED,CENTRAL,2.492,7043363367,0,0,District 3,District 5,1998-07-28T00:00:00.000Z,BLACKSR,1455178.719,535075.1338
143,WBNP,WEST BRANCH NATURE PRESERVE, ,0,N,JOHNSTON OEHLER,ST,DAVIDSON,NC, ,NATURE PRESERVE,UNDEVELOPED,NORTH,90.721,7043368866,0,0,District 2,District 1,1899-12-30T00:00:00.000Z,BLACKSR,1472191.474,624484.3328
144,HAPK,HUNTERSVILLE ATHLETIC COMMUNITY PARK, ,0,S,RAVENCROFT,RD,HUNTERSVILLE,NC, ,COMMUNITY PARK,DEVELOPED,NORTH,74.257,7043368866,0,0,District 2,District 1,1899-12-30T00:00:00.000Z,BLACKSR,1450116.552,602411.6415
145,WEPK,ROMARE BEARDEN NEIGHBORHOOD PARK,416 W 3RD ST,0,W,BAXTER,AV,CHARLOTTE,NC,28202,NEIGHBORHOOD PARK,UNDEVELOPED,CENTRAL,4.14,7043363367,0,0,District 2,District 3,1998-08-12T00:00:00.000Z,BLACKSR,1448473.788,542693.2278
146,COOK,COOK REGIONAL PARK,ERVIN COOK RD,0,E,MONROE,RD,CHARLOTTE,NC,28078,REGIONAL PARK,UNDEVELOPED,NORTH,147.148,7048969808,0,0,District 3,District 1,1899-12-30T00:00:00.000Z,BLACKSR,1435428.968,613626.2844
147,MARS,MARSHALL PARK,800 EAST 3RD ST,0,S,SHAMROCK,RD,CHARLOTTE,NC,28202,SPECIAL FACILITY,DEVELOPED,CENTRAL,5.5,7046433405,0,0,District 2,District 3,2009-04-24T00:00:00.000Z,BLACKSR,1450820.488,540129.3861
148,PVLY,PINE VALLEY NEIGHBORHOOD PARK, ,0,N,SHAMROCK,DR,CHARLOTTE,NC, ,NEIGHBORHOOD PARK,UNDEVELOPED,SOUTH,4.415,7045684044,0,0,District 2,District 2,1899-12-30T00:00:00.000Z,BLACKSR,1439074.088,500887.4775
149,LIND,LINDA LAKE NEIGHBORHOOD PARK, ,0,S,BEAL,ST,CHARLOTTE, , ,NEIGHBORHOOD PARK,UNDEVELOPED,NORTH,9.977,7043651265,0,0,District 1,District 3,1899-12-30T00:00:00.000Z,BLACKSR,1484587.979,548752.5383
150,COPP,COPPERHEAD ISLAND,15200 SOLDIER RD,15200,E,STERLING,RD,CHARLOTTE,NC,28278,NATURE PRESERVE,DEVELOPED,SOUTH,11.212,7043726261,0,0,District 4,District 1,1998-07-28T00:00:00.000Z,BLACKSR,1394440.26,501026.6419
151,ELZA,ELIZABETH NEIGHBORHOOD PARK,1100 E TRADE ST,1100,S,HERRIN,DR,CHARLOTTE,NC,28204,NEIGHBORHOOD PARK,DEVELOPED,CENTRAL,1.50033,7043363367,0,0,District 1,District 4,1899-12-30T00:00:00.000Z,BLACKSR,1452640.746,539523.4959
152,MIDT,MIDTOWN NEIGHBORHOOD PARK,S KINGS DR,0,N,STATESVILLE,DR,CHARLOTTE,NC,28204,NEIGHBORHOOD PARK,DEVELOPED,CENTRAL,1.87,7043368866,0,0,District 1,District 4,1899-12-30T00:00:00.000Z,BLACKSR,1451659.147,536784.9491
153,CORP,CORDELIA COMMUNITY PARK,2100 N DAVIDSON ST,2100,S,NEWELL BAPTIST CHURCH,ST,CHARLOTTE,NC,28205,COMMUNITY PARK,DEVELOPED,CENTRAL,20.894,7043368866,0,0,District 1,District 3,1998-08-12T00:00:00.000Z,BLACKSR,1457990.582,546282.8773
154,KING,KINGSTON NEIGHBORHOOD PARK,S TRYON ST,0,E,9TH,RD,CHARLOTTE,NC,28203,NEIGHBORHOOD PARK,UNDEVELOPED,CENTRAL,0.84345,7043363367,0,0,District 3,District 2,1899-12-30T00:00:00.000Z,BLACKSR,1444332.626,538160.8159
155,COUL,COULWOOD COMMUNITY PARK,100 COULWOOD PARK DR,100,S,OLD STATESVILLE,AV,CHARLOTTE,NC,28214,COMMUNITY PARK,DEVELOPED,NORTH,24.573,7048969808,0,0,District 2,District 1,1998-07-28T00:00:00.000Z,BLACKSR,1421296.362,571867.1364
156,HIDD,HIDDEN VALLEY NEIGHBORHOOD PARK,NORTHCHASE DR,0,N,CRAIG,RD,CHARLOTTE,NC,28213,NEIGHBORHOOD PARK,UNDEVELOPED,CENTRAL,18.36901,7046433405,0,0,District 4,District 3,1899-12-30T00:00:00.000Z,BLACKSR,1469748.13,555419.6108
157,BERE,BEREWICK CENTER,5910 DIXIE RIVER RD,5910,E,NO ADDRESS,RD,CHARLOTTE,NC,28208,RECREATION CENTER,DEVELOPED,SOUTH,0,7045684044,0,0,District 1,District 1,1899-12-30T00:00:00.000Z,BLACKSR,1408501.976,523887.9669
158,COWW,COWANS FORD WILDLIFE REFUGE,NECK RD,0,E,TYVOLA,RD,HUNTERSVILLE,NC,28078,NATURE PRESERVE,DEVELOPED,NORTH,660.1,7043651265,0,0,District 3,District 1,1998-08-04T00:00:00.000Z,BLACKSR,1411765.583,596232.0576
159,BAIL,BAILEY RD NEIGHBORHOOD PARK,BAILEY RD,0,S,KINGS,DR,CORNELIUS,NC,28031,NEIGHBORHOOD PARK,UNDEVELOPED,NORTH,10.32483,7043726261,0,0,District 3,District 1,1899-12-30T00:00:00.000Z,BLACKSR,1453941.961,629962.0336
160,NMRC,NORTH MECKLENBURG RECREATION CENTER,OLD STATESVILLE RD,0,S,WILHELMINA,ST,CORNELIUS,NC,28031,RECREATION CENTER,UNDEVELOPED,NORTH,41.3987,7043363367,0,0,District 3,District 1,1998-07-28T00:00:00.000Z,BLACKSR,1451180.126,626764.8159
161,CRAP,CAROLINA RAPTOR CENTER,6000 SAMPLE RD,6000,W,JOHNSTON OEHLER,RD,HUNTERSVILLE,NC,28216,SPECIAL FACILITY,DEVELOPED,NORTH,0,7043368866,0,0,District 2,District 1,1899-12-30T00:00:00.000Z,BLACKSR,1428409.747,588306.1456
162,MTLD,MOUNTAIN ISLAND NEIGHBORHOOD PARK,11840 MOUNTAIN ISLAND BROOK LN,0,E,JOHNSTON OEHLER,DR,CHARLOTTE,NC,28214,NEIGHBORHOOD PARK,UNDEVELOPED,NORTH,4.64132,7043368866,0,0,District 2,District 1,1899-12-30T00:00:00.000Z,BLACKSR,1412864.096,587349.7959
163,MRND,MIRANDA NATURE PRESERVE,MIRANDA RD,0,S,RAVENCROFT,DR,CHARLOTTE,NC,28216,NATURE PRESERVE,UNDEVELOPED,NORTH,62.41462,7043363367,0,0,District 2,District 2,1998-08-12T00:00:00.000Z,BLACKSR,1438355.381,581697.0666
164,MCTO,MCILWAINE REGIONAL PARK,MCILWAINE RD,0,W,BAXTER,ST,HUNTERSVILLE,NC,28078,REGIONAL PARK,UNDEVELOPED,NORTH,137.70743,7048969808,0,0,District 3,District 1,1899-12-30T00:00:00.000Z,BLACKSR,1434385.496,603436.3759
165,CROS,CROSSRIDGE ROAD NEIGHBORHOOD PARK,CROSSRIDGE RD,0,S,MONROE,RD,CHARLOTTE,NC,28214,NEIGHBORHOOD PARK,UNDEVELOPED,NORTH,7.97,7046433405,0,0,District 2,District 1,2003-07-11T00:00:00.000Z,BLACKSR,1419429.849,556645.6972
166,ALLE,ALLEGHANY ST NEIGHBORHOOD PARK,ALLEGHANY ST,0,N,SHAMROCK,AV,CHARLOTTE,NC,28208,NEIGHBORHOOD PARK,UNDEVELOPED,CENTRAL,5.42143,7045684044,0,0,District 2,District 2,1899-12-30T00:00:00.000Z,BLACKSR,1432291.876,547055.8159
167,FIRST,FIRST WARD NEIGHBORHOOD PARK,N CALDWELL ST,0,S,SHAMROCK,RD,CHARLOTTE,NC,28202,NEIGHBORHOOD PARK,UNDEVELOPED,CENTRAL,2.04051,7043651265,0,0,District 1,District 4,1998-07-28T00:00:00.000Z,BLACKSR,1452240.642,542657.08
168,CTMY,C.T. MYERS GOLF COURSE,7817 HARRISBURG RD,7817,W,BEAL,RD,CHARLOTTE,NC,28215,GOLF COURSE,DEVELOPED,SOUTH,304.449,7043726261,0,0,District 4,District 1,1899-12-30T00:00:00.000Z,BLACKSR,1496522.815,539883.1997
169,MATM,MATTHEWS-MINT HILL REGIONAL PARK,MATTHEWS-MINT HILL RD,0,E,STERLING,RD,MATTHEWS,NC,28105,REGIONAL PARK,UNDEVELOPED,SOUTH,93.15935,7043363367,0,0,District 1,District 6,1899-12-30T00:00:00.000Z,BLACKSR,1496506.508,507596.2915
170,CADI,CADILLAC GOLF DRIVING RANGE,10401 CADILLAC ST,0,S,HERRIN,DR,PINEVILLE,NC,28134,GOLF COURSE,DEVELOPED,SOUTH,26.95105,7043368866,0,0,District 3,District 6,1998-08-12T00:00:00.000Z,BLACKSR,1437564.629,495633.6694
171,DAVS,CLARK'S CREEK NATURE PRESERVE,5542 HUCKS RD,0,N,STATESVILLE,ST,CHARLOTTE,NC,28269,NATURE PRESERVE,UNDEVELOPED,NORTH,98.529,7043368866,0,0,District 3,District 1,1899-12-30T00:00:00.000Z,BLACKSR,1460538.424,587342.425
172,MLKR,MARTIN LUTHER KING JR. RECREATION CENTER,500 BILMARK AV,0,S,NEWELL BAPTIST CHURCH,RD,CHARLOTTE,NC, ,RECREATION CENTER,DEVELOPED,CENTRAL,0,7043363367,0,0,District 3,District 3,1899-12-30T00:00:00.000Z,BLACKSR,1469136.261,555546.3517
173,MORC,MERRY OAKS RECREATION CENTER,3508 DRAPER AV,0,E,9TH,DR,CHARLOTTE,NC,28205,RECREATION CENTER,DEVELOPED,CENTRAL,0,7048969808,0,0,District 2,District 4,1899-12-30T00:00:00.000Z,BLACKSR,1467637.433,539850.9366
174,DBLP,DOUBLE OAKS NEIGHBORHOOD PARK,2605  DOUBLE OAKS RD,2605,S,TYVOLA,DR,CHARLOTTE,NC,28206,NEIGHBORHOOD PARK,DEVELOPED,CENTRAL,15.116,7046433405,0,0,District 2,District 2,2008-05-14T00:00:00.000Z,BLACKSR,1451262.341,553450.41
175,TMRC,THOMASBORO SCHOOL RECREATION CENTER,538 BRADFORD DR,0,N,KINGS,ST,CHARLOTTE,NC, ,RECREATION CENTER,DEVELOPED,CENTRAL,0,7045684044,0,0,District 2,District 2,1899-12-30T00:00:00.000Z,BLACKSR,1433242.129,553259.8003
176,WPRC,WALLACE PRUITT RECREATION CENTER,440 TUCKASEEGEE RD,0,S,WILHELMINA,RD,CHARLOTTE,NC,28208,RECREATION CENTER,DEVELOPED,CENTRAL,0,7043651265,0,0,District 3,District 2,1899-12-30T00:00:00.000Z,BLACKSR,1443186.624,547067.1231
177,WGRC,WINGET RECREATION CENTER,12235 WINGET RD,0,E,JOHNSTON OEHLER,AV,CHARLOTTE,NC,28278,RECREATION CENTER,DEVELOPED,SOUTH,0,7043726261,0,0,District 2,District 2,1899-12-30T00:00:00.000Z,BLACKSR,1401786.159,508756.627
178,DBOP,DOUBLE OAKS POOL,1200 NEWLAND RD,1200,S,JOHNSTON OEHLER,RD,CHARLOTTE,NC,28206,POOL,DEVELOPED,CENTRAL,2.19,7043363367,0,0,District 2,District 3,1998-07-28T00:00:00.000Z,BLACKSR,1451653.28,553723.552
179,DBWF,DAVID B. WAYMER FLYING REGIONAL PARK,15401 HOLBROOKS RD,15401,N,RAVENCROFT,RD,HUNTERSVILLE,NC,28078,REGIONAL PARK,DEVELOPED,NORTH,102.68,7043368866,0,0,District 1,District 1,1998-07-28T00:00:00.000Z,BLACKSR,1458731.003,606000.1598
180,DBWP,DAVID B. WAYMER COMMUNITY PARK,302 HOLBROOKS RD,302,E,BAXTER,RD,HUNTERSVILLE,NC,28078,COMMUNITY PARK,DEVELOPED,NORTH,20.365,7043368866,0,0,District 4,District 1,2003-07-11T00:00:00.000Z,BLACKSR,1453028.256,605262.428
181,DEVS,DEVONSHIRE NEIGHBORHOOD PARK,6330 BARRINGTON DR,6330,E,MONROE,DR,CHARLOTTE,NC,28215,NEIGHBORHOOD PARK,DEVELOPED,NORTH,1.484,7043363367,0,0,District 1,District 3,1998-07-28T00:00:00.000Z,BLACKSR,1478858.015,549509.8141
182,DOWD,DOWD HOUSE HISTORIC SITE,2216 MONUMENT ST,2216,S,SHAMROCK,ST,CHARLOTTE,NC,28208,SPECIAL FACILITY,DEVELOPED,CENTRAL,1.252,7048969808,0,0,District 3,District 3,1998-07-28T00:00:00.000Z,BLACKSR,1437964.375,542284.7898
183,DRTA,DERITA COMMUNITY PARK,3509 FREW RD,3509,S,SHAMROCK,RD,CHARLOTTE,NC,28206,COMMUNITY PARK,DEVELOPED,NORTH,23.387,7046433405,0,0,District 1,District 3,1998-07-28T00:00:00.000Z,BLACKSR,1460886.467,554025.0391
184,DRUC,DRUID HILLS CENTER,2801 LUCENA ST,2801,W,BEAL,ST,CHARLOTTE,NC,28206,RECREATION CENTER,DEVELOPED,CENTRAL,0,7046433405,0,0,District 4,District 3,2004-03-18T00:00:00.000Z,BLACKSR,1455307.477,553405.298
185,DRUD,DRUID HILLS NEIGHBORHOOD PARK,2801 POINSETT ST,2801,E,STERLING,ST,CHARLOTTE,NC,28206,NEIGHBORHOOD PARK,DEVELOPED,CENTRAL,6.922,7043362884,0,0,District 4,District 3,1998-10-07T00:00:00.000Z,BLACKSR,1453206.057,554045.7888
186,EALD,EAGLES LANDING NEIGHBORHOOD PARK,EAGLES LANDING DR,0,S,HERRIN,RD,CHARLOTTE,NC,28214,NEIGHBORHOOD PARK,UNDEVELOPED,NORTH,7.487,7045684044,0,0,District 2,District 2,2003-07-11T00:00:00.000Z,BLACKSR,1425159.716,559031.7724
187,EASP,EASTWAY COMMUNITY PARK,423 EASTWAY DR,423,W,STATESVILLE,DR,CHARLOTTE,NC,28215,COMMUNITY PARK,DEVELOPED,NORTH,90.547,7043651265,0,0,District 1,District 3,2003-07-11T00:00:00.000Z,BLACKSR,1468626.329,551824.029
188,EAST,EASTOVER NEIGHBORHOOD PARK,2730 RANDOLPH RD,2730,S,NEWELL BAPTIST CHURCH,ST,CHARLOTTE,NC,28207,NEIGHBORHOOD PARK,DEVELOPED,CENTRAL,19.419,7043726261,0,0,District 1,District 5,1998-07-28T00:00:00.000Z,BLACKSR,1458395.69,532584.0828
189,EBMP,EB MOORE NEIGHBORHOOD PARK,901 MARSH RD,901,N,9TH,RD,CHARLOTTE,NC,28209,NEIGHBORHOOD PARK,DEVELOPED,CENTRAL,4.017,7043363367,0,0,District 1,District 4,1998-07-28T00:00:00.000Z,BLACKSR,1444753.845,528449.9938
190,EDGE,EDGEHILL NEIGHBORHOOD PARK,812 S EDGEHILL RD,812,S,OLD STATESVILLE,DR,CHARLOTTE,NC,28207,NEIGHBORHOOD PARK,DEVELOPED,CENTRAL,5.375,7043368866,0,0,District 1,District 5,1998-07-28T00:00:00.000Z,BLACKSR,1452643.795,533762.3756
191,ELNC,ELON CENTER,11401 ARDREY KELL RD,11401,W,CRAIG,DR,CHARLOTTE,NC,28277,RECREATION CENTER,DEVELOPED,SOUTH,10,7043368866,0,0,District 7,District 6,2008-01-16T00:00:00.000Z,BLACKSR,1447640.936,468327.2821
192,ENDC,BETTE RAE THOMAS CENTER,2921 TUCKASEEGEE RD,1220,E,NO ADDRESS,ST,CHARLOTTE,NC,28208,RECREATION CENTER,DEVELOPED,CENTRAL,6.092,7043363367,0,0,District 3,District 3,1998-07-28T00:00:00.000Z,BLACKSR,1439162.52,548110.6184
193,ENDP,ENDERLY NEIGHBORHOOD PARK,1501 ENDERLY RD,1501,S,ENDERLY,RD,CHARLOTTE,NC,28208,NEIGHBORHOOD PARK,DEVELOPED,CENTRAL,8.476,7048969808,0,0,District 3,District 3,1998-07-28T00:00:00.000Z,BLACKSR,1437471.946,547784.5067
194,EPDO,EAST DISTRICT PARK OFFICE,5715 MONROE RD,5715,N,MONROE,AV,CHARLOTTE,NC,28212,SPECIAL FACILITY,DEVELOPED,SOUTH,0,7046433405,0,0,District 5,District 4,2002-06-12T00:00:00.000Z,BLACKSR,1472227.869,527689.4073
195,ESTW,EVERGREEN NATURE PRESERVE,NORLAND RD,0,S,NO ADDRESS,RD,CHARLOTTE,NC,28205,NATURE PRESERVE,DEVELOPED,SOUTH,77.414,7045684044,0,0,District 5,District 4,1998-12-14T00:00:00.000Z,BLACKSR,1472239.162,534625.8124
196,EZEL,EZELL FARM COMMUNITY PARK,4130 WELL RD,0,E,NO ADDRESS,RD,MINT HILL,NC,28227,COMMUNITY PARK,UNDEVELOPED,SOUTH,87.834,7043651265,0,0,District 1,District 6,2003-07-11T00:00:00.000Z,BLACKSR,1499793.715,516043.9538
197,FIRE,FIREMANS HALL,2601 E 7TH ST,2601,S,7TH,DR,CHARLOTTE,NC,28204,SPECIAL FACILITY,DEVELOPED,CENTRAL,0,7043726261,0,0,District 3,District 4,1998-07-28T00:00:00.000Z,BLACKSR,1459467.419,534837.1137
198,FIVE,FIVE POINTS NEIGHBORHOOD PARK,200 FRENCH ST,200,N,FRENCH,ST,CHARLOTTE,NC,28216,NEIGHBORHOOD PARK,DEVELOPED,CENTRAL,9.246,7043363367,0,0,District 3,District 2,1998-07-28T00:00:00.000Z,BLACKSR,1444767.37,550517.4028
199,FLTB,FLAT BRANCH COMMUNITY PARK,11830 TOM SHORT RD,0,S,NO ADDRESS,RD,CHARLOTTE,NC,28277,COMMUNITY PARK,DEVELOPED,SOUTH,54.225,7043368866,0,0,District 3,District 6,1998-10-06T00:00:00.000Z,BLACKSR,1463127.953,476577.2137
200,FOUR,FOURTH WARD NEIGHBORHOOD PARK,301 N POPLAR ST,301,E,POPLAR,DR,CHARLOTTE,NC,28202,NEIGHBORHOOD PARK,DEVELOPED,CENTRAL,2.917,7043368866,0,0,District 2,District 3,2007-12-12T00:00:00.000Z,BLACKSR,1449884.995,544350.1492
201,FRAZ,FRAZIER NEIGHBORHOOD PARK,1200 W 4TH ST EXT,1201,S,4TH,DR,CHARLOTTE,NC,28202,NEIGHBORHOOD PARK,DEVELOPED,CENTRAL,16.479,7043363367,0,0,District 2,District 3,1998-07-28T00:00:00.000Z,BLACKSR,1445517.253,544997.5517
202,FRED,FRED ALEXANDER NEIGHBORHOOD PARK,739 E 12TH ST,739,N,12TH,ST,CHARLOTTE,NC,28216,NEIGHBORHOOD PARK,DEVELOPED,NORTH,6.044,7048969808,0,0,District 2,District 2,1998-07-28T00:00:00.000Z,BLACKSR,1445158.69,562394.2855
203,FREE,FREEDOM REGIONAL PARK,2435 CUMBERLAND AV,2435,E,CUMBERLAND,RD,CHARLOTTE,NC,28203,REGIONAL PARK,DEVELOPED,CENTRAL,104.89,7046433405,0,0,District 3,District 5,2007-10-24T00:00:00.000Z,BLACKSR,1448885.715,529821.9295
204,FSPK,FIRESTONE COMMUNITY PARK,3501 FIRESTONE DR,3501,E,FIRESTONE,AV,CHARLOTTE,NC,28216,COMMUNITY PARK,DEVELOPED,NORTH,54.612,7043368096,0,0,District 2,District 2,1998-07-28T00:00:00.000Z,BLACKSR,1441270.357,564949.7946
205,FSTW,FIRST WARD CENTER,610 E 7TH ST,610,S,7TH,RD,CHARLOTTE,NC,28202,RECREATION CENTER,DEVELOPED,CENTRAL,0,7043363841,0,0,District 2,District 3,1998-07-28T00:00:00.000Z,BLACKSR,1452040.366,541861.3594
206,GATE,ISWA NATURE PRESERVE,9701 WILKINSON BV,9701,S,WILKINSON,BV,CHARLOTTE,NC,28214,NATURE PRESERVE,DEVELOPED,SOUTH,99.574,7045831176,0,0,District 1,District 1,1998-07-28T00:00:00.000Z,BLACKSR,1401439.182,549983.6157
207,GCNP,GAR CREEK NATURE PRESERVE,MCCOY RD,0,W,NO ADDRESS,RD,HUNTERSVILLE,NC,28078,NATURE PRESERVE,DEVELOPED,NORTH,353.157,7045684044,0,0,District 4,District 1,2002-05-13T00:00:00.000Z,BLACKSR,1437984.069,592017.1112
208,GRAY,GRAYSON NEIGHBORHOOD PARK,750 BEAL ST,750,E,BEAL,DR,CHARLOTTE,NC,28211,NEIGHBORHOOD PARK,DEVELOPED,SOUTH,12.278,7043651265,0,0,District 1,District 4,1998-07-28T00:00:00.000Z,BLACKSR,1463607.319,529167.6065
209,GRDY,GRADY COLE CENTER,310 N KINGS DR,310,S,KINGS,ST,CHARLOTTE,NC,28204,SPECIAL FACILITY,DEVELOPED,CENTRAL,0,7043726261,0,0,District 1,District 4,1998-07-28T00:00:00.000Z,BLACKSR,1453591.578,539885.9243
210,GRHT,GRIER HEIGHTS NEIGHBORHOOD PARK,3110  LEROY ST,3110,W,LEROY,RD,CHARLOTTE,NC,28205,NEIGHBORHOOD PARK,DEVELOPED,CENTRAL,5.468,7043363367,0,0,District 1,District 4,2007-07-16T00:00:00.000Z,BLACKSR,1459111.409,530888.416
211,GRNC,GREENVILLE CENTER,1330 SPRING ST,1330,S,SPRING,DR,CHARLOTTE,NC,28206,RECREATION CENTER,DEVELOPED,CENTRAL,0,7043368866,0,0,District 2,District 2,1998-07-28T00:00:00.000Z,BLACKSR,1450033.31,549320.7631
212,GRNP,GREENVILLE NEIGHBORHOOD PARK,1401 POLK ST,1401,N,POLK,DR,CHARLOTTE,NC,28206,NEIGHBORHOOD PARK,DEVELOPED,CENTRAL,16.506,7043368866,0,0,District 2,District 2,1998-07-28T00:00:00.000Z,BLACKSR,1449998.403,548621.9436
213,H521,ELON HOMES REGIONAL PARK,11435 ARDREY KELL RD,11435,S,ARDREY KELL,ST,CHARLOTTE,NC,28277,REGIONAL PARK,DEVELOPED,SOUTH,118.094,7043363367,0,0,District 7,District 6,1998-10-06T00:00:00.000Z,BLACKSR,1447609.921,468306.2931
214,HACP,HARRISBURG ROAD REGIONAL PARK,8045 HARRISBURG RD,0,W,NO ADDRESS,RD,CHARLOTTE,NC,28215,REGIONAL PARK,DEVELOPED,SOUTH,106.622,7048969808,0,0,District 5,District 1,2002-04-03T00:00:00.000Z,BLACKSR,1496953.711,540752.304
215,HARP,HARRISBURG ROAD NEIGHBORHOOD PARK,7701 HARRISBURG RD,7701,E,HARRISBURG,AV,CHARLOTTE,NC,28215,NEIGHBORHOOD PARK,DEVELOPED,SOUTH,6.107,7046433405,0,0,District 5,District 1,1998-07-28T00:00:00.000Z,BLACKSR,1496503.889,539833.9065
216,HAWC,HAWTHORNE CENTER,345 HAWTHORNE LN,345,S,HAWTHORNE,RD,CHARLOTTE,NC,28204,RECREATION CENTER,DEVELOPED,CENTRAL,0,7043362008,0,0,District 1,District 4,1998-07-28T00:00:00.000Z,BLACKSR,1455591.613,538276.6567
217,HAYP,HAYMARKET NATURE PRESERVE,11634 BROOKSHIRE BV,0,N,NO ADDRESS,RD,CHARLOTTE,NC,28214,NATURE PRESERVE,UNDEVELOPED,NORTH,100.376,7045684044,0,0,District 1,District 1,2003-07-11T00:00:00.000Z,BLACKSR,1415200.687,584912.5716
218,HORN,HORNETS NEST REGIONAL PARK,6331 BEATTIES FORD RD,6331,S,BEATTIES FORD,DR,CHARLOTTE,NC,28216,REGIONAL PARK,DEVELOPED,NORTH,140.358,7043651265,0,0,District 3,District 3,1998-07-28T00:00:00.000Z,BLACKSR,1443679.179,576640.0625
219,HORT,HORTICULTURAL MAINTENANCE FACILITY,11826 MALLARD CREEK RD,11826,E,MALLARD CREEK,ST,CHARLOTTE,NC,28269,SPECIAL FACILITY,DEVELOPED,NORTH,0,7043726261,0,0,District 3,District 1,1998-08-12T00:00:00.000Z,BLACKSR,1476402.923,589318.3838
220,HOSK,HOSKINS NEIGHBORHOOD PARK,3801 GOSSETT AV,3801,S,GOSSETT,RD,CHARLOTTE,NC,28208,NEIGHBORHOOD PARK,DEVELOPED,NORTH,15.763,7043363367,0,0,District 3,District 2,1998-07-28T00:00:00.000Z,BLACKSR,1437463.883,554782.8835
221,HOWA,HOWIE ACRES NEIGHBORHOOD PARK,1001 TREMBETH DR,1001,N,TREMBETH,DR,CHARLOTTE,NC,28205,NEIGHBORHOOD PARK,DEVELOPED,NORTH,7.759,7043368866,0,0,District 2,District 3,1998-07-28T00:00:00.000Z,BLACKSR,1467294.476,550544.5533
222,HUNT,HUNTINGTOWNE FARMS COMMUNITY PARK,2400 RAMBLEWOOD LN,2400,S,RAMBLEWOOD,DR,CHARLOTTE,NC,28210,COMMUNITY PARK,DEVELOPED,SOUTH,22.741,7043368866,0,0,District 2,District 2,1998-07-28T00:00:00.000Z,BLACKSR,1443154.921,506783.4106
223,IDLE,IDLEWILD ROAD REGIONAL PARK,10512 IDLEWILD RD,10512,E,IDLEWILD,ST,MINT HILL,NC,28105,REGIONAL PARK,DEVELOPED,SOUTH,125.257,7043363367,0,0,District 2,District 6,1998-07-28T00:00:00.000Z,BLACKSR,1491924.957,519129.3077
224,INDP,INDEPENDENCE NEIGHBORHOOD PARK,300 HAWTHORNE LN,300,S,HAWTHORNE,RD,CHARLOTTE,NC,28204,NEIGHBORHOOD PARK,DEVELOPED,CENTRAL,19.821,7048969808,0,0,District 3,District 4,1998-07-28T00:00:00.000Z,BLACKSR,1455673.936,538354.8284
225,INPP,INDEPENDENCE POINTE NEIGHBORHOOD PARK,INDEPENDENCE POINTE PY,0,N,NO ADDRESS,AV,MATTHEWS,NC,28105,NEIGHBORHOOD PARK,UNDEVELOPED,SOUTH,11.427,7046433405,0,0,District 2,District 6,2003-07-11T00:00:00.000Z,BLACKSR,1487684.492,507491.6013
226,MARM,MARMAC ROAD COMMUNITY PARK,TUCKASEEGEE RD,0,E,MALLARD CREEK,RD,CHARLOTTE,NC,28266,COMMUNITY PARK,UNDEVELOPED,NORTH,22.463,7045684044,0,0,District 2,District 2,2008-04-21T00:00:00.000Z,BLACKSR,1425065.211,549557.6427
227,IRWN,RAYS SPLASH PLANET,215 N SYCAMORE ST,215,E,SYCAMORE,ST,CHARLOTTE,NC,28202,RECREATION CENTER,DEVELOPED,CENTRAL,0,7043651265,0,0,District 1,District 3,1998-10-06T00:00:00.000Z,BLACKSR,1446985.92,546359.4411
228,JATC,JEFF ADAMS TENNIS CENTER,1200 W TYVOLA RD,1200,S,TYVOLA,RD,CHARLOTTE,NC,28217,SPECIAL FACILITY,DEVELOPED,SOUTH,0,7043726261,0,0,District 4,District 2,1998-07-28T00:00:00.000Z,BLACKSR,1430324.924,522928.3603
229,JBCP,JAMES BOYCE COMMUNITY PARK,300 BOYCE RD,300,S,BOYCE,RD,CHARLOTTE,NC,28211,COMMUNITY PARK,DEVELOPED,SOUTH,72.964,7043363367,0,0,District 6,District 5,1999-02-11T00:00:00.000Z,BLACKSR,1471214.044,513294.2349
230,JPLN,JETTON REGIONAL PARK,19000 JETTON RD,19000,W,JETTON,RD,CORNELIUS,NC,28078,REGIONAL PARK,DEVELOPED,NORTH,103.788,7043368866,0,0,District 1,District 1,1998-07-28T00:00:00.000Z,BLACKSR,1434565.993,633650.8289
231,JUPK,JULIAN UNDERWOOD NEIGHBORHOOD PARK,5400 GALWAY DR,5400,E,GALWAY,DR,CHARLOTTE,NC,28215,NEIGHBORHOOD PARK,DEVELOPED,SOUTH,13.163,7043368866,0,0,District 3,District 3,1998-07-28T00:00:00.000Z,BLACKSR,1476146.301,548128.5217
232,KLBN,KILBORNE COMMUNITY PARK,2600 KILBORNE DR,2600,S,KILBORNE,DR,CHARLOTTE,NC,28205,COMMUNITY PARK,DEVELOPED,SOUTH,50.823,7043363367,0,0,District 3,District 4,1998-07-28T00:00:00.000Z,BLACKSR,1471111.974,539884.2122
233,LATC,LATTA CENTER,510 EAST PARK AV,510,W,EAST PARK,AV,CHARLOTTE,NC,28203,RECREATION CENTER,DEVELOPED,CENTRAL,0,7048969808,0,0,District 3,District 4,1998-07-28T00:00:00.000Z,BLACKSR,1446980.768,536582.7893
234,LATN,LATTA PLANTATION NATURE PRESERVE,5226 SAMPLE RD,5226,S,SAMPLE,RD,HUNTERSVILLE,NC,28216,NATURE PRESERVE,DEVELOPED,NORTH,1348.334,7046433405,0,0,District 2,District 1,1998-07-28T00:00:00.000Z,BLACKSR,1431133.52,589991.009
235,LATP,LATTA COMMUNITY PARK,601 EAST PARK AV,601,N,EAST PARK,AV,CHARLOTTE,NC,28203,COMMUNITY PARK,DEVELOPED,CENTRAL,31.605,7043362884,0,0,District 2,District 4,1998-07-28T00:00:00.000Z,BLACKSR,1447160.203,536339.0379
236,LATT,LATTA PLACE HISTORIC SITE,5225 SAMPLE RD,5225,S,TYVOLA,RD,HUNTERSVILLE,NC,28216,SPECIAL FACILITY,DEVELOPED,NORTH,2.988,7048752312,0,0,District 2,District 1,1998-07-28T00:00:00.000Z,BLACKSR,1424849.789,589015.858
237,LCCP,L.C. COLEMAN NEIGHBORHOOD PARK,1501 MCDONALD ST,1501,W,KINGS,ST,CHARLOTTE,NC,28216,NEIGHBORHOOD PARK,DEVELOPED,CENTRAL,19.922,7043531165,0,0,District 3,District 2,1998-11-06T00:00:00.000Z,BLACKSR,1444327.015,554187.1161
238,DAVP,HUCKS ROAD COMMUNITY PARK,HUCKS RD,0,E,WILHELMINA,RD,CHARLOTTE,NC,28269,COMMUNITY PARK,UNDEVELOPED,NORTH,31.771,7045684044,0,0,District 2,District 1,2003-07-11T00:00:00.000Z,BLACKSR,1460268.103,587622.4485
239,MOEP,MERRY OAKS ELEM. NEIGHBORHOOD PARK,3508 DRAPER AVE,0,S,JOHNSTON OEHLER,DR,CHARLOTTE,NC,28205,NEIGHBORHOOD PARK,DEVELOPED,CENTRAL,1.436,7043651265,0,0,District 2,District 4,1998-10-12T00:00:00.000Z,BLACKSR,1466732.022,539660.225
240,MCDP,MCDOWELL CREEK NEIGHBORHOOD PARK,GILEAD RD,0,N,JOHNSTON OEHLER,ST,HUNTERSVILLE,NC,28078,NEIGHBORHOOD PARK,UNDEVELOPED,NORTH,14.349,7043726261,0,0,District 1,District 1,2008-07-28T00:00:00.000Z,BLACKSR,1437657.545,608366.9932
241,WMJP,WEST MECK NEIGHBORHOOD PARK,WESTERWOOD DR,0,S,RAVENCROFT,RD,CHARLOTTE,NC,28214,NEIGHBORHOOD PARK,UNDEVELOPED,NORTH,4.085,7043363367,0,0,District 1,District 2,2008-07-28T00:00:00.000Z,BLACKSR,1416395.272,551607.9467
242,LKWD,LAKEWOOD NEIGHBORHOOD PARK,3131 KALYNNE ST,3131,E,BAXTER,DR,CHARLOTTE,NC,28208,NEIGHBORHOOD PARK,DEVELOPED,CENTRAL,10.946,7043368866,0,0,District 3,District 2,1998-07-28T00:00:00.000Z,BLACKSR,1439507.426,552094.7424
243,LNCH,LINCOLN HEIGHTS NEIGHBORHOOD PARK,CATHERINE SIMMONS AV,0,S,MONROE,DR,CHARLOTTE,NC,28216,NEIGHBORHOOD PARK,UNDEVELOPED,CENTRAL,10.316,7043368866,0,0,District 3,District 2,1998-10-12T00:00:00.000Z,BLACKSR,1448384.377,555887.845
244,LPEQ,LATTA PLANTATION EQUESTRIAN CENTER,6201 SAMPLE RD,6201,N,SHAMROCK,ST,HUNTERSVILLE,NC,28216,SPECIAL FACILITY,DEVELOPED,NORTH,0,7043363367,0,0,District 3,District 1,1998-07-28T00:00:00.000Z,BLACKSR,1429213.194,588773.3575
245,LTLP,LITTLE PEOPLES NEIGHBORHOOD PARK,1120 HARRILL ST,1200,S,SHAMROCK,RD,CHARLOTTE,NC,28205,NEIGHBORHOOD PARK,DEVELOPED,CENTRAL,0.194,7048969808,0,0,District 2,District 3,1998-07-28T00:00:00.000Z,BLACKSR,1456404.896,543042.1736
246,LTRC,ROBERT L. SMITH REGIONAL PARK,1604 LITTLE ROCK RD,0,E,BEAL,AV,CHARLOTTE,NC,28214,REGIONAL PARK,DEVELOPED,NORTH,209.149,7046433405,0,0,District 2,District 1,1998-09-02T00:00:00.000Z,BLACKSR,1420690.976,553800.9099
247,PENN,CHARLIE AND IDA GRAHAM COMMUNITY PARK,OLIVER HAGER RD,0,S,STERLING,RD,HUNTERSVILLE,NC,28078,COMMUNITY PARK,UNDEVELOPED,NORTH,45.551,7048969808,0,0,District 2,District 1,2008-04-21T00:00:00.000Z,BLACKSR,1433550.731,616092.1017
248,MATH,MECK. CO. REGIONAL SPORTS COMPLEX,1601 TANK TOWN RD,0,N,HERRIN,RD,MATTHEWS,NC,28105,REGIONAL PARK,DEVELOPED,SOUTH,196.394,7046433405,0,0,District 3,District 6,1998-10-06T00:00:00.000Z,BLACKSR,1491044.214,498440.7913
